{
"type": "FeatureCollection",
"name": "radverkehrsnetz10",
"features": [
{ "type": "Feature", "properties": { "ID": "7956", "Bezirk_Name": "Porz", "Akt._Beschluss": "2024-12-05" }, "geometry": { "type": "LineString", "coordinates": [ [ 7.083993375270754, 50.860424997858537 ], [ 7.084011478683473, 50.860222576378327 ], [ 7.084034995775105, 50.860127269231441 ] ] } },
{ "type": "Feature", "properties": { "ID": "7958", "Bezirk_Name": "Porz", "Akt._Beschluss": "2024-12-05" }, "geometry": { "type": "LineString", "coordinates": [ [ 7.083993375270754, 50.860424997858537 ], [ 7.08396759068861, 50.860894497017696 ] ] } },
{ "type": "Feature", "properties": { "ID": "7957", "Bezirk_Name": "Porz", "Akt._Beschluss": "2024-12-05" }, "geometry": { "type": "LineString", "coordinates": [ [ 7.085117473856994, 50.858685626810875 ], [ 7.084899595802185, 50.859085509680206 ], [ 7.084641534792025, 50.859397853010982 ], [ 7.084239572427943, 50.859830327705865 ], [ 7.084097277256708, 50.860008405487044 ], [ 7.084034995775105, 50.860127269231441 ] ] } },
{ "type": "Feature", "properties": { "ID": "7955", "Bezirk_Name": "Porz", "Akt._Beschluss": "2024-12-05" }, "geometry": { "type": "LineString", "coordinates": [ [ 7.085406164007558, 50.85833996861227 ], [ 7.085230738119236, 50.858515345594874 ], [ 7.085117473856994, 50.858685626810875 ] ] } },
{ "type": "Feature", "properties": { "ID": "7954", "Bezirk_Name": "Porz", "Akt._Beschluss": "2024-12-05" }, "geometry": { "type": "LineString", "coordinates": [ [ 7.086147128280881, 50.857390695110759 ], [ 7.085981728508359, 50.857741255776588 ], [ 7.085825305679141, 50.857941947974474 ], [ 7.085660823656058, 50.858110400095086 ], [ 7.085406164007558, 50.85833996861227 ] ] } },
{ "type": "Feature", "properties": { "ID": "7953", "Bezirk_Name": "Porz", "Akt._Beschluss": "2024-12-05" }, "geometry": { "type": "LineString", "coordinates": [ [ 7.086586838335036, 50.856621747720752 ], [ 7.086147128280881, 50.857390695110759 ] ] } },
{ "type": "Feature", "properties": { "ID": "7952", "Bezirk_Name": "Porz", "Akt._Beschluss": "2024-12-05" }, "geometry": { "type": "LineString", "coordinates": [ [ 7.088559965485195, 50.854114978691911 ], [ 7.087338557981418, 50.855713924323382 ], [ 7.086776895820477, 50.856359369404281 ], [ 7.086586838335036, 50.856621747720752 ] ] } },
{ "type": "Feature", "properties": { "ID": "7951", "Bezirk_Name": "Porz", "Akt._Beschluss": "2024-12-05" }, "geometry": { "type": "LineString", "coordinates": [ [ 7.088967922167588, 50.853582307223746 ], [ 7.088559965485195, 50.854114978691911 ] ] } },
{ "type": "Feature", "properties": { "ID": "7959", "Bezirk_Name": "Porz", "Akt._Beschluss": "2024-12-05" }, "geometry": { "type": "LineString", "coordinates": [ [ 7.08396759068861, 50.860894497017696 ], [ 7.083904845143262, 50.86206445059868 ] ] } },
{ "type": "Feature", "properties": { "ID": "7960", "Bezirk_Name": "Porz", "Akt._Beschluss": "2024-12-05" }, "geometry": { "type": "LineString", "coordinates": [ [ 7.083904845143262, 50.86206445059868 ], [ 7.083862263409613, 50.862992084247324 ] ] } },
{ "type": "Feature", "properties": { "ID": "8164", "Bezirk_Name": "Porz", "Akt._Beschluss": "2024-12-05" }, "geometry": { "type": "LineString", "coordinates": [ [ 7.104837137572754, 50.880236692346294 ], [ 7.106208796395093, 50.880143571920499 ] ] } },
{ "type": "Feature", "properties": { "ID": "8163", "Bezirk_Name": "Porz", "Akt._Beschluss": "2024-12-05" }, "geometry": { "type": "LineString", "coordinates": [ [ 7.101319031645148, 50.880614887459259 ], [ 7.101663615443147, 50.880524441004546 ], [ 7.102255598836661, 50.880429563130264 ], [ 7.104837137572754, 50.880236692346294 ] ] } },
{ "type": "Feature", "properties": { "ID": "8920", "Bezirk_Name": "Porz", "Akt._Beschluss": "2024-12-05" }, "geometry": { "type": "LineString", "coordinates": [ [ 7.006844331638556, 50.840497949663778 ], [ 7.006888767313998, 50.840908468448085 ], [ 7.007315085408724, 50.8432976807618 ] ] } },
{ "type": "Feature", "properties": { "ID": "8919", "Bezirk_Name": "Porz", "Akt._Beschluss": "2024-12-05" }, "geometry": { "type": "LineString", "coordinates": [ [ 7.007315085408724, 50.8432976807618 ], [ 7.007757132604416, 50.845698761066643 ] ] } },
{ "type": "Feature", "properties": { "ID": "8314", "Bezirk_Name": "Porz", "Akt._Beschluss": "2024-12-05" }, "geometry": { "type": "LineString", "coordinates": [ [ 7.007757132604416, 50.845698761066643 ], [ 7.00788811969058, 50.846288745137784 ], [ 7.007980385640454, 50.846657269159898 ], [ 7.008164669491439, 50.846943361803909 ], [ 7.0088775794308, 50.847736376394778 ], [ 7.009030896469556, 50.847935868056197 ] ] } },
{ "type": "Feature", "properties": { "ID": "8313", "Bezirk_Name": "Porz", "Akt._Beschluss": "2024-12-05" }, "geometry": { "type": "LineString", "coordinates": [ [ 7.009030896469556, 50.847935868056197 ], [ 7.010387288679045, 50.849405936180396 ] ] } },
{ "type": "Feature", "properties": { "ID": "8311", "Bezirk_Name": "Porz", "Akt._Beschluss": "2024-12-05" }, "geometry": { "type": "LineString", "coordinates": [ [ 7.010387288679045, 50.849405936180396 ], [ 7.010567848187162, 50.849523057144694 ], [ 7.010731546472345, 50.849622442286638 ], [ 7.010959006774018, 50.849739193154839 ], [ 7.011512236443765, 50.84996285713602 ], [ 7.012041918692892, 50.850245926146144 ], [ 7.013382283999961, 50.851013627065775 ] ] } },
{ "type": "Feature", "properties": { "ID": "8312", "Bezirk_Name": "Porz", "Akt._Beschluss": "2024-12-05" }, "geometry": { "type": "LineString", "coordinates": [ [ 7.013382283999961, 50.851013627065775 ], [ 7.01364475645881, 50.851152643909955 ], [ 7.014122555462231, 50.851446961533014 ], [ 7.014784846146324, 50.851809891716655 ] ] } },
{ "type": "Feature", "properties": { "ID": "2937", "Bezirk_Name": "Nippes", "Akt._Beschluss": "2022-06-09" }, "geometry": { "type": "LineString", "coordinates": [ [ 6.946287801833349, 50.965735394417713 ], [ 6.946715528247233, 50.965407787660951 ] ] } },
{ "type": "Feature", "properties": { "ID": "2738", "Bezirk_Name": "Nippes", "Akt._Beschluss": "2022-06-09" }, "geometry": { "type": "LineString", "coordinates": [ [ 6.946287801833349, 50.965735394417713 ], [ 6.945583030475138, 50.966249111927858 ] ] } },
{ "type": "Feature", "properties": { "ID": "2739", "Bezirk_Name": "Nippes", "Akt._Beschluss": "2022-06-09" }, "geometry": { "type": "LineString", "coordinates": [ [ 6.945583030475138, 50.966249111927858 ], [ 6.944263300368688, 50.967177767953778 ] ] } },
{ "type": "Feature", "properties": { "ID": "8120", "Bezirk_Name": "Porz", "Akt._Beschluss": "2024-12-05" }, "geometry": { "type": "LineString", "coordinates": [ [ 7.055606771321425, 50.906106636234583 ], [ 7.056245338558569, 50.906590431385887 ] ] } },
{ "type": "Feature", "properties": { "ID": "8118", "Bezirk_Name": "Porz", "Akt._Beschluss": "2024-12-05" }, "geometry": { "type": "LineString", "coordinates": [ [ 7.052658848953129, 50.903825609399384 ], [ 7.05417053029546, 50.904974855646699 ] ] } },
{ "type": "Feature", "properties": { "ID": "8119", "Bezirk_Name": "Porz", "Akt._Beschluss": "2024-12-05" }, "geometry": { "type": "LineString", "coordinates": [ [ 7.05417053029546, 50.904974855646699 ], [ 7.055606771321425, 50.906106636234583 ] ] } },
{ "type": "Feature", "properties": { "ID": "7920", "Bezirk_Name": "Porz", "Akt._Beschluss": "2024-12-05" }, "geometry": { "type": "LineString", "coordinates": [ [ 6.991467896137905, 50.916078120037433 ], [ 6.99219386761834, 50.915590107878373 ] ] } },
{ "type": "Feature", "properties": { "ID": "7917", "Bezirk_Name": "Porz", "Akt._Beschluss": "2024-12-05" }, "geometry": { "type": "LineString", "coordinates": [ [ 6.989685195471075, 50.917181002637768 ], [ 6.988823449504616, 50.918114189422937 ] ] } },
{ "type": "Feature", "properties": { "ID": "7918", "Bezirk_Name": "Porz", "Akt._Beschluss": "2024-12-05" }, "geometry": { "type": "LineString", "coordinates": [ [ 6.990229644900295, 50.916699948988416 ], [ 6.989685195471075, 50.917181002637768 ] ] } },
{ "type": "Feature", "properties": { "ID": "7919", "Bezirk_Name": "Porz", "Akt._Beschluss": "2024-12-05" }, "geometry": { "type": "LineString", "coordinates": [ [ 6.990229644900295, 50.916699948988416 ], [ 6.991467896137905, 50.916078120037433 ] ] } },
{ "type": "Feature", "properties": { "ID": "7916", "Bezirk_Name": "Porz", "Akt._Beschluss": "2024-12-05" }, "geometry": { "type": "LineString", "coordinates": [ [ 6.988347815294141, 50.918486788696498 ], [ 6.988823449504616, 50.918114189422937 ] ] } },
{ "type": "Feature", "properties": { "ID": "7914", "Bezirk_Name": "Porz", "Akt._Beschluss": "2024-12-05" }, "geometry": { "type": "LineString", "coordinates": [ [ 6.986720834688974, 50.919561281771223 ], [ 6.987577692218408, 50.919059546635069 ], [ 6.988137685720347, 50.918641367197466 ] ] } },
{ "type": "Feature", "properties": { "ID": "7915", "Bezirk_Name": "Porz", "Akt._Beschluss": "2024-12-05" }, "geometry": { "type": "LineString", "coordinates": [ [ 6.988137685720347, 50.918641367197466 ], [ 6.988347815294141, 50.918486788696498 ] ] } },
{ "type": "Feature", "properties": { "ID": "8161", "Bezirk_Name": "Porz", "Akt._Beschluss": "2024-12-05" }, "geometry": { "type": "LineString", "coordinates": [ [ 7.096808509818564, 50.881433854688382 ], [ 7.097696607301897, 50.881367842054452 ] ] } },
{ "type": "Feature", "properties": { "ID": "8160", "Bezirk_Name": "Porz", "Akt._Beschluss": "2024-12-05" }, "geometry": { "type": "LineString", "coordinates": [ [ 7.094845610145079, 50.881580619201422 ], [ 7.096808509818564, 50.881433854688382 ] ] } },
{ "type": "Feature", "properties": { "ID": "8159", "Bezirk_Name": "Porz", "Akt._Beschluss": "2024-12-05" }, "geometry": { "type": "LineString", "coordinates": [ [ 7.091900644474531, 50.881719570936355 ], [ 7.092552175829121, 50.881716552141555 ], [ 7.093060630315389, 50.881697521296417 ], [ 7.094845610145079, 50.881580619201422 ] ] } },
{ "type": "Feature", "properties": { "ID": "8158", "Bezirk_Name": "Porz", "Akt._Beschluss": "2024-12-05" }, "geometry": { "type": "LineString", "coordinates": [ [ 7.090411160912309, 50.881663998162679 ], [ 7.091900644474531, 50.881719570936355 ] ] } },
{ "type": "Feature", "properties": { "ID": "8157", "Bezirk_Name": "Porz", "Akt._Beschluss": "2024-12-05" }, "geometry": { "type": "LineString", "coordinates": [ [ 7.089425334143892, 50.881609458662325 ], [ 7.090411160912309, 50.881663998162679 ] ] } },
{ "type": "Feature", "properties": { "ID": "8156", "Bezirk_Name": "Porz", "Akt._Beschluss": "2024-12-05" }, "geometry": { "type": "LineString", "coordinates": [ [ 7.087381769434026, 50.881503403049763 ], [ 7.089425334143892, 50.881609458662325 ] ] } },
{ "type": "Feature", "properties": { "ID": "8155", "Bezirk_Name": "Porz", "Akt._Beschluss": "2024-12-05" }, "geometry": { "type": "LineString", "coordinates": [ [ 7.085233313141733, 50.881324090554109 ], [ 7.086501408328311, 50.881463428343281 ], [ 7.087381769434026, 50.881503403049763 ] ] } },
{ "type": "Feature", "properties": { "ID": "8154", "Bezirk_Name": "Porz", "Akt._Beschluss": "2024-12-05" }, "geometry": { "type": "LineString", "coordinates": [ [ 7.08233602521883, 50.88155486929687 ], [ 7.082634148189234, 50.881496002721128 ], [ 7.083235826862956, 50.881335906238654 ], [ 7.083549347986647, 50.881272433659738 ], [ 7.083947081270265, 50.88123543544593 ], [ 7.0842078954817, 50.881240347193526 ], [ 7.084484537370773, 50.88126143702835 ], [ 7.085233313141733, 50.881324090554109 ] ] } },
{ "type": "Feature", "properties": { "ID": "8162", "Bezirk_Name": "Porz", "Akt._Beschluss": "2024-12-05" }, "geometry": { "type": "LineString", "coordinates": [ [ 7.101319031645148, 50.880614887459259 ], [ 7.099700973221093, 50.881141391279662 ], [ 7.099259729040423, 50.881231336818985 ], [ 7.098883563496793, 50.881276653004676 ], [ 7.097696607301897, 50.881367842054452 ] ] } },
{ "type": "Feature", "properties": { "ID": "9392", "Bezirk_Name": "Porz", "Akt._Beschluss": "2024-12-05" }, "geometry": { "type": "LineString", "coordinates": [ [ 7.098048605474483, 50.872636833290457 ], [ 7.098004615649646, 50.873305337619023 ] ] } },
{ "type": "Feature", "properties": { "ID": "9391", "Bezirk_Name": "Porz", "Akt._Beschluss": "2024-12-05" }, "geometry": { "type": "LineString", "coordinates": [ [ 7.098004615649646, 50.873305337619023 ], [ 7.097917674057174, 50.874637686238664 ] ] } },
{ "type": "Feature", "properties": { "ID": "9390", "Bezirk_Name": "Porz", "Akt._Beschluss": "2024-12-05" }, "geometry": { "type": "LineString", "coordinates": [ [ 7.097917674057174, 50.874637686238664 ], [ 7.097900640270423, 50.875007139561497 ] ] } },
{ "type": "Feature", "properties": { "ID": "9389", "Bezirk_Name": "Porz", "Akt._Beschluss": "2024-12-05" }, "geometry": { "type": "LineString", "coordinates": [ [ 7.097900640270423, 50.875007139561497 ], [ 7.097828025168674, 50.876242319585188 ] ] } },
{ "type": "Feature", "properties": { "ID": "9383", "Bezirk_Name": "Porz", "Akt._Beschluss": "2024-12-05" }, "geometry": { "type": "LineString", "coordinates": [ [ 7.097570939822006, 50.880544039809095 ], [ 7.097696607301897, 50.881367842054452 ] ] } },
{ "type": "Feature", "properties": { "ID": "9388", "Bezirk_Name": "Porz", "Akt._Beschluss": "2024-12-05" }, "geometry": { "type": "LineString", "coordinates": [ [ 7.097828025168674, 50.876242319585188 ], [ 7.097678692497847, 50.87755305486327 ] ] } },
{ "type": "Feature", "properties": { "ID": "9384", "Bezirk_Name": "Porz", "Akt._Beschluss": "2024-12-05" }, "geometry": { "type": "LineString", "coordinates": [ [ 7.097542240588933, 50.880407497363791 ], [ 7.097570939822006, 50.880544039809095 ] ] } },
{ "type": "Feature", "properties": { "ID": "9387", "Bezirk_Name": "Porz", "Akt._Beschluss": "2024-12-05" }, "geometry": { "type": "LineString", "coordinates": [ [ 7.097678692497847, 50.87755305486327 ], [ 7.097598901733701, 50.878349854597261 ] ] } },
{ "type": "Feature", "properties": { "ID": "9386", "Bezirk_Name": "Porz", "Akt._Beschluss": "2024-12-05" }, "geometry": { "type": "LineString", "coordinates": [ [ 7.097598901733701, 50.878349854597261 ], [ 7.097451100890323, 50.879650541269214 ] ] } },
{ "type": "Feature", "properties": { "ID": "9385", "Bezirk_Name": "Porz", "Akt._Beschluss": "2024-12-05" }, "geometry": { "type": "LineString", "coordinates": [ [ 7.097451100890323, 50.879650541269214 ], [ 7.097462517660469, 50.879949587829152 ], [ 7.097542240588933, 50.880407497363791 ] ] } },
{ "type": "Feature", "properties": { "ID": "8212", "Bezirk_Name": "Porz", "Akt._Beschluss": "2024-12-05" }, "geometry": { "type": "LineString", "coordinates": [ [ 7.055696737588504, 50.885545622583628 ], [ 7.057275103270131, 50.885517407693797 ], [ 7.057568611746825, 50.885533265963808 ], [ 7.057694521405091, 50.885551820228315 ] ] } },
{ "type": "Feature", "properties": { "ID": "2741", "Bezirk_Name": "Nippes", "Akt._Beschluss": "2022-06-09" }, "geometry": { "type": "LineString", "coordinates": [ [ 6.950834178354675, 50.962504901253382 ], [ 6.94993925670742, 50.963146769754168 ] ] } },
{ "type": "Feature", "properties": { "ID": "2734", "Bezirk_Name": "Nippes", "Akt._Beschluss": "2022-06-09" }, "geometry": { "type": "LineString", "coordinates": [ [ 6.951976533773553, 50.961675478683858 ], [ 6.950834178354675, 50.962504901253382 ] ] } },
{ "type": "Feature", "properties": { "ID": "2784", "Bezirk_Name": "Nippes", "Akt._Beschluss": "2022-06-09" }, "geometry": { "type": "LineString", "coordinates": [ [ 6.951976533773553, 50.961675478683858 ], [ 6.952864099915182, 50.961047403389273 ] ] } },
{ "type": "Feature", "properties": { "ID": "2783", "Bezirk_Name": "Nippes", "Akt._Beschluss": "2022-06-09" }, "geometry": { "type": "LineString", "coordinates": [ [ 6.952864099915182, 50.961047403389273 ], [ 6.9544760621806, 50.959879191208444 ] ] } },
{ "type": "Feature", "properties": { "ID": "3428", "Bezirk_Name": "Nippes", "Akt._Beschluss": "2022-06-09" }, "geometry": { "type": "LineString", "coordinates": [ [ 6.963399620575609, 50.979637595244895 ], [ 6.96339687529531, 50.97963323128608 ], [ 6.962710529165622, 50.97981404433316 ], [ 6.962724637875857, 50.980006986916102 ], [ 6.961896012541049, 50.980206713378081 ], [ 6.961699892451201, 50.980167592399091 ] ] } },
{ "type": "Feature", "properties": { "ID": "3429", "Bezirk_Name": "Nippes", "Akt._Beschluss": "2022-06-09" }, "geometry": { "type": "LineString", "coordinates": [ [ 6.961699892451201, 50.980167592399091 ], [ 6.960674545594743, 50.980210386035793 ], [ 6.960335058650871, 50.980215156543458 ] ] } },
{ "type": "Feature", "properties": { "ID": "2987", "Bezirk_Name": "Nippes", "Akt._Beschluss": "2022-06-09" }, "geometry": { "type": "LineString", "coordinates": [ [ 6.964714092143073, 50.966818218046406 ], [ 6.964798886753956, 50.968230233160789 ], [ 6.964925768962755, 50.969517948002647 ], [ 6.964940224731428, 50.969785875418381 ], [ 6.964976787487291, 50.970146717898459 ], [ 6.96513053837729, 50.970341066272397 ], [ 6.965390330092758, 50.970504215879856 ], [ 6.965193295009968, 50.970748741178937 ], [ 6.965166994172413, 50.971089794878957 ] ] } },
{ "type": "Feature", "properties": { "ID": "2736", "Bezirk_Name": "Nippes", "Akt._Beschluss": "2022-06-09" }, "geometry": { "type": "LineString", "coordinates": [ [ 6.94993925670742, 50.963146769754168 ], [ 6.949362353517382, 50.963548108941978 ] ] } },
{ "type": "Feature", "properties": { "ID": "2737", "Bezirk_Name": "Nippes", "Akt._Beschluss": "2022-06-09" }, "geometry": { "type": "LineString", "coordinates": [ [ 6.94778436387851, 50.964667032149435 ], [ 6.949362353517382, 50.963548108941978 ] ] } },
{ "type": "Feature", "properties": { "ID": "2781", "Bezirk_Name": "Nippes", "Akt._Beschluss": "2022-06-09" }, "geometry": { "type": "LineString", "coordinates": [ [ 6.946715528247233, 50.965407787660951 ], [ 6.94778436387851, 50.964667032149435 ] ] } }
]
}
