{
"type": "FeatureCollection",
"name": "radverkehrsnetz6",
"features": [
{ "type": "Feature", "properties": { "ID": "3489", "Bezirk_Name": "Innenstadt", "Akt._Beschluss": "2016-06-14" }, "geometry": { "type": "MultiLineString", "coordinates": [ [ [ 6.957193883261095, 50.929518981758818 ], [ 6.958938409821931, 50.929813592986442 ], [ 6.959349378812644, 50.929887406860978 ], [ 6.960123185781608, 50.929889470296331 ] ], [ [ 6.95405762507685, 50.929679691141629 ], [ 6.95467555415441, 50.929603243609591 ], [ 6.955043027149512, 50.929595404293217 ], [ 6.955388863735254, 50.929667423764094 ], [ 6.955462878176604, 50.929678900236041 ] ] ] } },
{ "type": "Feature", "properties": { "ID": "6149", "Bezirk_Name": "Rodenkirchen", "Akt._Beschluss": "2022-05-02" }, "geometry": { "type": "LineString", "coordinates": [ [ 6.930392377456725, 50.867757180716573 ], [ 6.931967210906606, 50.86750845299359 ], [ 6.934591425300907, 50.867093820751876 ], [ 6.935717672032169, 50.866915797173959 ], [ 6.936816567741866, 50.866742225745782 ], [ 6.938270406844627, 50.866460784323259 ], [ 6.940525593578391, 50.865732536158085 ], [ 6.941930551493726, 50.865352872699837 ], [ 6.943552680705769, 50.865111209196868 ], [ 6.944744591279582, 50.865089490623049 ], [ 6.945972463393693, 50.865271294914052 ], [ 6.946940617382955, 50.865441860835148 ], [ 6.94819148108482, 50.865679808253695 ], [ 6.949550927522147, 50.865720436157723 ], [ 6.951051470604489, 50.865528426294937 ], [ 6.951971216009871, 50.865072486377194 ], [ 6.952688952630354, 50.86460777824756 ], [ 6.953872540779771, 50.86412659332737 ], [ 6.955812983552188, 50.863623133930709 ], [ 6.958329706738855, 50.862887433591183 ], [ 6.960058110966708, 50.862466534419042 ], [ 6.961051831750725, 50.862399452606041 ], [ 6.962120191629548, 50.862445639703644 ], [ 6.962799557761552, 50.862603564521599 ], [ 6.963982752441466, 50.862930189583089 ] ] } },
{ "type": "Feature", "properties": { "ID": "3894", "Bezirk_Name": "Innenstadt", "Akt._Beschluss": "2016-06-14" }, "geometry": { "type": "LineString", "coordinates": [ [ 6.955462878176604, 50.929678900236041 ], [ 6.957101726341309, 50.929933006570941 ] ] } }
]
}
