{
"type": "FeatureCollection",
"name": "radverkehrsnetz3",
"features": [
{ "type": "Feature", "properties": { "ID": "9005", "Bezirk_Name": "Porz", "Akt._Beschluss": "2022-09-01" }, "geometry": { "type": "LineString", "coordinates": [ [ 7.0369577, 50.8591839 ], [ 7.031108976689104, 50.856497447057301 ], [ 7.027003530324984, 50.854673131074584 ], [ 7.018320327193432, 50.851105165372445 ] ] } },
{ "type": "Feature", "properties": { "ID": "9398", "Bezirk_Name": "Porz", "Akt._Beschluss": "2022-09-01" }, "geometry": { "type": "LineString", "coordinates": [ [ 7.078722, 50.8560672 ], [ 7.080675084650261, 50.856668634905468 ] ] } },
{ "type": "Feature", "properties": { "ID": "8989", "Bezirk_Name": "Porz", "Akt._Beschluss": "2022-09-01" }, "geometry": { "type": "LineString", "coordinates": [ [ 7.092403516663199, 50.845345403533805 ], [ 7.094489068904551, 50.843420379202236 ], [ 7.09673113807934, 50.841760219173629 ] ] } },
{ "type": "Feature", "properties": { "ID": "8347", "Bezirk_Name": "Porz", "Akt._Beschluss": "2022-09-01" }, "geometry": { "type": "LineString", "coordinates": [ [ 7.096930008558789, 50.843658985184653 ], [ 7.096719008905226, 50.843025081526633 ], [ 7.096648051438639, 50.842834965275863 ], [ 7.09647193569839, 50.842289948774919 ], [ 7.096541997882245, 50.841988992024611 ], [ 7.096736034602015, 50.841755082686284 ], [ 7.098604876169213, 50.840162995713705 ], [ 7.100442510232208, 50.83861569942119 ] ] } },
{ "type": "Feature", "properties": { "ID": "8377", "Bezirk_Name": "Porz", "Akt._Beschluss": "2022-09-01" }, "geometry": { "type": "LineString", "coordinates": [ [ 7.081397970749457, 50.862921998739402 ], [ 7.081374665425472, 50.862942750783986 ], [ 7.081318539989386, 50.862970248045144 ], [ 7.081220164049743, 50.863016117181893 ], [ 7.081121446892086, 50.863052986891184 ], [ 7.080910022980856, 50.863117861978139 ], [ 7.080712676389499, 50.863182518564592 ], [ 7.080543413444069, 50.863238103469804 ], [ 7.080360079551809, 50.86329372644034 ], [ 7.080233269464146, 50.863339846431174 ], [ 7.080148909155753, 50.863376591796118 ], [ 7.079963625121379, 50.863465818625428 ], [ 7.079544774167823, 50.863968420320276 ], [ 7.079499626707853, 50.864050329621556 ], [ 7.079463958618699, 50.864275035554435 ] ] } },
{ "type": "Feature", "properties": { "ID": "9408", "Bezirk_Name": "Porz", "Akt._Beschluss": "2022-09-01" }, "geometry": { "type": "LineString", "coordinates": [ [ 7.099200170669332, 50.856370862790719 ], [ 7.099065824617892, 50.856323705351116 ], [ 7.098920497407916, 50.856302000939081 ], [ 7.0986405, 50.8562864 ], [ 7.0985939, 50.8562909 ] ] } },
{ "type": "Feature", "properties": { "ID": "9412", "Bezirk_Name": "Porz", "Akt._Beschluss": "2022-09-01" }, "geometry": { "type": "LineString", "coordinates": [ [ 7.087274653900601, 50.882876064686982 ], [ 7.084574, 50.8894052 ] ] } },
{ "type": "Feature", "properties": { "ID": "9413", "Bezirk_Name": "Porz", "Akt._Beschluss": "2022-09-01" }, "geometry": { "type": "LineString", "coordinates": [ [ 7.081930330219723, 50.8926225936072 ], [ 7.0828875, 50.8928698 ], [ 7.085929344776893, 50.893004577588343 ], [ 7.0858035, 50.8935303 ], [ 7.0857874, 50.8950766 ], [ 7.0851849, 50.8951536 ] ] } },
{ "type": "Feature", "properties": { "ID": "947", "Bezirk_Name": "Kalk", "Akt._Beschluss": "2022-04-07" }, "geometry": { "type": "LineString", "coordinates": [ [ 7.070661669749217, 50.928842126371954 ], [ 7.071663592338478, 50.928708517271922 ], [ 7.074066674328591, 50.928531127705646 ], [ 7.075617921881645, 50.928615336812015 ], [ 7.077559807122069, 50.928901982014764 ], [ 7.07868631914627, 50.9291929803572 ] ] } },
{ "type": "Feature", "properties": { "ID": "8597", "Bezirk_Name": "Porz", "Akt._Beschluss": "2022-09-01" }, "geometry": { "type": "LineString", "coordinates": [ [ 7.063158, 50.887123500000015 ], [ 7.0619067, 50.8861817 ] ] } },
{ "type": "Feature", "properties": { "ID": "9366", "Bezirk_Name": "Porz", "Akt._Beschluss": "2022-09-01" }, "geometry": { "type": "LineString", "coordinates": [ [ 7.061237990745108, 50.909423384235353 ], [ 7.058815232688537, 50.908683135531433 ] ] } },
{ "type": "Feature", "properties": { "ID": "9402", "Bezirk_Name": "Porz", "Akt._Beschluss": "2022-09-01" }, "geometry": { "type": "LineString", "coordinates": [ [ 7.057543328549028, 50.909620522599916 ], [ 7.057928150021939, 50.909729184700616 ] ] } },
{ "type": "Feature", "properties": { "ID": "8405", "Bezirk_Name": "Porz", "Akt._Beschluss": "2022-09-01" }, "geometry": { "type": "LineString", "coordinates": [ [ 7.058051874111071, 50.889092121590345 ], [ 7.058114654293322, 50.888946748480656 ], [ 7.058193775404614, 50.888866581921796 ] ] } },
{ "type": "Feature", "properties": { "ID": "8407", "Bezirk_Name": "Porz", "Akt._Beschluss": "2022-09-01" }, "geometry": { "type": "LineString", "coordinates": [ [ 7.058193775404614, 50.888866581921796 ], [ 7.058165722097897, 50.88874793760553 ], [ 7.058352865704741, 50.888080659371695 ], [ 7.058537563429619, 50.887981563585491 ], [ 7.05875671130799, 50.887129096710233 ] ] } },
{ "type": "Feature", "properties": { "ID": "8406", "Bezirk_Name": "Porz", "Akt._Beschluss": "2022-09-01" }, "geometry": { "type": "LineString", "coordinates": [ [ 7.05931280622397, 50.885579103915177 ], [ 7.059259395405025, 50.885683981877747 ], [ 7.059151754040796, 50.88578687863248 ], [ 7.05901308294326, 50.886133438831301 ], [ 7.059011078959564, 50.886362925371401 ], [ 7.05875671130799, 50.887129096710233 ] ] } },
{ "type": "Feature", "properties": { "ID": "8408", "Bezirk_Name": "Porz", "Akt._Beschluss": "2022-09-01" }, "geometry": { "type": "LineString", "coordinates": [ [ 7.051544017322151, 50.89478099983036 ], [ 7.054012041343675, 50.893324005641496 ], [ 7.055317008970838, 50.892600988565484 ], [ 7.055811064984066, 50.892289043920115 ], [ 7.056321990258739, 50.891722046438765 ], [ 7.056956940664108, 50.891054943142848 ], [ 7.05741506820763, 50.890543002773846 ], [ 7.05773297656995, 50.890208961162081 ], [ 7.057926935944426, 50.889719962761816 ], [ 7.058138060377297, 50.889119007998794 ] ] } },
{ "type": "Feature", "properties": { "ID": "8782", "Bezirk_Name": "Porz", "Akt._Beschluss": "2022-09-01" }, "geometry": { "type": "LineString", "coordinates": [ [ 7.0454614, 50.9076878 ], [ 7.0459352, 50.9076102 ], [ 7.0467969, 50.9074658 ], [ 7.0471179, 50.9073451 ], [ 7.0472207, 50.9071697 ], [ 7.0470846, 50.9069487 ], [ 7.0467046, 50.9066292 ], [ 7.0458686, 50.9058627 ], [ 7.0452958, 50.9053594 ], [ 7.044944641285137, 50.905080684033749 ] ] } },
{ "type": "Feature", "properties": { "ID": "8942", "Bezirk_Name": "Porz", "Akt._Beschluss": "2022-09-01" }, "geometry": { "type": "LineString", "coordinates": [ [ 7.0454614, 50.9076878 ], [ 7.0452902, 50.90774960000001 ], [ 7.0451629, 50.9079036 ], [ 7.0451876, 50.90802870000001 ], [ 7.0454801, 50.9085189 ], [ 7.045580945657122, 50.90855293089048 ], [ 7.0460858, 50.9084315 ], [ 7.0466558, 50.9084148 ], [ 7.0476739, 50.9081303 ] ] } },
{ "type": "Feature", "properties": { "ID": "2507", "Bezirk_Name": "Mülheim", "Akt._Beschluss": "2022-05-02" }, "geometry": { "type": "LineString", "coordinates": [ [ 7.093311634999623, 50.967289558605628 ], [ 7.093712084141726, 50.96705443940548 ], [ 7.095033537156094, 50.966991465679371 ], [ 7.096587016083042, 50.967175445696753 ], [ 7.099620874292042, 50.966013246779809 ] ] } },
{ "type": "Feature", "properties": { "ID": "2508", "Bezirk_Name": "Mülheim", "Akt._Beschluss": "2022-05-02" }, "geometry": { "type": "LineString", "coordinates": [ [ 7.069894753000183, 50.981174520866794 ], [ 7.076843150658076, 50.982399502855934 ] ] } },
{ "type": "Feature", "properties": { "ID": "2509", "Bezirk_Name": "Mülheim", "Akt._Beschluss": "2022-05-02" }, "geometry": { "type": "LineString", "coordinates": [ [ 7.0686103, 50.9814219 ], [ 7.075408891233853, 50.982539204111106 ], [ 7.075846, 50.9828884 ] ] } },
{ "type": "Feature", "properties": { "ID": "1561", "Bezirk_Name": "Mülheim", "Akt._Beschluss": "2022-05-02" }, "geometry": { "type": "LineString", "coordinates": [ [ 7.063089051178799, 50.969303067814785 ], [ 7.063476058767973, 50.96933700716108 ], [ 7.063749928625611, 50.969419973037098 ], [ 7.064031807713222, 50.969508238515211 ] ] } },
{ "type": "Feature", "properties": { "ID": "9033", "Bezirk_Name": "Porz", "Akt._Beschluss": "2022-09-01" }, "geometry": { "type": "LineString", "coordinates": [ [ 7.131633996709084, 50.919932295678471 ], [ 7.134037903355697, 50.919703638223211 ], [ 7.136104483757359, 50.919641143309605 ], [ 7.13831601948665, 50.919882209213533 ], [ 7.139758320802597, 50.919971755917665 ] ] } },
{ "type": "Feature", "properties": { "ID": "9019", "Bezirk_Name": "Porz", "Akt._Beschluss": "2022-09-01" }, "geometry": { "type": "LineString", "coordinates": [ [ 7.130903673195811, 50.919839661324261 ], [ 7.131633996709084, 50.919932295678471 ] ] } },
{ "type": "Feature", "properties": { "ID": "775", "Bezirk_Name": "Kalk", "Akt._Beschluss": "2022-04-07" }, "geometry": { "type": "LineString", "coordinates": [ [ 7.12725554543116, 50.942885699381257 ], [ 7.127382065206995, 50.942883232917687 ], [ 7.131084641608666, 50.942722265337359 ], [ 7.131210338579581, 50.942719781554956 ], [ 7.131257378566723, 50.942720534516191 ], [ 7.131299545195205, 50.942725705340088 ], [ 7.13137344079522, 50.942735879881162 ], [ 7.13148796917467, 50.942760191453615 ], [ 7.135919303449146, 50.943703407713606 ] ] } },
{ "type": "Feature", "properties": { "ID": "783", "Bezirk_Name": "Kalk", "Akt._Beschluss": "2022-04-07" }, "geometry": { "type": "LineString", "coordinates": [ [ 7.135919303449146, 50.943703407713606 ], [ 7.135970850057634, 50.943717718372056 ], [ 7.136836215130381, 50.943902374299995 ], [ 7.137668737305091, 50.944086590713702 ], [ 7.137954986241289, 50.944149602024837 ], [ 7.138586064829587, 50.944299037733373 ], [ 7.13860887843133, 50.94430389734358 ], [ 7.139069590948132, 50.944419142006858 ], [ 7.139128005314504, 50.944429064847206 ], [ 7.139190000729247, 50.944434548854005 ], [ 7.139251940837226, 50.944435536065839 ], [ 7.139313825620521, 50.944432026482602 ], [ 7.13978339972191, 50.944390055531692 ], [ 7.140781623235319, 50.94429355931392 ], [ 7.141857792029392, 50.944202791028893 ], [ 7.14200649270731, 50.944191669956169 ], [ 7.142102811006972, 50.944184210998429 ], [ 7.142190973241712, 50.944181118954745 ], [ 7.142271157211846, 50.944177898994859 ], [ 7.142391572924226, 50.944184310873034 ], [ 7.142539144655255, 50.944195649655114 ], [ 7.142697328245915, 50.944211653846516 ], [ 7.142848763016854, 50.944232046347651 ], [ 7.143562662282172, 50.94432432603751 ], [ 7.143684184796523, 50.944344241812551 ] ] } },
{ "type": "Feature", "properties": { "ID": "984", "Bezirk_Name": "Kalk", "Akt._Beschluss": "2022-04-07" }, "geometry": { "type": "LineString", "coordinates": [ [ 7.141116989039392, 50.938155208295605 ], [ 7.141893670647396, 50.938048073242804 ] ] } },
{ "type": "Feature", "properties": { "ID": "782", "Bezirk_Name": "Kalk", "Akt._Beschluss": "2022-04-07" }, "geometry": { "type": "LineString", "coordinates": [ [ 7.143684184796523, 50.944344241812551 ], [ 7.143978370031057, 50.944393877744531 ], [ 7.144183468669667, 50.944428609243737 ], [ 7.14425818944678, 50.944438788709597 ], [ 7.144326811261666, 50.944448871188186 ], [ 7.144391332296692, 50.944449896693627 ], [ 7.144460366393171, 50.944455489768437 ], [ 7.144625892938453, 50.944458120406871 ], [ 7.144927505955372, 50.944453921447014 ], [ 7.144979883473474, 50.944459249552352 ], [ 7.145024812914198, 50.944459963418751 ], [ 7.145063637040939, 50.944469572021063 ], [ 7.145097417805281, 50.944479100482596 ], [ 7.145131487827605, 50.94449312850783 ], [ 7.145174055276492, 50.944520780054361 ] ] } },
{ "type": "Feature", "properties": { "ID": "959", "Bezirk_Name": "Kalk", "Akt._Beschluss": "2022-04-07" }, "geometry": { "type": "LineString", "coordinates": [ [ 7.139758276545238, 50.919971759713725 ], [ 7.139133711951491, 50.921069769472119 ], [ 7.139776199350583, 50.922807956634223 ], [ 7.136467577795416, 50.92743215764623 ], [ 7.139356413961283, 50.932463803415125 ], [ 7.139811595958697, 50.934305823033391 ], [ 7.140762346110186, 50.935349983464214 ], [ 7.141116989039392, 50.938155208295605 ], [ 7.143097333105456, 50.940618897938698 ], [ 7.144671867420175, 50.943586473526352 ], [ 7.143978370031057, 50.944393877744531 ] ] } },
{ "type": "Feature", "properties": { "ID": "985", "Bezirk_Name": "Kalk", "Akt._Beschluss": "2022-04-07" }, "geometry": { "type": "LineString", "coordinates": [ [ 7.139689877770184, 50.933779845028283 ], [ 7.139954685469828, 50.933781636283285 ] ] } },
{ "type": "Feature", "properties": { "ID": "780", "Bezirk_Name": "Kalk", "Akt._Beschluss": "2022-04-07" }, "geometry": { "type": "LineString", "coordinates": [ [ 7.123178995349424, 50.943072095427773 ], [ 7.12725554543116, 50.942885699381257 ] ] } },
{ "type": "Feature", "properties": { "ID": "960", "Bezirk_Name": "Kalk", "Akt._Beschluss": "2022-04-07" }, "geometry": { "type": "LineString", "coordinates": [ [ 7.11404843441272, 50.939840153339254 ], [ 7.11910084710697, 50.936974614069612 ], [ 7.121925346695225, 50.935306977169965 ], [ 7.123859560984585, 50.934829863613814 ], [ 7.129451017507157, 50.933724405462591 ], [ 7.132076918631729, 50.933387628939521 ], [ 7.139689877770184, 50.933779845028283 ] ] } },
{ "type": "Feature", "properties": { "ID": "958", "Bezirk_Name": "Kalk", "Akt._Beschluss": "2022-04-07" }, "geometry": { "type": "LineString", "coordinates": [ [ 7.131666850659194, 50.919996559196626 ], [ 7.13137744655393, 50.924317596778096 ], [ 7.1307820969872, 50.927194691360597 ], [ 7.129659127042657, 50.930049752150936 ], [ 7.129078186434682, 50.931662465547525 ], [ 7.129451017507157, 50.933724405462591 ], [ 7.12984897510468, 50.937796401818694 ], [ 7.130124605699267, 50.940226250545933 ], [ 7.128687336027379, 50.941579947230963 ], [ 7.127550504201854, 50.942313699464918 ], [ 7.127012337745215, 50.944077069899912 ] ] } },
{ "type": "Feature", "properties": { "ID": "9010", "Bezirk_Name": "Porz", "Akt._Beschluss": "2022-09-01" }, "geometry": { "type": "LineString", "coordinates": [ [ 7.127387552487548, 50.919351613701124 ], [ 7.130903673195811, 50.919839661324261 ] ] } },
{ "type": "Feature", "properties": { "ID": "9009", "Bezirk_Name": "Porz", "Akt._Beschluss": "2022-09-01" }, "geometry": { "type": "LineString", "coordinates": [ [ 7.124195556613506, 50.919448756691295 ], [ 7.126888107137519, 50.919352593840173 ], [ 7.12725055851731, 50.91934042227507 ], [ 7.127387552487548, 50.919351613701124 ] ] } },
{ "type": "Feature", "properties": { "ID": "957", "Bezirk_Name": "Kalk", "Akt._Beschluss": "2022-04-07" }, "geometry": { "type": "LineString", "coordinates": [ [ 7.110170117539913, 50.920931295787149 ], [ 7.116501704023922, 50.921909162619201 ], [ 7.123754369156022, 50.924035984672237 ], [ 7.125880274561992, 50.92453420070408 ], [ 7.128837441172522, 50.923839369745579 ], [ 7.132643582702594, 50.924593673549367 ], [ 7.134645133772068, 50.925719073551655 ], [ 7.137326347091692, 50.92653787576711 ] ] } },
{ "type": "Feature", "properties": { "ID": "9016", "Bezirk_Name": "Porz", "Akt._Beschluss": "2022-09-01" }, "geometry": { "type": "LineString", "coordinates": [ [ 7.124195556613506, 50.919448756691295 ], [ 7.121141602454625, 50.919566021665275 ] ] } },
{ "type": "Feature", "properties": { "ID": "9012", "Bezirk_Name": "Porz", "Akt._Beschluss": "2022-09-01" }, "geometry": { "type": "LineString", "coordinates": [ [ 7.121141602454625, 50.919566021665275 ], [ 7.120477693134618, 50.919591307869709 ], [ 7.117162197018241, 50.919708753997575 ], [ 7.116982817481921, 50.919714854046568 ], [ 7.116865393301159, 50.919726450155878 ], [ 7.116759059855946, 50.919738225082092 ], [ 7.116610314555872, 50.919753812415422 ] ] } },
{ "type": "Feature", "properties": { "ID": "961", "Bezirk_Name": "Kalk", "Akt._Beschluss": "2022-04-07" }, "geometry": { "type": "LineString", "coordinates": [ [ 7.093668626594988, 50.937422783173886 ], [ 7.098899271241383, 50.935345286421096 ], [ 7.101665957333407, 50.934233785053948 ], [ 7.111878029272462, 50.934098624772119 ], [ 7.11910084710697, 50.936974614069612 ], [ 7.124627787333009, 50.938173292997604 ], [ 7.127679882302616, 50.937705705934675 ], [ 7.128582501921273, 50.93752020180704 ], [ 7.129888274403309, 50.937984060019964 ], [ 7.134665231321637, 50.939039324607535 ], [ 7.141116989039392, 50.938155208295605 ] ] } },
{ "type": "Feature", "properties": { "ID": "779", "Bezirk_Name": "Kalk", "Akt._Beschluss": "2022-04-07" }, "geometry": { "type": "LineString", "coordinates": [ [ 7.116925648094273, 50.943479524076999 ], [ 7.117008472567532, 50.943381950312016 ] ] } },
{ "type": "Feature", "properties": { "ID": "777", "Bezirk_Name": "Kalk", "Akt._Beschluss": "2022-04-07" }, "geometry": { "type": "LineString", "coordinates": [ [ 7.117813830535069, 50.943309514941475 ], [ 7.123178995349424, 50.943072095427773 ] ] } },
{ "type": "Feature", "properties": { "ID": "778", "Bezirk_Name": "Kalk", "Akt._Beschluss": "2022-04-07" }, "geometry": { "type": "LineString", "coordinates": [ [ 7.111914318696333, 50.934193625645854 ], [ 7.112881841971685, 50.936758976076796 ], [ 7.113571450698633, 50.938586817982724 ], [ 7.11368092058563, 50.938871917429687 ], [ 7.11404843441272, 50.939840153339254 ] ] } },
{ "type": "Feature", "properties": { "ID": "774", "Bezirk_Name": "Kalk", "Akt._Beschluss": "2022-04-07" }, "geometry": { "type": "LineString", "coordinates": [ [ 7.114350413924893, 50.940609510853207 ], [ 7.114588986248513, 50.941211405377189 ] ] } },
{ "type": "Feature", "properties": { "ID": "768", "Bezirk_Name": "Kalk", "Akt._Beschluss": "2022-04-07" }, "geometry": { "type": "LineString", "coordinates": [ [ 7.11404843441272, 50.939840153339254 ], [ 7.114350413924893, 50.940609510853207 ] ] } },
{ "type": "Feature", "properties": { "ID": "9008", "Bezirk_Name": "Porz", "Akt._Beschluss": "2022-09-01" }, "geometry": { "type": "LineString", "coordinates": [ [ 7.114334973182996, 50.920189242759072 ], [ 7.116610314555872, 50.919753812415422 ] ] } },
{ "type": "Feature", "properties": { "ID": "962", "Bezirk_Name": "Kalk", "Akt._Beschluss": "2022-04-07" }, "geometry": { "type": "LineString", "coordinates": [ [ 7.095907285225677, 50.929493760583789 ], [ 7.098382668581174, 50.929631042386717 ], [ 7.104204700326746, 50.929131740185461 ], [ 7.10701801447625, 50.928691838646991 ], [ 7.109691881902417, 50.928914374414632 ], [ 7.111984262695808, 50.92849109344467 ], [ 7.115879960574303, 50.928393981823461 ], [ 7.119166525978867, 50.929052577136851 ], [ 7.122956743645846, 50.928839244276688 ], [ 7.125102156867674, 50.9291522865377 ], [ 7.126707987431928, 50.928996253153663 ], [ 7.129862038025587, 50.929797816172837 ] ] } },
{ "type": "Feature", "properties": { "ID": "9014", "Bezirk_Name": "Porz", "Akt._Beschluss": "2022-09-01" }, "geometry": { "type": "LineString", "coordinates": [ [ 7.109637458276068, 50.9210216186503 ], [ 7.109903371879248, 50.92097645977627 ], [ 7.110170138138797, 50.920931314103186 ], [ 7.112516671553076, 50.920510606246637 ], [ 7.114334973182996, 50.920189242759072 ] ] } },
{ "type": "Feature", "properties": { "ID": "773", "Bezirk_Name": "Kalk", "Akt._Beschluss": "2022-04-07" }, "geometry": { "type": "LineString", "coordinates": [ [ 7.110392676553274, 50.930625526234124 ], [ 7.111878029272462, 50.934098624772119 ] ] } },
{ "type": "Feature", "properties": { "ID": "770", "Bezirk_Name": "Kalk", "Akt._Beschluss": "2022-04-07" }, "geometry": { "type": "LineString", "coordinates": [ [ 7.109691881902417, 50.928914374414632 ], [ 7.110392676553274, 50.930625526234124 ] ] } },
{ "type": "Feature", "properties": { "ID": "764", "Bezirk_Name": "Kalk", "Akt._Beschluss": "2022-04-07" }, "geometry": { "type": "LineString", "coordinates": [ [ 7.108904583104726, 50.927624519821826 ], [ 7.109433791980917, 50.928478498723393 ], [ 7.109646806165443, 50.92881923044385 ], [ 7.109691881902417, 50.928914374414632 ] ] } },
{ "type": "Feature", "properties": { "ID": "765", "Bezirk_Name": "Kalk", "Akt._Beschluss": "2022-04-07" }, "geometry": { "type": "LineString", "coordinates": [ [ 7.108875747041314, 50.926414477001117 ], [ 7.108904583104726, 50.927624519821826 ] ] } },
{ "type": "Feature", "properties": { "ID": "763", "Bezirk_Name": "Kalk", "Akt._Beschluss": "2022-04-07" }, "geometry": { "type": "LineString", "coordinates": [ [ 7.108828837286578, 50.924556463873138 ], [ 7.108875811914297, 50.925996270368451 ], [ 7.108875747041314, 50.926414477001117 ] ] } },
{ "type": "Feature", "properties": { "ID": "767", "Bezirk_Name": "Kalk", "Akt._Beschluss": "2022-04-07" }, "geometry": { "type": "LineString", "coordinates": [ [ 7.108813288310615, 50.923611894461764 ], [ 7.108827036553405, 50.924502483775925 ] ] } },
{ "type": "Feature", "properties": { "ID": "766", "Bezirk_Name": "Kalk", "Akt._Beschluss": "2022-04-07" }, "geometry": { "type": "LineString", "coordinates": [ [ 7.108779077605115, 50.920859311497047 ], [ 7.108793778507251, 50.921408139159396 ], [ 7.108813288310615, 50.923611894461764 ] ] } },
{ "type": "Feature", "properties": { "ID": "9011", "Bezirk_Name": "Porz", "Akt._Beschluss": "2022-09-01" }, "geometry": { "type": "LineString", "coordinates": [ [ 7.108779081541247, 50.920859319650361 ], [ 7.109402022273973, 50.920981831134263 ], [ 7.109637458276068, 50.9210216186503 ] ] } },
{ "type": "Feature", "properties": { "ID": "9409", "Bezirk_Name": "Porz", "Akt._Beschluss": "2022-09-01" }, "geometry": { "type": "LineString", "coordinates": [ [ 7.107874348253393, 50.917319155595067 ], [ 7.108061188775375, 50.918507364614882 ], [ 7.108574489970819, 50.920199380122121 ], [ 7.108925696025604, 50.920833275145448 ] ] } },
{ "type": "Feature", "properties": { "ID": "9015", "Bezirk_Name": "Porz", "Akt._Beschluss": "2022-09-01" }, "geometry": { "type": "LineString", "coordinates": [ [ 7.103596214477054, 50.920361524951268 ], [ 7.105186242417389, 50.920238951526294 ], [ 7.105314152175639, 50.920232034163639 ], [ 7.105366620358717, 50.920232885801056 ], [ 7.105415107218517, 50.92023367279463 ], [ 7.1054892497871, 50.920243869797581 ], [ 7.105584822770053, 50.920258911372315 ], [ 7.106323449649197, 50.920387813667304 ], [ 7.108657422958639, 50.920834864419767 ], [ 7.108779081541247, 50.920859319650361 ] ] } },
{ "type": "Feature", "properties": { "ID": "9017", "Bezirk_Name": "Porz", "Akt._Beschluss": "2022-09-01" }, "geometry": { "type": "LineString", "coordinates": [ [ 7.102625319082554, 50.920479122872194 ], [ 7.103517826991325, 50.920364748222681 ], [ 7.103596214477054, 50.920361524951268 ] ] } },
{ "type": "Feature", "properties": { "ID": "979", "Bezirk_Name": "Kalk", "Akt._Beschluss": "2022-04-07" }, "geometry": { "type": "LineString", "coordinates": [ [ 7.090024485722948, 50.95062690734828 ], [ 7.092106047192615, 50.950202001372205 ], [ 7.092782331777721, 50.94937474819406 ], [ 7.093415629092633, 50.94783877672819 ], [ 7.094598021490526, 50.945284183912968 ], [ 7.094877421205612, 50.94458900411454 ], [ 7.092411081623866, 50.940615816226078 ] ] } },
{ "type": "Feature", "properties": { "ID": "5037", "Bezirk_Name": "Chorweiler", "Akt._Beschluss": "2022-06-09" }, "geometry": { "type": "LineString", "coordinates": [ [ 6.892569457082699, 51.021854137082052 ], [ 6.891945251051885, 51.022128694221436 ], [ 6.891277577940042, 51.022650593149592 ], [ 6.890903131780175, 51.023086436692118 ], [ 6.889986163819288, 51.024054674596378 ], [ 6.889687331293425, 51.024467574586033 ] ] } },
{ "type": "Feature", "properties": { "ID": "4961", "Bezirk_Name": "Chorweiler", "Akt._Beschluss": "2022-06-09" }, "geometry": { "type": "LineString", "coordinates": [ [ 6.8830986, 51.0242532 ], [ 6.8836825, 51.024352099999987 ], [ 6.8855322, 51.0245165 ], [ 6.885455066837157, 51.024756809813205 ], [ 6.8852206, 51.0252934 ], [ 6.887318, 51.0258351 ], [ 6.889119916792602, 51.026310340430442 ], [ 6.8895396, 51.0265224 ], [ 6.8896463, 51.0266874 ], [ 6.8902497, 51.0269304 ], [ 6.8906226, 51.026944 ], [ 6.8916717, 51.0273288 ], [ 6.8923915, 51.027595699999985 ], [ 6.8924107, 51.0277204 ], [ 6.893059, 51.0279998 ] ] } },
{ "type": "Feature", "properties": { "ID": "4964", "Bezirk_Name": "Chorweiler", "Akt._Beschluss": "2022-06-09" }, "geometry": { "type": "LineString", "coordinates": [ [ 6.863897422673473, 51.041191697806774 ], [ 6.864166566995706, 51.041031583701439 ], [ 6.864300262257059, 51.040916299894093 ], [ 6.865333044504917, 51.039896759158403 ], [ 6.866382580963022, 51.038868611617971 ], [ 6.867381476442072, 51.037873616578018 ], [ 6.867485266913659, 51.037800323632183 ], [ 6.867594617310449, 51.037758160491258 ], [ 6.867686369927462, 51.037745085566861 ], [ 6.86776595426331, 51.037739163337285 ], [ 6.867968855572103, 51.037747273543182 ], [ 6.868053079577599, 51.037745932665395 ], [ 6.868121593478484, 51.037729465356605 ], [ 6.868184193759671, 51.037686448495478 ], [ 6.868209527984585, 51.037644190549223 ], [ 6.868216058937559, 51.037604467461883 ], [ 6.868173694919304, 51.037508090910613 ] ] } },
{ "type": "Feature", "properties": { "ID": "4960", "Bezirk_Name": "Chorweiler", "Akt._Beschluss": "2022-06-09" }, "geometry": { "type": "LineString", "coordinates": [ [ 6.868339082256823, 51.015682546984799 ], [ 6.86139069884122, 51.015391481351557 ] ] } },
{ "type": "Feature", "properties": { "ID": "4965", "Bezirk_Name": "Chorweiler", "Akt._Beschluss": "2022-06-09" }, "geometry": { "type": "LineString", "coordinates": [ [ 6.868173694919304, 51.037508090910613 ], [ 6.868841515360848, 51.037465773997674 ], [ 6.869449484095765, 51.037453210230773 ], [ 6.87009888424319, 51.037454799375816 ], [ 6.87092162402204, 51.037496328617067 ], [ 6.871391618215469, 51.03753430305008 ], [ 6.871793925392322, 51.037576978350515 ], [ 6.872493800177976, 51.037675616722467 ] ] } },
{ "type": "Feature", "properties": { "ID": "4959", "Bezirk_Name": "Chorweiler", "Akt._Beschluss": "2022-06-09" }, "geometry": { "type": "LineString", "coordinates": [ [ 6.880649490760796, 51.016316685007418 ], [ 6.878986622837509, 51.015843467971919 ], [ 6.878093657701013, 51.016761160578589 ], [ 6.868339082256823, 51.015682546984799 ] ] } },
{ "type": "Feature", "properties": { "ID": "4963", "Bezirk_Name": "Chorweiler", "Akt._Beschluss": "2022-06-09" }, "geometry": { "type": "LineString", "coordinates": [ [ 6.850184556180396, 51.059566017087711 ], [ 6.8491986, 51.0589843 ], [ 6.8487743, 51.0587813 ], [ 6.8485995, 51.0587582 ], [ 6.848322037469747, 51.058733785506504 ], [ 6.847958673035129, 51.058675581081758 ] ] } },
{ "type": "Feature", "properties": { "ID": "4967", "Bezirk_Name": "Chorweiler", "Akt._Beschluss": "2022-06-09" }, "geometry": { "type": "LineString", "coordinates": [ [ 6.862017732455181, 51.042713229620574 ], [ 6.86280563710233, 51.042949342110269 ], [ 6.863748727969411, 51.043059226939846 ], [ 6.867887340876522, 51.042480178976056 ], [ 6.870266924642296, 51.042390656605292 ], [ 6.873647488738811, 51.042455294522298 ], [ 6.874534455030349, 51.04261038826305 ], [ 6.874937091211046, 51.042787154831856 ], [ 6.877329698548794, 51.042634319659292 ], [ 6.880084473853797, 51.043460229073943 ] ] } },
{ "type": "Feature", "properties": { "ID": "926", "Bezirk_Name": "Kalk", "Akt._Beschluss": "2022-04-07" }, "geometry": { "type": "LineString", "coordinates": [ [ 7.012222564151418, 50.947848038109413 ], [ 7.016498007973497, 50.948283756420977 ] ] } },
{ "type": "Feature", "properties": { "ID": "925", "Bezirk_Name": "Kalk", "Akt._Beschluss": "2022-04-07" }, "geometry": { "type": "LineString", "coordinates": [ [ 7.012800037034169, 50.943645090951144 ], [ 7.0131892, 50.9416953 ], [ 7.013034132377202, 50.941323777962793 ] ] } },
{ "type": "Feature", "properties": { "ID": "8789", "Bezirk_Name": "Porz", "Akt._Beschluss": "2022-09-01" }, "geometry": { "type": "LineString", "coordinates": [ [ 7.044944641285137, 50.905080684033749 ], [ 7.04213324014476, 50.906156511355157 ], [ 7.038087895074609, 50.907729034352862 ], [ 7.03246619802018, 50.909913679377382 ], [ 7.02923531512106, 50.911358693417654 ], [ 7.027370223580856, 50.912063862249873 ], [ 7.025562606122137, 50.912401320953641 ], [ 7.022530571801997, 50.913086306807799 ], [ 7.02164413511991, 50.913334351672994 ] ] } },
{ "type": "Feature", "properties": { "ID": "8433", "Bezirk_Name": "Porz", "Akt._Beschluss": "2022-09-01" }, "geometry": { "type": "LineString", "coordinates": [ [ 7.017979167629459, 50.91408322786986 ], [ 7.018486001338316, 50.913933993462351 ], [ 7.019607923414972, 50.913447857017509 ], [ 7.020587877725494, 50.912769804414275 ], [ 7.021092102948327, 50.912315986813077 ] ] } },
{ "type": "Feature", "properties": { "ID": "9363", "Bezirk_Name": "Porz", "Akt._Beschluss": "2022-09-01" }, "geometry": { "type": "LineString", "coordinates": [ [ 7.016406653643066, 50.905479004301277 ], [ 7.021804634357695, 50.902514099490247 ] ] } },
{ "type": "Feature", "properties": { "ID": "8879", "Bezirk_Name": "Porz", "Akt._Beschluss": "2022-09-01" }, "geometry": { "type": "LineString", "coordinates": [ [ 7.017979167629459, 50.91408322786986 ], [ 7.017059747395889, 50.914373218359586 ], [ 7.014946810321493, 50.91461340991561 ], [ 7.012600933115952, 50.914971012658725 ], [ 7.011831008922507, 50.914946748159856 ], [ 7.011002994046707, 50.91496543159073 ] ] } },
{ "type": "Feature", "properties": { "ID": "8964", "Bezirk_Name": "Porz", "Akt._Beschluss": "2022-09-01" }, "geometry": { "type": "LineString", "coordinates": [ [ 7.036926526420704, 50.859182271533165 ], [ 7.037218053808711, 50.859285208574192 ], [ 7.037571667519094, 50.859422286322065 ], [ 7.038616382346533, 50.859821909777082 ], [ 7.040745151352687, 50.860745003642492 ], [ 7.042151477993095, 50.861370924505884 ], [ 7.043174980480496, 50.861905776720612 ] ] } },
{ "type": "Feature", "properties": { "ID": "6133", "Bezirk_Name": "Porz", "Akt._Beschluss": "2022-09-01" }, "geometry": { "type": "LineString", "coordinates": [ [ 7.034481731970874, 50.873111778144512 ], [ 7.041720350073164, 50.870512873541209 ] ] } },
{ "type": "Feature", "properties": { "ID": "7729", "Bezirk_Name": "Lindenthal", "Akt._Beschluss": "2022-06-08" }, "geometry": { "type": "LineString", "coordinates": [ [ 6.862495014358299, 50.946344983808437 ], [ 6.862550778919066, 50.945517399679652 ] ] } },
{ "type": "Feature", "properties": { "ID": "3991", "Bezirk_Name": "Ehrenfeld", "Akt._Beschluss": "2021-05-31" }, "geometry": { "type": "LineString", "coordinates": [ [ 6.8544114, 50.9842677 ], [ 6.85640386746527, 50.985839219873412 ], [ 6.8586387, 50.9872483 ] ] } },
{ "type": "Feature", "properties": { "ID": "4030", "Bezirk_Name": "Ehrenfeld", "Akt._Beschluss": "2021-05-31" }, "geometry": { "type": "LineString", "coordinates": [ [ 6.857799785861275, 50.980532419858967 ], [ 6.856149428997529, 50.979801015175376 ], [ 6.856201124200289, 50.97944532737062 ], [ 6.854753659266881, 50.979441032883386 ], [ 6.854885441666876, 50.977348209583681 ], [ 6.854556845426687, 50.977064454411114 ] ] } },
{ "type": "Feature", "properties": { "ID": "4044", "Bezirk_Name": "Ehrenfeld", "Akt._Beschluss": "2021-05-31" }, "geometry": { "type": "LineString", "coordinates": [ [ 6.859030634271071, 50.975576451171257 ], [ 6.859308220042783, 50.974561177532316 ], [ 6.85930110248869, 50.973998805515954 ], [ 6.859033222045107, 50.973369181155718 ], [ 6.858349392875453, 50.972461219175884 ], [ 6.85787998420158, 50.971911189883301 ], [ 6.857976530702167, 50.971246601166435 ], [ 6.858190119359469, 50.970188506780957 ] ] } },
{ "type": "Feature", "properties": { "ID": "4019", "Bezirk_Name": "Ehrenfeld", "Akt._Beschluss": "2021-05-31" }, "geometry": { "type": "LineString", "coordinates": [ [ 6.878763804621611, 50.976463513199903 ], [ 6.878853184368416, 50.975986936087352 ], [ 6.878867679346928, 50.975572586933104 ], [ 6.878311084023235, 50.974851237549629 ] ] } },
{ "type": "Feature", "properties": { "ID": "9441", "Bezirk_Name": "Ehrenfeld", "Akt._Beschluss": "2021-05-31" }, "geometry": { "type": "LineString", "coordinates": [ [ 6.88164249848483, 50.980960137414939 ], [ 6.880891990510783, 50.980926531055644 ], [ 6.878439149173437, 50.980727078988878 ] ] } },
{ "type": "Feature", "properties": { "ID": "123145", "Bezirk_Name": "Ehrenfeld", "Akt._Beschluss": "2021-05-31" }, "geometry": { "type": "LineString", "coordinates": [ [ 6.878363245765329, 50.960044702170002 ], [ 6.882381020666999, 50.960038467205898 ] ] } },
{ "type": "Feature", "properties": { "ID": "4098", "Bezirk_Name": "Ehrenfeld", "Akt._Beschluss": "2021-05-31" }, "geometry": { "type": "LineString", "coordinates": [ [ 6.881674591890987, 50.949034911137034 ], [ 6.881537482576345, 50.948222876109973 ], [ 6.881561648995483, 50.948213320239539 ] ] } },
{ "type": "Feature", "properties": { "ID": "9430", "Bezirk_Name": "Ehrenfeld", "Akt._Beschluss": "2021-05-31" }, "geometry": { "type": "LineString", "coordinates": [ [ 6.870783, 50.9769739 ], [ 6.870817466647098, 50.976972886829174 ], [ 6.871490338667234, 50.976885210700694 ] ] } },
{ "type": "Feature", "properties": { "ID": "123150", "Bezirk_Name": "Ehrenfeld", "Akt._Beschluss": "2021-05-31" }, "geometry": { "type": "LineString", "coordinates": [ [ 6.873194045157192, 50.966426426015509 ], [ 6.872591071411899, 50.965583767287193 ] ] } },
{ "type": "Feature", "properties": { "ID": "4005", "Bezirk_Name": "Ehrenfeld", "Akt._Beschluss": "2021-05-31" }, "geometry": { "type": "LineString", "coordinates": [ [ 6.881744594868243, 50.949061167366089 ], [ 6.881863529111689, 50.949403135168076 ], [ 6.88298707570443, 50.949398529076845 ], [ 6.884105632997183, 50.949503760174707 ], [ 6.884786326264393, 50.949891901658205 ], [ 6.887426662539204, 50.949886224232664 ] ] } },
{ "type": "Feature", "properties": { "ID": "4022", "Bezirk_Name": "Ehrenfeld", "Akt._Beschluss": "2021-05-31" }, "geometry": { "type": "LineString", "coordinates": [ [ 6.882352258988663, 50.951905810044863 ], [ 6.881824234620081, 50.949397425009316 ] ] } },
{ "type": "Feature", "properties": { "ID": "9432", "Bezirk_Name": "Ehrenfeld", "Akt._Beschluss": "2021-05-31" }, "geometry": { "type": "LineString", "coordinates": [ [ 6.880958494586354, 50.974164050947209 ], [ 6.880899454176943, 50.976851464670148 ] ] } },
{ "type": "Feature", "properties": { "ID": "4020", "Bezirk_Name": "Ehrenfeld", "Akt._Beschluss": "2021-05-31" }, "geometry": { "type": "LineString", "coordinates": [ [ 6.885046782465492, 50.977240286915546 ], [ 6.885201164937788, 50.974597850603061 ], [ 6.885411335997632, 50.97445174105642 ], [ 6.887169106682137, 50.973591204845974 ], [ 6.887092430148681, 50.97254040687281 ], [ 6.886915555842513, 50.972451540073507 ], [ 6.886965963562952, 50.972088371397653 ] ] } },
{ "type": "Feature", "properties": { "ID": "4075", "Bezirk_Name": "Ehrenfeld", "Akt._Beschluss": "2021-05-31" }, "geometry": { "type": "LineString", "coordinates": [ [ 6.884857997991581, 50.989633555352249 ], [ 6.885867698743196, 50.98832259178333 ] ] } },
{ "type": "Feature", "properties": { "ID": "9454", "Bezirk_Name": "Ehrenfeld", "Akt._Beschluss": "2021-05-31" }, "geometry": { "type": "LineString", "coordinates": [ [ 6.888030964215644, 50.950341908765822 ], [ 6.888463759929222, 50.949520202619595 ], [ 6.889050551838668, 50.948791229135303 ], [ 6.890239395003706, 50.948043151429601 ], [ 6.891481940637136, 50.947505914052279 ], [ 6.892143180403055, 50.946878213833095 ], [ 6.893535808260082, 50.94372013528718 ], [ 6.894332420783955, 50.942195369471726 ] ] } },
{ "type": "Feature", "properties": { "ID": "3584", "Bezirk_Name": "Ehrenfeld", "Akt._Beschluss": "2021-05-31" }, "geometry": { "type": "LineString", "coordinates": [ [ 6.893573515237589, 50.969162954628324 ], [ 6.893538047658373, 50.968830668655173 ], [ 6.891641336874311, 50.966774668057404 ], [ 6.890657893973468, 50.965296385688447 ], [ 6.890269275783125, 50.964511270585454 ], [ 6.889840594063823, 50.963719052119821 ], [ 6.889507349408183, 50.963049735649797 ], [ 6.889256555394668, 50.962566865491617 ], [ 6.888682080099026, 50.961204380405462 ], [ 6.888357538568625, 50.96034388290294 ] ] } },
{ "type": "Feature", "properties": { "ID": "4067", "Bezirk_Name": "Ehrenfeld", "Akt._Beschluss": "2021-05-31" }, "geometry": { "type": "LineString", "coordinates": [ [ 6.8899758367974, 50.981274090745003 ], [ 6.890889924701414, 50.981739257912878 ], [ 6.89402639136653, 50.982443892928011 ], [ 6.894086512031407, 50.982428624771941 ] ] } },
{ "type": "Feature", "properties": { "ID": "4070", "Bezirk_Name": "Ehrenfeld", "Akt._Beschluss": "2021-05-31" }, "geometry": { "type": "LineString", "coordinates": [ [ 6.893162148347049, 50.95050732212912 ], [ 6.897276592250525, 50.949669423407663 ] ] } },
{ "type": "Feature", "properties": { "ID": "4048", "Bezirk_Name": "Ehrenfeld", "Akt._Beschluss": "2021-05-31" }, "geometry": { "type": "LineString", "coordinates": [ [ 6.89000873992803, 50.950693789287165 ], [ 6.890591276969502, 50.950933377585152 ], [ 6.890897117318827, 50.951459496682617 ], [ 6.891793057495212, 50.952058743676851 ], [ 6.892846195850852, 50.952098580155315 ], [ 6.893101246218389, 50.952290596645973 ], [ 6.895613164463286, 50.952148488929012 ], [ 6.897047501791536, 50.952507514369287 ] ] } },
{ "type": "Feature", "properties": { "ID": "9420", "Bezirk_Name": "Ehrenfeld", "Akt._Beschluss": "2021-05-31" }, "geometry": { "type": "LineString", "coordinates": [ [ 6.894792846841781, 50.945134530784124 ], [ 6.896189676467757, 50.943980373527587 ] ] } },
{ "type": "Feature", "properties": { "ID": "4089", "Bezirk_Name": "Ehrenfeld", "Akt._Beschluss": "2021-05-31" }, "geometry": { "type": "LineString", "coordinates": [ [ 6.905036295515194, 50.971647480304583 ], [ 6.907246641437254, 50.971729295796493 ], [ 6.909115809393114, 50.971545865503948 ] ] } },
{ "type": "Feature", "properties": { "ID": "4011", "Bezirk_Name": "Ehrenfeld", "Akt._Beschluss": "2021-05-31" }, "geometry": { "type": "LineString", "coordinates": [ [ 6.907687224273487, 50.981960242813571 ], [ 6.906842268044492, 50.98255098952265 ], [ 6.906542891138423, 50.982582120521563 ], [ 6.90563818363227, 50.982589988913773 ], [ 6.904752848011971, 50.9827303624565 ], [ 6.903951883717292, 50.982904132735406 ], [ 6.903343568177823, 50.98295061206786 ], [ 6.902750841430167, 50.982946405903405 ], [ 6.902180695975255, 50.982859571145724 ], [ 6.902043525387197, 50.982764628842425 ], [ 6.901890024786272, 50.982471681479268 ], [ 6.901717378358633, 50.982379290250421 ], [ 6.90129897692779, 50.982247404295777 ] ] } },
{ "type": "Feature", "properties": { "ID": "4012", "Bezirk_Name": "Ehrenfeld", "Akt._Beschluss": "2021-05-31" }, "geometry": { "type": "LineString", "coordinates": [ [ 6.906956328105601, 50.982486067259238 ], [ 6.907554701847697, 50.982997447183607 ], [ 6.906996417375731, 50.983504042544652 ], [ 6.90298104423563, 50.986958919052235 ], [ 6.902013054035713, 50.987585688537351 ], [ 6.90112787577982, 50.986600358708728 ] ] } },
{ "type": "Feature", "properties": { "ID": "9452", "Bezirk_Name": "Ehrenfeld", "Akt._Beschluss": "2021-05-31" }, "geometry": { "type": "LineString", "coordinates": [ [ 6.909793495035434, 50.944711968933056 ], [ 6.909207381817079, 50.944376655888775 ], [ 6.908188882210749, 50.944158522552698 ] ] } },
{ "type": "Feature", "properties": { "ID": "9456", "Bezirk_Name": "Ehrenfeld", "Akt._Beschluss": "2021-05-31" }, "geometry": { "type": "LineString", "coordinates": [ [ 6.907328155589952, 50.950503430915887 ], [ 6.907447871955014, 50.950487995965553 ], [ 6.911164489144737, 50.950871692033807 ], [ 6.913480514516868, 50.951141551582154 ], [ 6.914866215389374, 50.951376326115678 ] ] } },
{ "type": "Feature", "properties": { "ID": "3961", "Bezirk_Name": "Ehrenfeld", "Akt._Beschluss": "2021-05-31" }, "geometry": { "type": "LineString", "coordinates": [ [ 6.89447570546112, 50.942525270529089 ], [ 6.894406616430663, 50.942741402578392 ], [ 6.894867629692052, 50.943391857114335 ], [ 6.896278108898037, 50.944013394945387 ], [ 6.899692325280881, 50.944318893551511 ], [ 6.901371210861402, 50.944562605139957 ], [ 6.902283711290208, 50.944670513371406 ], [ 6.903396047997107, 50.944629490878434 ], [ 6.904271553191577, 50.944553002036372 ], [ 6.9050618, 50.9444762 ], [ 6.9050363, 50.9443216 ], [ 6.905637433673339, 50.944257694454393 ], [ 6.90581310726318, 50.944220868481672 ], [ 6.905741878393862, 50.943869787279738 ], [ 6.905753937215898, 50.943445451780008 ] ] } },
{ "type": "Feature", "properties": { "ID": "4023", "Bezirk_Name": "Ehrenfeld", "Akt._Beschluss": "2021-05-31" }, "geometry": { "type": "LineString", "coordinates": [ [ 6.897854171229407, 50.950654128180176 ], [ 6.898778988160162, 50.950495875513006 ], [ 6.899392843412042, 50.95056688869861 ], [ 6.89986759495756, 50.950740337355789 ], [ 6.90072163504801, 50.95097744008001 ], [ 6.901300316422745, 50.951043088936224 ], [ 6.904218152194973, 50.951103358901847 ], [ 6.904542020641087, 50.951114169676543 ], [ 6.904682103141076, 50.95134155734663 ] ] } },
{ "type": "Feature", "properties": { "ID": "9368", "Bezirk_Name": "Porz", "Akt._Beschluss": "2022-09-01" }, "geometry": { "type": "LineString", "coordinates": [ [ 7.1001779, 50.88531 ], [ 7.101957060676195, 50.884927845453568 ], [ 7.103897083156877, 50.88457355447094 ], [ 7.104977183358522, 50.884598204124018 ], [ 7.108095714115541, 50.884705554024812 ], [ 7.109865596758859, 50.884907272458449 ], [ 7.111699148219234, 50.885254162740665 ], [ 7.113702813531853, 50.885856945616148 ], [ 7.118108674068448, 50.887017120915957 ], [ 7.125666766965388, 50.889366395381586 ], [ 7.137186059026917, 50.893148470746681 ], [ 7.139620034326686, 50.893364470220895 ] ] } },
{ "type": "Feature", "properties": { "ID": "9382", "Bezirk_Name": "Porz", "Akt._Beschluss": "2022-09-01" }, "geometry": { "type": "LineString", "coordinates": [ [ 7.124551113237304, 50.873964003334137 ], [ 7.121547282308145, 50.874460702866209 ], [ 7.118012514006307, 50.875640826946579 ], [ 7.116289201496517, 50.877062711263328 ], [ 7.115813649912209, 50.879097317531809 ] ] } },
{ "type": "Feature", "properties": { "ID": "9377", "Bezirk_Name": "Porz", "Akt._Beschluss": "2022-09-01" }, "geometry": { "type": "LineString", "coordinates": [ [ 7.120024806086591, 50.879531729511534 ], [ 7.119314452568924, 50.87805908142051 ] ] } },
{ "type": "Feature", "properties": { "ID": "9378", "Bezirk_Name": "Porz", "Akt._Beschluss": "2022-09-01" }, "geometry": { "type": "LineString", "coordinates": [ [ 7.120024806086591, 50.879531729511534 ], [ 7.117304744620959, 50.88094889826985 ] ] } },
{ "type": "Feature", "properties": { "ID": "9380", "Bezirk_Name": "Porz", "Akt._Beschluss": "2022-09-01" }, "geometry": { "type": "LineString", "coordinates": [ [ 7.117304744620959, 50.88094889826985 ], [ 7.116315632951761, 50.8815112291785 ] ] } },
{ "type": "Feature", "properties": { "ID": "8815", "Bezirk_Name": "Porz", "Akt._Beschluss": "2022-09-01" }, "geometry": { "type": "LineString", "coordinates": [ [ 7.113672220686681, 50.879652346432479 ], [ 7.114587131384795, 50.879646087109649 ], [ 7.115552011104207, 50.8793280074389 ], [ 7.11610002427761, 50.87892647457177 ], [ 7.116627905593148, 50.878558610325562 ], [ 7.11750914002788, 50.87837155144652 ], [ 7.118592771104327, 50.878319236838607 ], [ 7.119474196170146, 50.878441368689082 ] ] } },
{ "type": "Feature", "properties": { "ID": "9375", "Bezirk_Name": "Porz", "Akt._Beschluss": "2022-09-01" }, "geometry": { "type": "LineString", "coordinates": [ [ 7.116315632951761, 50.8815112291785 ], [ 7.115949173788913, 50.881767388778606 ], [ 7.115597201058372, 50.881896970408384 ], [ 7.115225036544021, 50.881917401438479 ], [ 7.114855705229141, 50.881867636474809 ], [ 7.114569051164324, 50.881752563069348 ] ] } },
{ "type": "Feature", "properties": { "ID": "8814", "Bezirk_Name": "Porz", "Akt._Beschluss": "2022-09-01" }, "geometry": { "type": "LineString", "coordinates": [ [ 7.11197348424507, 50.87984737769083 ], [ 7.112051896419921, 50.879796123254785 ], [ 7.112558677263424, 50.879648910520494 ], [ 7.11293583568529, 50.879588906725729 ], [ 7.113308716420255, 50.879581985183513 ], [ 7.113531998021219, 50.879607899316483 ], [ 7.113672220686681, 50.879652346432479 ] ] } },
{ "type": "Feature", "properties": { "ID": "9381", "Bezirk_Name": "Porz", "Akt._Beschluss": "2022-09-01" }, "geometry": { "type": "LineString", "coordinates": [ [ 7.116032907892363, 50.881700478686781 ], [ 7.113643912090205, 50.880863606705155 ], [ 7.11197348424507, 50.87984737769083 ] ] } },
{ "type": "Feature", "properties": { "ID": "9376", "Bezirk_Name": "Porz", "Akt._Beschluss": "2022-09-01" }, "geometry": { "type": "LineString", "coordinates": [ [ 7.113540413334312, 50.88219758408313 ], [ 7.113617999926342, 50.882244256350312 ], [ 7.113698729002963, 50.882280007080603 ], [ 7.113805400050786, 50.882292973394584 ], [ 7.113947306938066, 50.882288881508998 ], [ 7.114066258235982, 50.882251231812241 ], [ 7.114144982341917, 50.882202858994759 ], [ 7.114187671023527, 50.882135017078589 ], [ 7.11420393058112, 50.882070345521868 ], [ 7.114193711379758, 50.88201711771157 ], [ 7.114174617198364, 50.881958350273969 ] ] } },
{ "type": "Feature", "properties": { "ID": "9373", "Bezirk_Name": "Porz", "Akt._Beschluss": "2022-09-01" }, "geometry": { "type": "LineString", "coordinates": [ [ 7.114569051164324, 50.881752563069348 ], [ 7.114174617198364, 50.881958350273969 ] ] } },
{ "type": "Feature", "properties": { "ID": "8813", "Bezirk_Name": "Porz", "Akt._Beschluss": "2022-09-01" }, "geometry": { "type": "LineString", "coordinates": [ [ 7.11197348424507, 50.87984737769083 ], [ 7.111206332200733, 50.879908441402961 ] ] } },
{ "type": "Feature", "properties": { "ID": "9374", "Bezirk_Name": "Porz", "Akt._Beschluss": "2022-09-01" }, "geometry": { "type": "LineString", "coordinates": [ [ 7.110749556816111, 50.883482778759827 ], [ 7.113540413334312, 50.88219758408313 ] ] } },
{ "type": "Feature", "properties": { "ID": "8810", "Bezirk_Name": "Porz", "Akt._Beschluss": "2022-09-01" }, "geometry": { "type": "LineString", "coordinates": [ [ 7.109224499934014, 50.880167471962373 ], [ 7.109217420110252, 50.880205400514612 ], [ 7.109209156421139, 50.880244479062377 ], [ 7.109184805708024, 50.880273583772585 ], [ 7.109151271425414, 50.880301280555813 ], [ 7.109113074144034, 50.880324764677781 ], [ 7.109065583811586, 50.880342522118234 ], [ 7.109015685255366, 50.880353045570679 ], [ 7.108969447295703, 50.880353915148014 ] ] } },
{ "type": "Feature", "properties": { "ID": "8809", "Bezirk_Name": "Porz", "Akt._Beschluss": "2022-09-01" }, "geometry": { "type": "LineString", "coordinates": [ [ 7.10899899163855, 50.880031520791093 ], [ 7.109053990642836, 50.880042484957009 ], [ 7.109106764193594, 50.880059258927766 ], [ 7.109145964883359, 50.88007770161758 ], [ 7.109176117212254, 50.880101933508833 ], [ 7.109202080773301, 50.880134821390428 ], [ 7.109224499934014, 50.880167471962373 ] ] } },
{ "type": "Feature", "properties": { "ID": "9379", "Bezirk_Name": "Porz", "Akt._Beschluss": "2022-09-01" }, "geometry": { "type": "LineString", "coordinates": [ [ 7.110749556816111, 50.883482778759827 ], [ 7.108095714115541, 50.884705554024812 ] ] } },
{ "type": "Feature", "properties": { "ID": "8807", "Bezirk_Name": "Porz", "Akt._Beschluss": "2022-09-01" }, "geometry": { "type": "LineString", "coordinates": [ [ 7.109224499934014, 50.880167471962373 ], [ 7.109485382033306, 50.880110901469749 ], [ 7.109834724541036, 50.880053424936648 ], [ 7.110298319040211, 50.880011108239074 ] ] } },
{ "type": "Feature", "properties": { "ID": "8812", "Bezirk_Name": "Porz", "Akt._Beschluss": "2022-09-01" }, "geometry": { "type": "LineString", "coordinates": [ [ 7.110298319040211, 50.880011108239074 ], [ 7.110783888833738, 50.879959702115038 ], [ 7.111206332200733, 50.879908441402961 ] ] } },
{ "type": "Feature", "properties": { "ID": "9369", "Bezirk_Name": "Porz", "Akt._Beschluss": "2022-09-01" }, "geometry": { "type": "LineString", "coordinates": [ [ 7.109525, 50.8725908 ], [ 7.109445463404461, 50.874466268425003 ], [ 7.109348445603967, 50.875725431568611 ], [ 7.10899899163855, 50.880031520791093 ] ] } },
{ "type": "Feature", "properties": { "ID": "9371", "Bezirk_Name": "Porz", "Akt._Beschluss": "2022-09-01" }, "geometry": { "type": "LineString", "coordinates": [ [ 7.1086396, 50.8725581 ], [ 7.1092878, 50.8725791 ], [ 7.109525, 50.8725908 ] ] } },
{ "type": "Feature", "properties": { "ID": "9370", "Bezirk_Name": "Porz", "Akt._Beschluss": "2022-09-01" }, "geometry": { "type": "LineString", "coordinates": [ [ 7.1076118, 50.8725979 ], [ 7.1076999, 50.8725341 ], [ 7.1085338, 50.8725556 ], [ 7.1086396, 50.8725581 ] ] } },
{ "type": "Feature", "properties": { "ID": "8806", "Bezirk_Name": "Porz", "Akt._Beschluss": "2022-09-01" }, "geometry": { "type": "LineString", "coordinates": [ [ 7.106208796395093, 50.880143571920499 ], [ 7.108144993585226, 50.880113101618001 ], [ 7.108723456666041, 50.880148020438554 ] ] } },
{ "type": "Feature", "properties": { "ID": "8808", "Bezirk_Name": "Porz", "Akt._Beschluss": "2022-09-01" }, "geometry": { "type": "LineString", "coordinates": [ [ 7.108723456666041, 50.880148020438554 ], [ 7.108754389675831, 50.880107330717735 ], [ 7.108815044001603, 50.880066403177644 ], [ 7.108873746474002, 50.880045589819247 ], [ 7.108932748007517, 50.88003494413713 ], [ 7.10899899163855, 50.880031520791093 ] ] } },
{ "type": "Feature", "properties": { "ID": "8811", "Bezirk_Name": "Porz", "Akt._Beschluss": "2022-09-01" }, "geometry": { "type": "LineString", "coordinates": [ [ 7.108723456666041, 50.880148020438554 ], [ 7.108717710144921, 50.88019865166175 ], [ 7.108730155316772, 50.880238875243002 ], [ 7.108751448687082, 50.880274745385911 ], [ 7.108793396550176, 50.880306093679927 ], [ 7.108848851945776, 50.880337391054731 ], [ 7.108908510573955, 50.880352657831402 ], [ 7.108969447295703, 50.880353915148014 ] ] } },
{ "type": "Feature", "properties": { "ID": "2510", "Bezirk_Name": "Mülheim", "Akt._Beschluss": "2022-05-02" }, "geometry": { "type": "LineString", "coordinates": [ [ 7.055151721790774, 50.978453800119979 ], [ 7.06397819924899, 50.980144217311498 ] ] } },
{ "type": "Feature", "properties": { "ID": "656", "Bezirk_Name": "Kalk", "Akt._Beschluss": "2022-04-07" }, "geometry": { "type": "LineString", "coordinates": [ [ 7.053253945254797, 50.927072968948558 ], [ 7.056759380605759, 50.926376421335434 ], [ 7.060421903496375, 50.925517290474765 ], [ 7.063252378756314, 50.924621222896668 ], [ 7.065575318348158, 50.923953163131358 ], [ 7.068382910012848, 50.923250726374711 ], [ 7.069262146714361, 50.922384972815081 ], [ 7.070286485134664, 50.922004112694239 ] ] } },
{ "type": "Feature", "properties": { "ID": "939", "Bezirk_Name": "Kalk", "Akt._Beschluss": "2022-04-07" }, "geometry": { "type": "LineString", "coordinates": [ [ 7.046587823290873, 50.935997871635799 ], [ 7.048532563497655, 50.936536278501542 ] ] } },
{ "type": "Feature", "properties": { "ID": "3231", "Bezirk_Name": "Nippes", "Akt._Beschluss": "2022-06-09" }, "geometry": { "type": "LineString", "coordinates": [ [ 6.9444812, 50.990578099999986 ], [ 6.94636323017124, 50.990505815540168 ] ] } },
{ "type": "Feature", "properties": { "ID": "3430", "Bezirk_Name": "Nippes", "Akt._Beschluss": "2022-06-09" }, "geometry": { "type": "LineString", "coordinates": [ [ 6.947345389236348, 50.993928379775951 ], [ 6.9461844, 50.993516 ], [ 6.946306419667806, 50.993393781768347 ], [ 6.946533751279615, 50.993182129406101 ], [ 6.946757981932078, 50.992907214365609 ], [ 6.946864636188217, 50.992626513774489 ], [ 6.946833431684459, 50.992399160982529 ], [ 6.9468286, 50.9922444 ], [ 6.946833171296649, 50.991871185967796 ], [ 6.946525325139375, 50.99137126569849 ], [ 6.946096616519689, 50.991073714571783 ], [ 6.945446497409953, 50.990854064991737 ], [ 6.944905932467365, 50.990688393158806 ], [ 6.9444812, 50.990578099999986 ], [ 6.9438887, 50.9905602 ], [ 6.9430635, 50.9904774 ], [ 6.9428341, 50.9904201 ] ] } },
{ "type": "Feature", "properties": { "ID": "3473", "Bezirk_Name": "Nippes", "Akt._Beschluss": "2022-06-09" }, "geometry": { "type": "LineString", "coordinates": [ [ 6.943154948288027, 50.990051515519013 ], [ 6.941692894769039, 50.989772113652968 ], [ 6.93796732271593, 50.989915810718067 ], [ 6.935913688100135, 50.989942923106021 ] ] } },
{ "type": "Feature", "properties": { "ID": "3304", "Bezirk_Name": "Nippes", "Akt._Beschluss": "2022-06-09" }, "geometry": { "type": "LineString", "coordinates": [ [ 6.934274994604882, 50.97674305705079 ], [ 6.930092751968178, 50.975220666866065 ] ] } },
{ "type": "Feature", "properties": { "ID": "3384", "Bezirk_Name": "Nippes", "Akt._Beschluss": "2022-06-09" }, "geometry": { "type": "LineString", "coordinates": [ [ 6.932683573897527, 50.971172095060851 ], [ 6.934022957393432, 50.971544507941076 ] ] } },
{ "type": "Feature", "properties": { "ID": "3228", "Bezirk_Name": "Nippes", "Akt._Beschluss": "2022-06-09" }, "geometry": { "type": "LineString", "coordinates": [ [ 6.939218423553742, 50.989853820975505 ], [ 6.938290472417981, 50.989003444408709 ], [ 6.937631682350714, 50.988501663799781 ], [ 6.936779971872823, 50.988153559018549 ], [ 6.93594742558151, 50.987924659426525 ], [ 6.935233732938371, 50.98781367207814 ], [ 6.934803981867345, 50.987635046305165 ], [ 6.934772632444963, 50.987393689331682 ], [ 6.935116622545957, 50.98698695392288 ], [ 6.935250143620417, 50.986607339468947 ], [ 6.934607274548458, 50.986140081619503 ], [ 6.933719007516231, 50.985767389477438 ], [ 6.933376065333409, 50.984999886290709 ], [ 6.933674591198375, 50.984219906430589 ], [ 6.934038974797033, 50.983655187677734 ], [ 6.934075924607143, 50.982823011698969 ], [ 6.933735109981153, 50.982007889863823 ], [ 6.932544996561648, 50.980797015545534 ], [ 6.931518802448131, 50.98013636982003 ], [ 6.930285871347115, 50.979388696664159 ] ] } },
{ "type": "Feature", "properties": { "ID": "3230", "Bezirk_Name": "Nippes", "Akt._Beschluss": "2022-06-09" }, "geometry": { "type": "LineString", "coordinates": [ [ 6.934939491439926, 50.990424121526594 ], [ 6.931830686364767, 50.990452820818582 ], [ 6.929330661883762, 50.990283711062354 ], [ 6.927030487777766, 50.990112879903997 ], [ 6.925347744009441, 50.989564164825183 ] ] } },
{ "type": "Feature", "properties": { "ID": "3470", "Bezirk_Name": "Nippes", "Akt._Beschluss": "2022-06-09" }, "geometry": { "type": "LineString", "coordinates": [ [ 6.937233871569983, 50.997255343230812 ], [ 6.940093751371254, 50.996536655968988 ], [ 6.942797622411821, 50.995825312160015 ], [ 6.944268797221655, 50.995541627583712 ], [ 6.945927579944712, 50.995479906355015 ], [ 6.946520187899731, 50.995493924465116 ] ] } },
{ "type": "Feature", "properties": { "ID": "4962", "Bezirk_Name": "Chorweiler", "Akt._Beschluss": "2022-06-09" }, "geometry": { "type": "LineString", "coordinates": [ [ 6.916651594607486, 51.032817401746904 ], [ 6.915753378268532, 51.032907774585681 ] ] } },
{ "type": "Feature", "properties": { "ID": "2535", "Bezirk_Name": "Mülheim", "Akt._Beschluss": "2022-05-02" }, "geometry": { "type": "LineString", "coordinates": [ [ 7.050711235318098, 50.96719952770156 ], [ 7.0548898, 50.9668868 ] ] } },
{ "type": "Feature", "properties": { "ID": "7730", "Bezirk_Name": "Lindenthal", "Akt._Beschluss": "2014-02-03" }, "geometry": { "type": "LineString", "coordinates": [ [ 6.936681106127881, 50.917979164375062 ], [ 6.934252255596784, 50.918865443730091 ] ] } },
{ "type": "Feature", "properties": { "ID": "7731", "Bezirk_Name": "Lindenthal", "Akt._Beschluss": "2014-02-03" }, "geometry": { "type": "LineString", "coordinates": [ [ 6.932762435514062, 50.919510095534321 ], [ 6.934252255596784, 50.918865443730091 ] ] } },
{ "type": "Feature", "properties": { "ID": "7732", "Bezirk_Name": "Lindenthal", "Akt._Beschluss": "2014-02-03" }, "geometry": { "type": "LineString", "coordinates": [ [ 6.93185786062986, 50.919912733262571 ], [ 6.932762435514062, 50.919510095534321 ] ] } },
{ "type": "Feature", "properties": { "ID": "3247", "Bezirk_Name": "Nippes", "Akt._Beschluss": "2022-06-09" }, "geometry": { "type": "LineString", "coordinates": [ [ 6.969072859179352, 50.971065448500774 ], [ 6.974579167189178, 50.970922177871046 ], [ 6.9772268, 50.9710096 ] ] } },
{ "type": "Feature", "properties": { "ID": "3597", "Bezirk_Name": "Rodenkirchen", "Akt._Beschluss": "2022-05-02" }, "geometry": { "type": "LineString", "coordinates": [ [ 6.970361025134424, 50.916390255635534 ], [ 6.969840441639857, 50.916132346598708 ], [ 6.96919321234123, 50.915784448767347 ] ] } },
{ "type": "Feature", "properties": { "ID": "3665", "Bezirk_Name": "Innenstadt", "Akt._Beschluss": "2016-06-14" }, "geometry": { "type": "LineString", "coordinates": [ [ 6.968419130293122, 50.922624094951637 ], [ 6.967143179287246, 50.922347264197128 ] ] } },
{ "type": "Feature", "properties": { "ID": "6124", "Bezirk_Name": "Rodenkirchen", "Akt._Beschluss": "2022-05-02" }, "geometry": { "type": "LineString", "coordinates": [ [ 6.970169497245654, 50.916507862541167 ], [ 6.969559730997248, 50.916219708380943 ], [ 6.969080711007428, 50.915650791665527 ], [ 6.968333192711745, 50.915180897822886 ], [ 6.966246881855946, 50.914859010252556 ], [ 6.961316735997252, 50.915195707673 ] ] } },
{ "type": "Feature", "properties": { "ID": "6139", "Bezirk_Name": "Rodenkirchen", "Akt._Beschluss": "2022-05-02" }, "geometry": { "type": "LineString", "coordinates": [ [ 6.9607944, 50.906211 ], [ 6.9623066, 50.906363 ], [ 6.9623116, 50.9064161 ] ] } },
{ "type": "Feature", "properties": { "ID": "6142", "Bezirk_Name": "Rodenkirchen", "Akt._Beschluss": "2022-05-02" }, "geometry": { "type": "LineString", "coordinates": [ [ 6.956724602960973, 50.906333314635525 ], [ 6.956875428846989, 50.907033874880938 ], [ 6.956974823677678, 50.907291308892042 ], [ 6.957240102961546, 50.907811387607012 ], [ 6.957629607226159, 50.908506140824663 ] ] } },
{ "type": "Feature", "properties": { "ID": "6137", "Bezirk_Name": "Rodenkirchen", "Akt._Beschluss": "2022-05-02" }, "geometry": { "type": "LineString", "coordinates": [ [ 6.951600968842044, 50.913661686603703 ], [ 6.961988223786185, 50.912904123615995 ] ] } },
{ "type": "Feature", "properties": { "ID": "6144", "Bezirk_Name": "Rodenkirchen", "Akt._Beschluss": "2022-05-02" }, "geometry": { "type": "LineString", "coordinates": [ [ 6.957862809753153, 50.908917640992335 ], [ 6.958055929763509, 50.909269979636342 ] ] } },
{ "type": "Feature", "properties": { "ID": "6143", "Bezirk_Name": "Rodenkirchen", "Akt._Beschluss": "2022-05-02" }, "geometry": { "type": "LineString", "coordinates": [ [ 6.957629607226159, 50.908506140824663 ], [ 6.957862809753153, 50.908917640992335 ] ] } },
{ "type": "Feature", "properties": { "ID": "6146", "Bezirk_Name": "Rodenkirchen", "Akt._Beschluss": "2022-05-02" }, "geometry": { "type": "LineString", "coordinates": [ [ 6.958055929763509, 50.909269979636342 ], [ 6.958460697196857, 50.909909055352671 ] ] } },
{ "type": "Feature", "properties": { "ID": "6148", "Bezirk_Name": "Rodenkirchen", "Akt._Beschluss": "2022-05-02" }, "geometry": { "type": "LineString", "coordinates": [ [ 6.958848623981628, 50.910617896746906 ], [ 6.961474968032888, 50.914417090497473 ] ] } },
{ "type": "Feature", "properties": { "ID": "6145", "Bezirk_Name": "Rodenkirchen", "Akt._Beschluss": "2022-05-02" }, "geometry": { "type": "LineString", "coordinates": [ [ 6.958848623981628, 50.910617896746906 ], [ 6.958747738442814, 50.910355132148368 ], [ 6.958460697196857, 50.909909055352671 ] ] } },
{ "type": "Feature", "properties": { "ID": "6127", "Bezirk_Name": "Rodenkirchen", "Akt._Beschluss": "2022-05-02" }, "geometry": { "type": "LineString", "coordinates": [ [ 6.9487596, 50.9173526 ], [ 6.952307013183264, 50.916215905170525 ], [ 6.960693929852039, 50.915184647571692 ], [ 6.961316735997252, 50.915195707673 ] ] } },
{ "type": "Feature", "properties": { "ID": "6136", "Bezirk_Name": "Rodenkirchen", "Akt._Beschluss": "2022-05-02" }, "geometry": { "type": "LineString", "coordinates": [ [ 6.956973903777335, 50.915627830215811 ], [ 6.95556265654369, 50.910990466771153 ] ] } },
{ "type": "Feature", "properties": { "ID": "6141", "Bezirk_Name": "Rodenkirchen", "Akt._Beschluss": "2022-05-02" }, "geometry": { "type": "LineString", "coordinates": [ [ 6.956655665102148, 50.9060008655795 ], [ 6.956724602960973, 50.906333314635525 ] ] } },
{ "type": "Feature", "properties": { "ID": "6138", "Bezirk_Name": "Rodenkirchen", "Akt._Beschluss": "2022-05-02" }, "geometry": { "type": "LineString", "coordinates": [ [ 6.94895964287585, 50.913254108568232 ], [ 6.949453678479769, 50.913190569020166 ], [ 6.950727103799049, 50.913264829155004 ], [ 6.951164554140409, 50.913365595039316 ], [ 6.951600968842044, 50.913661686603703 ] ] } },
{ "type": "Feature", "properties": { "ID": "6128", "Bezirk_Name": "Rodenkirchen", "Akt._Beschluss": "2022-05-02" }, "geometry": { "type": "LineString", "coordinates": [ [ 6.9683195, 50.8904696 ], [ 6.968846769082696, 50.890059621640262 ], [ 6.968871851652783, 50.889483104632369 ], [ 6.969100547973608, 50.888419608336513 ], [ 6.969404002698203, 50.8877325447502 ], [ 6.969599730229733, 50.883110695809179 ] ] } },
{ "type": "Feature", "properties": { "ID": "6135", "Bezirk_Name": "Rodenkirchen", "Akt._Beschluss": "2022-05-02" }, "geometry": { "type": "LineString", "coordinates": [ [ 6.958647088074055, 50.879010519576362 ], [ 6.95819133654399, 50.879566189880101 ] ] } },
{ "type": "Feature", "properties": { "ID": "6140", "Bezirk_Name": "Rodenkirchen", "Akt._Beschluss": "2022-05-02" }, "geometry": { "type": "LineString", "coordinates": [ [ 6.956357107055175, 50.904373603659465 ], [ 6.956655665102148, 50.9060008655795 ] ] } },
{ "type": "Feature", "properties": { "ID": "6147", "Bezirk_Name": "Rodenkirchen", "Akt._Beschluss": "2022-05-02" }, "geometry": { "type": "LineString", "coordinates": [ [ 6.956357107055175, 50.904373603659465 ], [ 6.956213151104619, 50.903802313872212 ] ] } },
{ "type": "Feature", "properties": { "ID": "6134", "Bezirk_Name": "Rodenkirchen", "Akt._Beschluss": "2022-05-02" }, "geometry": { "type": "LineString", "coordinates": [ [ 6.953636686549387, 50.873639406148179 ], [ 6.953997004456506, 50.874168807773295 ], [ 6.954101594491549, 50.874701729040993 ], [ 6.954140474642418, 50.87562823840566 ], [ 6.954011488517803, 50.876606307023188 ], [ 6.953793263928961, 50.877550972254461 ], [ 6.953586987199951, 50.878599095971531 ], [ 6.953899597145952, 50.879140971469489 ], [ 6.954380763644837, 50.87941148869556 ], [ 6.955510187351037, 50.879695252782369 ], [ 6.958012725752809, 50.880155938680431 ], [ 6.959303946446279, 50.880446814110961 ], [ 6.960553030017847, 50.88091186889919 ], [ 6.961192898693195, 50.881218498442053 ], [ 6.96156599968713, 50.88163090884359 ], [ 6.961806198820023, 50.882199198278208 ] ] } },
{ "type": "Feature", "properties": { "ID": "6126", "Bezirk_Name": "Rodenkirchen", "Akt._Beschluss": "2022-05-02" }, "geometry": { "type": "LineString", "coordinates": [ [ 6.9462844, 50.8751141 ], [ 6.9484719, 50.8804543 ], [ 6.954450114673433, 50.880496103670176 ], [ 6.962005250854975, 50.881462661889984 ] ] } },
{ "type": "Feature", "properties": { "ID": "6125", "Bezirk_Name": "Rodenkirchen", "Akt._Beschluss": "2022-05-02" }, "geometry": { "type": "LineString", "coordinates": [ [ 6.953491362022921, 50.873695767099711 ], [ 6.953684113932646, 50.876116247019205 ] ] } },
{ "type": "Feature", "properties": { "ID": "6122", "Bezirk_Name": "Rodenkirchen", "Akt._Beschluss": "2022-05-02" }, "geometry": { "type": "LineString", "coordinates": [ [ 6.953684113932646, 50.876116247019205 ], [ 6.952126926759528, 50.876370345207079 ], [ 6.950959237543584, 50.876556074595058 ], [ 6.947175727721603, 50.877249545231308 ] ] } },
{ "type": "Feature", "properties": { "ID": "6123", "Bezirk_Name": "Rodenkirchen", "Akt._Beschluss": "2022-05-02" }, "geometry": { "type": "LineString", "coordinates": [ [ 6.946195, 50.8751197 ], [ 6.945799, 50.8741228 ], [ 6.9456232, 50.8734892 ], [ 6.9453553, 50.8722669 ], [ 6.9448131, 50.8714067 ], [ 6.944315812468285, 50.870813645123036 ], [ 6.943954992738859, 50.870372973217293 ] ] } },
{ "type": "Feature", "properties": { "ID": "3437", "Bezirk_Name": "Nippes", "Akt._Beschluss": "2022-06-09" }, "geometry": { "type": "LineString", "coordinates": [ [ 6.94014785647156, 50.965298940434977 ], [ 6.942691567995239, 50.964813984963044 ], [ 6.944217570203124, 50.964902008337845 ] ] } },
{ "type": "Feature", "properties": { "ID": "3422", "Bezirk_Name": "Nippes", "Akt._Beschluss": "2022-06-09" }, "geometry": { "type": "LineString", "coordinates": [ [ 6.942245930052405, 50.968278727575246 ], [ 6.942234024091705, 50.968548081240598 ], [ 6.9421182, 50.968805299999985 ] ] } },
{ "type": "Feature", "properties": { "ID": "3425", "Bezirk_Name": "Nippes", "Akt._Beschluss": "2022-06-09" }, "geometry": { "type": "LineString", "coordinates": [ [ 6.942489538664731, 50.964556942457506 ], [ 6.942488169608131, 50.96456932700837 ], [ 6.942449151490748, 50.964628436168489 ], [ 6.942415788260864, 50.964724331373098 ], [ 6.942333665964213, 50.965099735725019 ], [ 6.942206623318322, 50.965750129932928 ], [ 6.942017887706935, 50.966728001569471 ], [ 6.941986820622232, 50.966936606273272 ], [ 6.941983658575452, 50.967090492007891 ], [ 6.941983019530696, 50.967269689240972 ], [ 6.942008858610209, 50.967426424511089 ], [ 6.942058844682116, 50.967613438311488 ], [ 6.942169834619834, 50.96790034782601 ], [ 6.942245930052405, 50.968278727575246 ] ] } },
{ "type": "Feature", "properties": { "ID": "3423", "Bezirk_Name": "Nippes", "Akt._Beschluss": "2022-06-09" }, "geometry": { "type": "LineString", "coordinates": [ [ 6.942588870178066, 50.96122197045738 ], [ 6.942651244257092, 50.961758448832612 ], [ 6.942660783268683, 50.962494066656305 ], [ 6.94255111234705, 50.963509030636658 ] ] } },
{ "type": "Feature", "properties": { "ID": "3424", "Bezirk_Name": "Nippes", "Akt._Beschluss": "2022-06-09" }, "geometry": { "type": "LineString", "coordinates": [ [ 6.94255111234705, 50.963509030636658 ], [ 6.942596347032712, 50.963601545106307 ], [ 6.942489538664731, 50.964556942457506 ] ] } },
{ "type": "Feature", "properties": { "ID": "3426", "Bezirk_Name": "Nippes", "Akt._Beschluss": "2022-06-09" }, "geometry": { "type": "LineString", "coordinates": [ [ 6.9421182, 50.968805299999985 ], [ 6.942064647890723, 50.968982904371579 ], [ 6.9419579, 50.9692196 ] ] } },
{ "type": "Feature", "properties": { "ID": "4071", "Bezirk_Name": "Ehrenfeld", "Akt._Beschluss": "2021-05-31" }, "geometry": { "type": "LineString", "coordinates": [ [ 6.926291553082105, 50.947379766039987 ], [ 6.926354784029681, 50.947459220313569 ], [ 6.927076231616592, 50.948180025472404 ] ] } },
{ "type": "Feature", "properties": { "ID": "3837", "Bezirk_Name": "Ehrenfeld", "Akt._Beschluss": "2021-05-31" }, "geometry": { "type": "LineString", "coordinates": [ [ 6.928117076713574, 50.947939407217618 ], [ 6.928740298053932, 50.947652205429954 ], [ 6.930673342123532, 50.946682045140015 ] ] } },
{ "type": "Feature", "properties": { "ID": "3752", "Bezirk_Name": "Innenstadt", "Akt._Beschluss": "2016-06-14" }, "geometry": { "type": "LineString", "coordinates": [ [ 6.930841299285504, 50.935481352090797 ], [ 6.9307339, 50.9327704 ] ] } },
{ "type": "Feature", "properties": { "ID": "3836", "Bezirk_Name": "Innenstadt", "Akt._Beschluss": "2016-06-14" }, "geometry": { "type": "LineString", "coordinates": [ [ 6.930690556019478, 50.946673834947866 ], [ 6.931895309095129, 50.946135958007019 ] ] } },
{ "type": "Feature", "properties": { "ID": "3891", "Bezirk_Name": "Innenstadt", "Akt._Beschluss": "2016-06-14" }, "geometry": { "type": "LineString", "coordinates": [ [ 6.932605418331196, 50.935485245298622 ], [ 6.932669501238908, 50.936554452379795 ] ] } },
{ "type": "Feature", "properties": { "ID": "4079", "Bezirk_Name": "Ehrenfeld", "Akt._Beschluss": "2021-05-31" }, "geometry": { "type": "LineString", "coordinates": [ [ 6.92177838442996, 50.96560673987581 ], [ 6.92271122329884, 50.964625795107295 ], [ 6.924047054208151, 50.963355898935141 ], [ 6.923960688962859, 50.963251921425282 ], [ 6.92397884030042, 50.963199773938236 ], [ 6.924233640642646, 50.963164326900483 ], [ 6.924964826444579, 50.962501838309258 ], [ 6.926251361140487, 50.961123859949794 ], [ 6.926346782443284, 50.960935662468223 ], [ 6.926941390963306, 50.960376544866286 ], [ 6.927221638458824, 50.959946767165761 ], [ 6.927103805714582, 50.959749785707046 ] ] } },
{ "type": "Feature", "properties": { "ID": "9414", "Bezirk_Name": "Innenstadt", "Akt._Beschluss": "2016-06-14" }, "geometry": { "type": "LineString", "coordinates": [ [ 6.973480454393699, 50.941450783877904 ], [ 6.975586192007764, 50.94127294978599 ], [ 6.977237431410839, 50.941099250404235 ], [ 6.980122775442912, 50.940795672842846 ] ] } },
{ "type": "Feature", "properties": { "ID": "3474", "Bezirk_Name": "Nippes", "Akt._Beschluss": "2022-06-09" }, "geometry": { "type": "LineString", "coordinates": [ [ 6.963674604947792, 50.961087541840321 ], [ 6.963780210320712, 50.960793999868514 ], [ 6.963834098172934, 50.960727141323147 ], [ 6.963860214321216, 50.960645500205437 ], [ 6.963724777159824, 50.959864979018214 ], [ 6.963772309396937, 50.959572852481202 ] ] } },
{ "type": "Feature", "properties": { "ID": "3814", "Bezirk_Name": "Innenstadt", "Akt._Beschluss": "2016-06-14" }, "geometry": { "type": "LineString", "coordinates": [ [ 6.966430671388283, 50.950168201692257 ], [ 6.9722411, 50.9487809 ] ] } },
{ "type": "Feature", "properties": { "ID": "6129", "Bezirk_Name": "Rodenkirchen", "Akt._Beschluss": "2022-05-02" }, "geometry": { "type": "LineString", "coordinates": [ [ 6.9239197, 50.8973766 ], [ 6.92397109196236, 50.897500449108108 ], [ 6.9242246, 50.897854 ], [ 6.9246564, 50.8980993 ], [ 6.925273718770558, 50.898698932554829 ], [ 6.926246600711851, 50.899897207942026 ], [ 6.927206008405983, 50.900375277408962 ], [ 6.927667630512828, 50.900747816573407 ] ] } },
{ "type": "Feature", "properties": { "ID": "6215", "Bezirk_Name": "Rodenkirchen", "Akt._Beschluss": "2022-05-02" }, "geometry": { "type": "LineString", "coordinates": [ [ 6.92229376788372, 50.882707874303946 ], [ 6.923502981929722, 50.883541546703313 ], [ 6.924353684376785, 50.884902207594983 ] ] } },
{ "type": "Feature", "properties": { "ID": "7838", "Bezirk_Name": "Lindenthal", "Akt._Beschluss": "2014-02-03" }, "geometry": { "type": "LineString", "coordinates": [ [ 6.9244816, 50.9030222 ], [ 6.92283430961942, 50.903057942299746 ], [ 6.921041870753474, 50.903474212013691 ], [ 6.920088536663275, 50.903754678602176 ], [ 6.919513549053621, 50.903989828542173 ], [ 6.918750204268641, 50.90422905309034 ], [ 6.917424779138027, 50.904413625837883 ], [ 6.916422277109483, 50.904416835278873 ], [ 6.915418483114057, 50.904181528145543 ] ] } },
{ "type": "Feature", "properties": { "ID": "7727", "Bezirk_Name": "Lindenthal", "Akt._Beschluss": "2022-06-08" }, "geometry": { "type": "LineString", "coordinates": [ [ 6.846714738211849, 50.963294528619734 ], [ 6.849096943382551, 50.960536491272478 ] ] } },
{ "type": "Feature", "properties": { "ID": "7728", "Bezirk_Name": "Lindenthal", "Akt._Beschluss": "2022-06-08" }, "geometry": { "type": "LineString", "coordinates": [ [ 6.845867073032197, 50.970512384932341 ], [ 6.8481731, 50.9722331 ], [ 6.8486139, 50.9729521 ], [ 6.8491777, 50.9736535 ], [ 6.8493332, 50.9740906 ], [ 6.8495487, 50.9754631 ], [ 6.851126061650992, 50.975278987170533 ] ] } },
{ "type": "Feature", "properties": { "ID": "3990", "Bezirk_Name": "Ehrenfeld", "Akt._Beschluss": "2021-05-31" }, "geometry": { "type": "LineString", "coordinates": [ [ 6.849152941170773, 50.978568278243415 ], [ 6.850664426131302, 50.980365262240639 ], [ 6.852589449986297, 50.982627370003932 ] ] } },
{ "type": "Feature", "properties": { "ID": "6132", "Bezirk_Name": "Rodenkirchen", "Akt._Beschluss": "2022-05-02" }, "geometry": { "type": "LineString", "coordinates": [ [ 6.942587211936453, 50.853497699236073 ], [ 6.9425061, 50.8604294 ] ] } },
{ "type": "Feature", "properties": { "ID": "6130", "Bezirk_Name": "Rodenkirchen", "Akt._Beschluss": "2022-05-02" }, "geometry": { "type": "LineString", "coordinates": [ [ 6.942587211936453, 50.853497699236073 ], [ 6.944351374147874, 50.853267739846338 ], [ 6.948078691315664, 50.852887620242896 ] ] } },
{ "type": "Feature", "properties": { "ID": "2540", "Bezirk_Name": "Nippes", "Akt._Beschluss": "2022-06-09" }, "geometry": { "type": "LineString", "coordinates": [ [ 6.979939086766979, 50.986196325830107 ], [ 6.969450881082866, 50.985633634989853 ] ] } },
{ "type": "Feature", "properties": { "ID": "2541", "Bezirk_Name": "Mülheim", "Akt._Beschluss": "2022-05-02" }, "geometry": { "type": "LineString", "coordinates": [ [ 6.971757865243275, 50.996651052040576 ], [ 6.967657039734453, 50.996770607179592 ], [ 6.967207094688673, 50.994853508302093 ], [ 6.962140438355005, 50.992618324261912 ] ] } },
{ "type": "Feature", "properties": { "ID": "4973", "Bezirk_Name": "Chorweiler", "Akt._Beschluss": "2022-06-09" }, "geometry": { "type": "LineString", "coordinates": [ [ 6.951875419201184, 51.029015671546716 ], [ 6.949831285470485, 51.029137652472002 ], [ 6.949831285470485, 51.029137652472002 ] ] } },
{ "type": "Feature", "properties": { "ID": "3229", "Bezirk_Name": "Nippes", "Akt._Beschluss": "2022-06-09" }, "geometry": { "type": "LineString", "coordinates": [ [ 6.957993457437102, 50.985545620437051 ], [ 6.957252485538006, 50.985929832172346 ], [ 6.951578306185398, 50.989222083945535 ], [ 6.949847185129688, 50.990023994291164 ], [ 6.948581023352942, 50.990444406352381 ], [ 6.947990231492356, 50.990482362133072 ], [ 6.94636323017124, 50.990505815540168 ] ] } },
{ "type": "Feature", "properties": { "ID": "9367", "Bezirk_Name": "Porz", "Akt._Beschluss": "2022-09-01" }, "geometry": { "type": "LineString", "coordinates": [ [ 7.077556682636864, 50.858684685418567 ], [ 7.0743395, 50.8654799 ], [ 7.071617308643265, 50.87036129235512 ], [ 7.0640768, 50.8829464 ] ] } },
{ "type": "Feature", "properties": { "ID": "8987", "Bezirk_Name": "Porz", "Akt._Beschluss": "2022-09-01" }, "geometry": { "type": "LineString", "coordinates": [ [ 7.058080087178866, 50.865310537443897 ], [ 7.061018268276091, 50.864168898829746 ], [ 7.061881137511112, 50.863721136106214 ], [ 7.061837738957401, 50.862379266577513 ], [ 7.062498908567149, 50.8620379624032 ], [ 7.065450678490901, 50.86131905540438 ], [ 7.066825482338599, 50.860928939400196 ], [ 7.069591619896465, 50.860386727316339 ], [ 7.071857143673703, 50.859849668510307 ], [ 7.076205223720978, 50.858925746168993 ], [ 7.077011097679834, 50.85860707216311 ], [ 7.079607407722817, 50.858913351950733 ] ] } },
{ "type": "Feature", "properties": { "ID": "8901", "Bezirk_Name": "Porz", "Akt._Beschluss": "2022-09-01" }, "geometry": { "type": "LineString", "coordinates": [ [ 7.059990113969716, 50.88033020364491 ], [ 7.059677252064628, 50.879860475509616 ], [ 7.059180947831104, 50.879166449670571 ], [ 7.058810489140946, 50.878817356361552 ], [ 7.05843010140292, 50.878700404833744 ], [ 7.0574303, 50.8785181 ] ] } },
{ "type": "Feature", "properties": { "ID": "930", "Bezirk_Name": "Kalk", "Akt._Beschluss": "2022-04-07" }, "geometry": { "type": "LineString", "coordinates": [ [ 7.009071294238945, 50.934108347436577 ], [ 7.008810824026352, 50.932892337920144 ] ] } },
{ "type": "Feature", "properties": { "ID": "929", "Bezirk_Name": "Kalk", "Akt._Beschluss": "2022-04-07" }, "geometry": { "type": "LineString", "coordinates": [ [ 7.009071294238945, 50.934108347436577 ], [ 7.009277385275206, 50.935300858119724 ] ] } },
{ "type": "Feature", "properties": { "ID": "928", "Bezirk_Name": "Kalk", "Akt._Beschluss": "2022-04-07" }, "geometry": { "type": "LineString", "coordinates": [ [ 7.009277385275206, 50.935300858119724 ], [ 7.009288597984013, 50.935821500196873 ], [ 7.008894077404717, 50.936869519230008 ] ] } },
{ "type": "Feature", "properties": { "ID": "927", "Bezirk_Name": "Kalk", "Akt._Beschluss": "2022-04-07" }, "geometry": { "type": "LineString", "coordinates": [ [ 7.008081390452695, 50.938822718958761 ], [ 7.008894077404717, 50.936869519230008 ] ] } },
{ "type": "Feature", "properties": { "ID": "931", "Bezirk_Name": "Kalk", "Akt._Beschluss": "2022-04-07" }, "geometry": { "type": "LineString", "coordinates": [ [ 7.008560592653894, 50.931851753794959 ], [ 7.008810824026352, 50.932892337920144 ] ] } },
{ "type": "Feature", "properties": { "ID": "932", "Bezirk_Name": "Kalk", "Akt._Beschluss": "2022-04-07" }, "geometry": { "type": "LineString", "coordinates": [ [ 7.008560592653894, 50.931851753794959 ], [ 7.007854548322697, 50.928801526851743 ] ] } },
{ "type": "Feature", "properties": { "ID": "4966", "Bezirk_Name": "Chorweiler", "Akt._Beschluss": "2022-06-09" }, "geometry": { "type": "LineString", "coordinates": [ [ 6.971398150462672, 51.014671427728494 ], [ 6.969686726666687, 51.016615438032737 ] ] } },
{ "type": "Feature", "properties": { "ID": "2543", "Bezirk_Name": "Mülheim", "Akt._Beschluss": "2022-05-02" }, "geometry": { "type": "LineString", "coordinates": [ [ 6.975585684073005, 51.010973583941215 ], [ 6.97340401719307, 51.013118868912144 ], [ 6.971398150462672, 51.014671427728494 ] ] } },
{ "type": "Feature", "properties": { "ID": "23574", "Bezirk_Name": "Mülheim", "Akt._Beschluss": "2022-05-02" }, "geometry": { "type": "LineString", "coordinates": [ [ 7.004369372180358, 50.960120103964066 ], [ 7.0043919, 50.960179099999984 ], [ 7.004640535326259, 50.960410409961881 ], [ 7.0048098, 50.9605416 ], [ 7.0052109, 50.9606997 ] ] } },
{ "type": "Feature", "properties": { "ID": "2476", "Bezirk_Name": "Mülheim", "Akt._Beschluss": "2022-05-02" }, "geometry": { "type": "LineString", "coordinates": [ [ 6.992243430407385, 50.955193150983064 ], [ 6.99354669027812, 50.954761553282452 ], [ 6.996384015651655, 50.95556179345288 ], [ 6.998340839587894, 50.956229953669535 ], [ 6.999388085522543, 50.95660630201963 ], [ 7.000091541197937, 50.957982157471861 ] ] } },
{ "type": "Feature", "properties": { "ID": "2545", "Bezirk_Name": "Mülheim", "Akt._Beschluss": "2022-05-02" }, "geometry": { "type": "LineString", "coordinates": [ [ 6.991389909730626, 50.957431091084665 ], [ 6.993680854359441, 50.956840055167383 ], [ 6.995741976800899, 50.956815557574004 ], [ 7.000393129454715, 50.955733863111469 ] ] } },
{ "type": "Feature", "properties": { "ID": "3391", "Bezirk_Name": "Nippes", "Akt._Beschluss": "2022-06-09" }, "geometry": { "type": "LineString", "coordinates": [ [ 6.984006209143111, 50.962999561442814 ], [ 6.984629387694011, 50.962851432502568 ], [ 6.985733215109494, 50.9626056698418 ], [ 6.986821424727909, 50.962601329642936 ] ] } },
{ "type": "Feature", "properties": { "ID": "8432", "Bezirk_Name": "Porz", "Akt._Beschluss": "2022-09-01" }, "geometry": { "type": "LineString", "coordinates": [ [ 6.993514115786984, 50.919575999590293 ], [ 6.995066076579239, 50.918885956023075 ], [ 6.996740962085815, 50.918175067746738 ], [ 7.000037950370101, 50.917463001288993 ], [ 7.002700947201015, 50.917008008666748 ], [ 7.00587499308947, 50.916585071523812 ], [ 7.010898723617356, 50.916022139796141 ] ] } },
{ "type": "Feature", "properties": { "ID": "8973", "Bezirk_Name": "Porz", "Akt._Beschluss": "2022-09-01" }, "geometry": { "type": "LineString", "coordinates": [ [ 6.999906884179167, 50.914792849528055 ], [ 6.998331206798046, 50.915350881451438 ], [ 6.996710137020842, 50.916044008798536 ], [ 6.995748682633099, 50.916354605841804 ], [ 6.994833287046724, 50.91651686983969 ] ] } },
{ "type": "Feature", "properties": { "ID": "8880", "Bezirk_Name": "Porz", "Akt._Beschluss": "2022-09-01" }, "geometry": { "type": "LineString", "coordinates": [ [ 6.9974998, 50.908719899999987 ], [ 6.9973391, 50.9082015 ], [ 6.9973366, 50.9081317 ], [ 6.9975291, 50.9080723 ], [ 6.9982036, 50.9078047 ], [ 6.9984465, 50.9075895 ], [ 6.9974996, 50.9065262 ], [ 6.9974668, 50.9063975 ], [ 6.9974755, 50.9061983 ], [ 6.9974124, 50.906023099999985 ], [ 6.996818769065619, 50.905530278622713 ], [ 6.996209253703508, 50.905043685309678 ] ] } },
{ "type": "Feature", "properties": { "ID": "9411", "Bezirk_Name": "Porz", "Akt._Beschluss": "2022-09-01" }, "geometry": { "type": "LineString", "coordinates": [ [ 6.9972813, 50.913410399999989 ], [ 6.9964008, 50.9117865 ], [ 6.9959957, 50.9108845 ] ] } },
{ "type": "Feature", "properties": { "ID": "8883", "Bezirk_Name": "Porz", "Akt._Beschluss": "2022-09-01" }, "geometry": { "type": "LineString", "coordinates": [ [ 6.991911073848937, 50.915770874054076 ], [ 6.992389739989189, 50.915947921175395 ], [ 6.993151443032756, 50.916160142123992 ], [ 6.994190032862826, 50.916454732785027 ], [ 6.99518391982057, 50.916571549199453 ], [ 6.996130433240697, 50.916565858319927 ], [ 6.997385488589248, 50.916720416338137 ], [ 6.998432457823963, 50.917225116805838 ], [ 6.99920067041075, 50.91764489533999 ] ] } },
{ "type": "Feature", "properties": { "ID": "8881", "Bezirk_Name": "Porz", "Akt._Beschluss": "2022-09-01" }, "geometry": { "type": "LineString", "coordinates": [ [ 6.981638009897742, 50.919387339022954 ], [ 6.98194802428647, 50.918707194606633 ], [ 6.982877627380366, 50.91748491174522 ], [ 6.984232202644134, 50.916159428340109 ], [ 6.985518523281047, 50.914788502031662 ], [ 6.986302867312738, 50.914165368024328 ] ] } },
{ "type": "Feature", "properties": { "ID": "123125", "Bezirk_Name": "Porz", "Akt._Beschluss": "2022-09-01" }, "geometry": { "type": "LineString", "coordinates": [ [ 6.978747955444014, 50.917955917979853 ], [ 6.978956262900419, 50.917926805566623 ], [ 6.979122317208168, 50.918004043302062 ], [ 6.979212494963715, 50.918094839667816 ], [ 6.979186732144084, 50.91825501674461 ], [ 6.979012820112981, 50.918359087686852 ], [ 6.978716330158533, 50.918359902631941 ], [ 6.978397545138146, 50.918258866816167 ] ] } },
{ "type": "Feature", "properties": { "ID": "3655", "Bezirk_Name": "Porz", "Akt._Beschluss": "2022-09-01" }, "geometry": { "type": "LineString", "coordinates": [ [ 6.978367, 50.9183434 ], [ 6.978656426754856, 50.918439176805826 ], [ 6.978862096392544, 50.918579565489551 ], [ 6.978803545899568, 50.918736200217218 ], [ 6.978672208187381, 50.918835058890004 ], [ 6.978468469808575, 50.918867224453088 ], [ 6.978268725488199, 50.918807249275787 ], [ 6.978141188890773, 50.918709856048253 ] ] } },
{ "type": "Feature", "properties": { "ID": "6131", "Bezirk_Name": "Rodenkirchen", "Akt._Beschluss": "2022-05-02" }, "geometry": { "type": "LineString", "coordinates": [ [ 6.987585068953986, 50.879273050595138 ], [ 6.989716, 50.8790362 ], [ 6.9929281, 50.8777509 ], [ 6.9951481, 50.8768875 ], [ 6.9953311, 50.876683699999987 ], [ 6.995652034646748, 50.876111979545179 ] ] } },
{ "type": "Feature", "properties": { "ID": "6282", "Bezirk_Name": "Rodenkirchen", "Akt._Beschluss": "2022-05-02" }, "geometry": { "type": "LineString", "coordinates": [ [ 6.984136844608806, 50.873887029637153 ], [ 6.987761819276348, 50.872435130907149 ] ] } },
{ "type": "Feature", "properties": { "ID": "2197", "Bezirk_Name": "Mülheim", "Akt._Beschluss": "2022-05-02" }, "geometry": { "type": "LineString", "coordinates": [ [ 6.99690095141912, 50.94913719739742 ], [ 6.998744340891631, 50.951598010415545 ], [ 7.001332376221502, 50.952674011532565 ] ] } },
{ "type": "Feature", "properties": { "ID": "2466", "Bezirk_Name": "Mülheim", "Akt._Beschluss": "2022-05-02" }, "geometry": { "type": "LineString", "coordinates": [ [ 6.992144438924644, 50.949872299351057 ], [ 6.99286924178103, 50.94983017059068 ], [ 6.993010655456835, 50.949793029359981 ], [ 6.993095201284369, 50.94974735569177 ], [ 6.993179240799771, 50.94968368583654 ] ] } },
{ "type": "Feature", "properties": { "ID": "2467", "Bezirk_Name": "Mülheim", "Akt._Beschluss": "2022-05-02" }, "geometry": { "type": "LineString", "coordinates": [ [ 6.993179240799771, 50.94968368583654 ], [ 6.994164647037598, 50.949326032141407 ] ] } },
{ "type": "Feature", "properties": { "ID": "980", "Bezirk_Name": "Kalk", "Akt._Beschluss": "2022-04-07" }, "geometry": { "type": "LineString", "coordinates": [ [ 6.995779214429421, 50.946953482407835 ], [ 6.996885216537938, 50.949101561465717 ] ] } },
{ "type": "Feature", "properties": { "ID": "2468", "Bezirk_Name": "Mülheim", "Akt._Beschluss": "2022-05-02" }, "geometry": { "type": "LineString", "coordinates": [ [ 6.988260558808032, 50.950597425510253 ], [ 6.986667603742607, 50.951164540400811 ], [ 6.985760232657765, 50.952504242418549 ] ] } },
{ "type": "Feature", "properties": { "ID": "2463", "Bezirk_Name": "Mülheim", "Akt._Beschluss": "2022-05-02" }, "geometry": { "type": "LineString", "coordinates": [ [ 6.988260558808032, 50.950597425510253 ], [ 6.989560857232671, 50.950172926571234 ] ] } },
{ "type": "Feature", "properties": { "ID": "934", "Bezirk_Name": "Innenstadt", "Akt._Beschluss": "2016-06-14" }, "geometry": { "type": "LineString", "coordinates": [ [ 6.991552497505483, 50.940911846866726 ], [ 6.98748658906115, 50.943627513756361 ] ] } },
{ "type": "Feature", "properties": { "ID": "986", "Bezirk_Name": "Kalk", "Akt._Beschluss": "2022-04-07" }, "geometry": { "type": "LineString", "coordinates": [ [ 6.987952801507706, 50.939643147434367 ], [ 6.988385473653017, 50.939726855487265 ], [ 6.989047531979978, 50.939866936224 ], [ 6.990600637197207, 50.940482558458044 ], [ 6.991707171797302, 50.94114407088329 ], [ 6.992896524044865, 50.942009223909679 ] ] } },
{ "type": "Feature", "properties": { "ID": "2465", "Bezirk_Name": "Mülheim", "Akt._Beschluss": "2022-05-02" }, "geometry": { "type": "LineString", "coordinates": [ [ 6.990552581007027, 50.949966776185846 ], [ 6.992144438924644, 50.949872299351057 ] ] } },
{ "type": "Feature", "properties": { "ID": "2464", "Bezirk_Name": "Mülheim", "Akt._Beschluss": "2022-05-02" }, "geometry": { "type": "LineString", "coordinates": [ [ 6.989560857232671, 50.950172926571234 ], [ 6.990552581007027, 50.949966776185846 ] ] } },
{ "type": "Feature", "properties": { "ID": "3802", "Bezirk_Name": "Innenstadt", "Akt._Beschluss": "2016-06-14" }, "geometry": { "type": "LineString", "coordinates": [ [ 6.980593350543467, 50.940759849008259 ], [ 6.982559761496207, 50.941529088791711 ] ] } },
{ "type": "Feature", "properties": { "ID": "9415", "Bezirk_Name": "Innenstadt", "Akt._Beschluss": "2016-06-14" }, "geometry": { "type": "MultiLineString", "coordinates": [ [ [ 6.980115598705789, 50.940776573711368 ], [ 6.980593350543467, 50.940759849008259 ], [ 6.98487494425542, 50.940185916773224 ], [ 6.987171626732527, 50.939854321840272 ], [ 6.989619147012311, 50.939168340931126 ], [ 6.990687202982385, 50.938808893749531 ] ], [ [ 6.960084871235162, 50.942813363452991 ], [ 6.961732518762815, 50.941684352085957 ], [ 6.962938600134881, 50.941677167363913 ], [ 6.968453096455147, 50.941628652453026 ] ] ] } },
{ "type": "Feature", "properties": { "ID": "2511", "Bezirk_Name": "Mülheim", "Akt._Beschluss": "2022-05-02" }, "geometry": { "type": "LineString", "coordinates": [ [ 7.011978267461589, 50.996009677002135 ], [ 7.013765138884346, 50.995979912643278 ], [ 7.015350184798575, 50.996314620542449 ], [ 7.017146929661847, 50.996865780167035 ], [ 7.018354983228736, 50.996991599411736 ], [ 7.019927866141562, 50.9972218922479 ], [ 7.021444829085015, 50.997316402178527 ], [ 7.022277744698829, 50.997144971388984 ] ] } },
{ "type": "Feature", "properties": { "ID": "987", "Bezirk_Name": "Kalk", "Akt._Beschluss": "2022-04-07" }, "geometry": { "type": "LineString", "coordinates": [ [ 6.990707890882243, 50.938803549605112 ], [ 6.998112617336938, 50.935519420060352 ] ] } },
{ "type": "Feature", "properties": { "ID": "8434", "Bezirk_Name": "Porz", "Akt._Beschluss": "2022-09-01" }, "geometry": { "type": "LineString", "coordinates": [ [ 6.993514115786984, 50.919575999590293 ], [ 6.992376966876171, 50.919887056412271 ], [ 6.991386641071781, 50.920224552309769 ], [ 6.989935039427369, 50.920425936173395 ] ] } },
{ "type": "Feature", "properties": { "ID": "3757", "Bezirk_Name": "Innenstadt", "Akt._Beschluss": "2016-06-14" }, "geometry": { "type": "LineString", "coordinates": [ [ 6.9866895, 50.929052 ], [ 6.988228446712717, 50.930529305273517 ], [ 6.988800552430523, 50.931015082562674 ], [ 6.9897342, 50.9317312 ] ] } },
{ "type": "Feature", "properties": { "ID": "3799", "Bezirk_Name": "Innenstadt", "Akt._Beschluss": "2016-06-14" }, "geometry": { "type": "LineString", "coordinates": [ [ 6.974152779173228, 50.931055686315027 ], [ 6.9722709, 50.930933 ] ] } },
{ "type": "Feature", "properties": { "ID": "3795", "Bezirk_Name": "Innenstadt", "Akt._Beschluss": "2016-06-14" }, "geometry": { "type": "LineString", "coordinates": [ [ 6.968419130293122, 50.922624094951637 ], [ 6.974416203674731, 50.923924991955964 ] ] } },
{ "type": "Feature", "properties": { "ID": "2478", "Bezirk_Name": "Mülheim", "Akt._Beschluss": "2022-05-02" }, "geometry": { "type": "LineString", "coordinates": [ [ 7.021431886417868, 50.967326726030706 ], [ 7.019649548565208, 50.96725585945579 ] ] } },
{ "type": "Feature", "properties": { "ID": "2477", "Bezirk_Name": "Mülheim", "Akt._Beschluss": "2022-05-02" }, "geometry": { "type": "LineString", "coordinates": [ [ 7.021662329971974, 50.969619515592427 ], [ 7.018937973762378, 50.969803023832355 ] ] } },
{ "type": "Feature", "properties": { "ID": "2479", "Bezirk_Name": "Mülheim", "Akt._Beschluss": "2022-05-02" }, "geometry": { "type": "LineString", "coordinates": [ [ 7.018085120289556, 50.965030545610183 ], [ 7.009928920194676, 50.96666213186397 ] ] } },
{ "type": "Feature", "properties": { "ID": "2469", "Bezirk_Name": "Mülheim", "Akt._Beschluss": "2022-05-02" }, "geometry": { "type": "LineString", "coordinates": [ [ 7.01258076163681, 50.958824525137963 ], [ 7.015529564557897, 50.958291891983215 ] ] } },
{ "type": "Feature", "properties": { "ID": "2470", "Bezirk_Name": "Mülheim", "Akt._Beschluss": "2022-05-02" }, "geometry": { "type": "LineString", "coordinates": [ [ 7.017485844577688, 50.961688039018938 ], [ 7.01350837217828, 50.962123002153128 ] ] } },
{ "type": "Feature", "properties": { "ID": "2183", "Bezirk_Name": "Mülheim", "Akt._Beschluss": "2022-05-02" }, "geometry": { "type": "LineString", "coordinates": [ [ 7.017475661139097, 50.972075274559849 ], [ 7.015460538810327, 50.975639404701688 ] ] } },
{ "type": "Feature", "properties": { "ID": "2484", "Bezirk_Name": "Mülheim", "Akt._Beschluss": "2022-05-02" }, "geometry": { "type": "LineString", "coordinates": [ [ 7.013573629038487, 50.971352422520013 ], [ 7.017497773002084, 50.972017640911822 ] ] } },
{ "type": "Feature", "properties": { "ID": "2483", "Bezirk_Name": "Mülheim", "Akt._Beschluss": "2022-05-02" }, "geometry": { "type": "LineString", "coordinates": [ [ 7.013219992064721, 50.971354680152857 ], [ 7.013573629038487, 50.971352422520013 ] ] } },
{ "type": "Feature", "properties": { "ID": "2482", "Bezirk_Name": "Mülheim", "Akt._Beschluss": "2022-05-02" }, "geometry": { "type": "LineString", "coordinates": [ [ 7.012505256448677, 50.970636514491261 ], [ 7.012664179461676, 50.970730864823736 ], [ 7.012963507346433, 50.970976359444187 ], [ 7.013111470496632, 50.971117289677366 ], [ 7.013206152784574, 50.971248409432512 ], [ 7.013219992064721, 50.971354680152857 ] ] } },
{ "type": "Feature", "properties": { "ID": "2481", "Bezirk_Name": "Mülheim", "Akt._Beschluss": "2022-05-02" }, "geometry": { "type": "LineString", "coordinates": [ [ 7.008165847336702, 50.968006212327815 ], [ 7.010859451100494, 50.967654340358472 ] ] } },
{ "type": "Feature", "properties": { "ID": "2480", "Bezirk_Name": "Mülheim", "Akt._Beschluss": "2022-05-02" }, "geometry": { "type": "LineString", "coordinates": [ [ 7.011410762640626, 50.96878227315414 ], [ 7.009965841422426, 50.969050490030433 ] ] } }
]
}
