{
  "type": "FeatureCollection",
  "features": [
    {
      "type": "Feature",
      "properties": {
        "ID": "3607",
        "Bezirk_Name": "Innenstadt",
        "Akt._Beschluss": "2016-06-14"
      },
      "geometry": {
        "type": "LineString",
        "coordinates": [
          [
            6.956592986368109,
            50.922130084757825
          ],
          [
            6.955891233073396,
            50.92221214668981
          ],
          [
            6.952918027420809,
            50.9235452067309
          ],
          [
            6.952706746194837,
            50.92364581471197
          ],
          [
            6.95243895064087,
            50.92376486114319
          ],
          [
            6.951536379342531,
            50.92414078539819
          ],
          [
            6.950619755473608,
            50.92452580595648
          ],
          [
            6.949392828529525,
            50.925039193364306
          ],
          [
            6.946709646518416,
            50.92621274443553
          ],
          [
            6.9464206478296,
            50.92634979741577
          ]
        ]
      }
    },
    {
      "type": "Feature",
      "properties": {
        "ID": "3611",
        "Bezirk_Name": "Innenstadt",
        "Akt._Beschluss": "2016-06-14"
      },
      "geometry": {
        "type": "LineString",
        "coordinates": [
          [
            6.96351410358137,
            50.92175988249421
          ],
          [
            6.963632965921896,
            50.92184474313625
          ],
          [
            6.966870790252468,
            50.92288207826061
          ]
        ]
      }
    },
    {
      "type": "Feature",
      "properties": {
        "ID": "3633",
        "Bezirk_Name": "Innenstadt",
        "Akt._Beschluss": "2016-06-14"
      },
      "geometry": {
        "type": "LineString",
        "coordinates": [
          [
            6.959888362520871,
            50.92111676683783
          ],
          [
            6.959901265490569,
            50.921014375035575
          ],
          [
            6.959870468912385,
            50.92093799843424
          ],
          [
            6.959843218463438,
            50.920901263670835
          ],
          [
            6.959783222010974,
            50.92086231245935
          ],
          [
            6.959715056622148,
            50.920811496818274
          ],
          [
            6.959641514202772,
            50.92081850534457
          ],
          [
            6.959537680269045,
            50.92082840192623
          ],
          [
            6.95937504582677,
            50.92091399194404
          ],
          [
            6.959296527870714,
            50.920984848315406
          ],
          [
            6.959280728470402,
            50.921074353483085
          ],
          [
            6.959322610373667,
            50.92117279784664
          ],
          [
            6.959386075623098,
            50.92123406057064
          ],
          [
            6.959509195084289,
            50.92128158933754
          ],
          [
            6.959618454396852,
            50.92128329606747
          ],
          [
            6.95976420077544,
            50.921256227192686
          ],
          [
            6.959857328971877,
            50.92119255379561
          ],
          [
            6.959888362520871,
            50.92111676683783
          ]
        ]
      }
    },
    {
      "type": "Feature",
      "properties": {
        "ID": "3634",
        "Bezirk_Name": "Innenstadt",
        "Akt._Beschluss": "2016-06-14"
      },
      "geometry": {
        "type": "LineString",
        "coordinates": [
          [
            6.959280728470402,
            50.921074353483085
          ],
          [
            6.958998318060916,
            50.92111829140906
          ],
          [
            6.958896577557415,
            50.9211613850311
          ],
          [
            6.958772421874674,
            50.92121397344238
          ],
          [
            6.956592986368109,
            50.922130084757825
          ]
        ]
      }
    },
    {
      "type": "Feature",
      "properties": {
        "ID": "3636",
        "Bezirk_Name": "Innenstadt",
        "Akt._Beschluss": "2016-06-14"
      },
      "geometry": {
        "type": "LineString",
        "coordinates": [
          [
            6.956592986368109,
            50.922130084757825
          ],
          [
            6.956239845831614,
            50.922547190194436
          ],
          [
            6.953279964849421,
            50.9238568750695
          ],
          [
            6.952645379890627,
            50.9241227467438
          ],
          [
            6.951841245746741,
            50.924443933300715
          ],
          [
            6.950811406137053,
            50.92485684699709
          ],
          [
            6.949654659624398,
            50.92532471948028
          ],
          [
            6.947228058986456,
            50.92629730524542
          ],
          [
            6.946438694433088,
            50.9263563044443
          ]
        ]
      }
    },
    {
      "type": "Feature",
      "properties": {
        "ID": "3664",
        "Bezirk_Name": "Innenstadt",
        "Akt._Beschluss": "2016-06-14"
      },
      "geometry": {
        "type": "LineString",
        "coordinates": [
          [
            6.967143179287246,
            50.92234726419713
          ],
          [
            6.966870790252468,
            50.92288207826061
          ],
          [
            6.966865424760259,
            50.922880371318506
          ]
        ]
      }
    },
    {
      "type": "Feature",
      "properties": {
        "ID": "3764",
        "Bezirk_Name": "Innenstadt",
        "Akt._Beschluss": "2016-06-14"
      },
      "geometry": {
        "type": "LineString",
        "coordinates": [
          [
            6.940739693948246,
            50.931105113365646
          ],
          [
            6.940113001942724,
            50.932651820199766
          ],
          [
            6.939953935052181,
            50.93304046895314
          ]
        ]
      }
    },
    {
      "type": "Feature",
      "properties": {
        "ID": "3765",
        "Bezirk_Name": "Innenstadt",
        "Akt._Beschluss": "2016-06-14"
      },
      "geometry": {
        "type": "LineString",
        "coordinates": [
          [
            6.942619230995314,
            50.92838417908343
          ],
          [
            6.943785613447928,
            50.9276825780929
          ],
          [
            6.944900596232046,
            50.9271301868993
          ],
          [
            6.945095266400071,
            50.927033740722685
          ],
          [
            6.946418557356112,
            50.92635781008544
          ]
        ]
      }
    },
    {
      "type": "Feature",
      "properties": {
        "ID": "3766",
        "Bezirk_Name": "Innenstadt",
        "Akt._Beschluss": "2016-06-14"
      },
      "geometry": {
        "type": "LineString",
        "coordinates": [
          [
            6.967362748152663,
            50.92191614800875
          ],
          [
            6.967143179287246,
            50.92234726419713
          ]
        ]
      }
    },
    {
      "type": "Feature",
      "properties": {
        "ID": "3767",
        "Bezirk_Name": "Innenstadt",
        "Akt._Beschluss": "2016-06-14"
      },
      "geometry": {
        "type": "LineString",
        "coordinates": [
          [
            6.96351410358137,
            50.92175988249421
          ],
          [
            6.963954112244414,
            50.92168648058236
          ],
          [
            6.966820726201553,
            50.92183973653941
          ],
          [
            6.967362748152663,
            50.92191614800875
          ]
        ]
      }
    },
    {
      "type": "Feature",
      "properties": {
        "ID": "3768",
        "Bezirk_Name": "Innenstadt",
        "Akt._Beschluss": "2016-06-14"
      },
      "geometry": {
        "type": "LineString",
        "coordinates": [
          [
            6.940020689995743,
            50.940585933012514
          ],
          [
            6.94027476427944,
            50.94163312582429
          ],
          [
            6.940518178672392,
            50.942568386552416
          ],
          [
            6.940376885413063,
            50.94273112756053
          ],
          [
            6.940339106023377,
            50.94297414212554
          ],
          [
            6.941225241994011,
            50.943874910286226
          ],
          [
            6.942155729376164,
            50.944856217205455
          ],
          [
            6.942735893444119,
            50.94539987508209
          ],
          [
            6.943332511360664,
            50.945350108409
          ],
          [
            6.943462009218237,
            50.94542097536018
          ],
          [
            6.945112869839345,
            50.94613574504863
          ],
          [
            6.945888067806961,
            50.946471055025285
          ]
        ]
      }
    },
    {
      "type": "Feature",
      "properties": {
        "ID": "3769",
        "Bezirk_Name": "Innenstadt",
        "Akt._Beschluss": "2016-06-14"
      },
      "geometry": {
        "type": "LineString",
        "coordinates": [
          [
            6.956312208977158,
            50.9503323736034
          ],
          [
            6.956717248533602,
            50.95065266617822
          ],
          [
            6.957048751199737,
            50.950856700683694
          ]
        ]
      }
    },
    {
      "type": "Feature",
      "properties": {
        "ID": "3770",
        "Bezirk_Name": "Innenstadt",
        "Akt._Beschluss": "2016-06-14"
      },
      "geometry": {
        "type": "LineString",
        "coordinates": [
          [
            6.959030560816301,
            50.95094260083931
          ],
          [
            6.957916293519903,
            50.950952734158435
          ],
          [
            6.957048751199737,
            50.950856700683694
          ]
        ]
      }
    },
    {
      "type": "Feature",
      "properties": {
        "ID": "3771",
        "Bezirk_Name": "Innenstadt",
        "Akt._Beschluss": "2016-06-14"
      },
      "geometry": {
        "type": "LineString",
        "coordinates": [
          [
            6.956312208977158,
            50.9503323736034
          ],
          [
            6.956878571708146,
            50.95019289318168
          ],
          [
            6.958746232207154,
            50.95012380614053
          ]
        ]
      }
    },
    {
      "type": "Feature",
      "properties": {
        "ID": "3779",
        "Bezirk_Name": "Innenstadt",
        "Akt._Beschluss": "2016-06-14"
      },
      "geometry": {
        "type": "LineString",
        "coordinates": [
          [
            6.958746232207154,
            50.95012380614053
          ],
          [
            6.959030560816301,
            50.95094260083931
          ]
        ]
      }
    },
    {
      "type": "Feature",
      "properties": {
        "ID": "3787",
        "Bezirk_Name": "Innenstadt",
        "Akt._Beschluss": "2016-06-14"
      },
      "geometry": {
        "type": "LineString",
        "coordinates": [
          [
            6.951783915380715,
            50.94879627649522
          ],
          [
            6.953073985531454,
            50.949253188026795
          ],
          [
            6.954793321026635,
            50.94982343458277
          ],
          [
            6.95533421351357,
            50.95000328750119
          ],
          [
            6.956312208977158,
            50.9503323736034
          ]
        ]
      }
    },
    {
      "type": "Feature",
      "properties": {
        "ID": "3763",
        "Bezirk_Name": "Innenstadt",
        "Akt._Beschluss": "2016-06-14"
      },
      "geometry": {
        "type": "LineString",
        "coordinates": [
          [
            6.941480894572708,
            50.92906756414472
          ],
          [
            6.94141050987596,
            50.92909967637183
          ]
        ]
      }
    },
    {
      "type": "Feature",
      "properties": {
        "ID": "3848",
        "Bezirk_Name": "Innenstadt",
        "Akt._Beschluss": "2016-06-14"
      },
      "geometry": {
        "type": "LineString",
        "coordinates": [
          [
            6.959888362520871,
            50.92111676683783
          ],
          [
            6.961736532034181,
            50.92145061794362
          ]
        ]
      }
    },
    {
      "type": "Feature",
      "properties": {
        "ID": "3849",
        "Bezirk_Name": "Innenstadt",
        "Akt._Beschluss": "2016-06-14"
      },
      "geometry": {
        "type": "LineString",
        "coordinates": [
          [
            6.942619230995314,
            50.92838417908343
          ],
          [
            6.941480894572708,
            50.92906756414472
          ]
        ]
      }
    },
    {
      "type": "Feature",
      "properties": {
        "ID": "3851",
        "Bezirk_Name": "Innenstadt",
        "Akt._Beschluss": "2016-06-14"
      },
      "geometry": {
        "type": "LineString",
        "coordinates": [
          [
            6.945888067806961,
            50.946471055025285
          ],
          [
            6.948314417405232,
            50.94753007151
          ],
          [
            6.950077598644646,
            50.94816295602414
          ]
        ]
      }
    },
    {
      "type": "Feature",
      "properties": {
        "ID": "3855",
        "Bezirk_Name": "Innenstadt",
        "Akt._Beschluss": "2016-06-14"
      },
      "geometry": {
        "type": "LineString",
        "coordinates": [
          [
            6.938917070468249,
            50.936405359613616
          ],
          [
            6.938974612713873,
            50.936692662356656
          ],
          [
            6.939311102213884,
            50.93785855535129
          ]
        ]
      }
    },
    {
      "type": "Feature",
      "properties": {
        "ID": "3856",
        "Bezirk_Name": "Innenstadt",
        "Akt._Beschluss": "2016-06-14"
      },
      "geometry": {
        "type": "LineString",
        "coordinates": [
          [
            6.941480894572708,
            50.92906756414472
          ],
          [
            6.94091406078773,
            50.9305823300923
          ],
          [
            6.940739693948246,
            50.931105113365646
          ]
        ]
      }
    },
    {
      "type": "Feature",
      "properties": {
        "ID": "3857",
        "Bezirk_Name": "Innenstadt",
        "Akt._Beschluss": "2016-06-14"
      },
      "geometry": {
        "type": "LineString",
        "coordinates": [
          [
            6.961736532034181,
            50.92145061794362
          ],
          [
            6.96351410358137,
            50.92175988249421
          ]
        ]
      }
    },
    {
      "type": "Feature",
      "properties": {
        "ID": "3860",
        "Bezirk_Name": "Innenstadt",
        "Akt._Beschluss": "2016-06-14"
      },
      "geometry": {
        "type": "LineString",
        "coordinates": [
          [
            6.950077598644646,
            50.94816295602414
          ],
          [
            6.951005130341006,
            50.948516554462664
          ]
        ]
      }
    },
    {
      "type": "Feature",
      "properties": {
        "ID": "3885",
        "Bezirk_Name": "Innenstadt",
        "Akt._Beschluss": "2016-06-14"
      },
      "geometry": {
        "type": "LineString",
        "coordinates": [
          [
            6.939403791667178,
            50.938266923951005
          ],
          [
            6.93940478642099,
            50.93827130709532
          ],
          [
            6.939529640533018,
            50.9388186451248
          ],
          [
            6.939560990966312,
            50.938962220388426
          ],
          [
            6.940020563608566,
            50.94058557193023
          ],
          [
            6.940020689995743,
            50.940585933012514
          ]
        ]
      }
    },
    {
      "type": "Feature",
      "properties": {
        "ID": "3898",
        "Bezirk_Name": "Innenstadt",
        "Akt._Beschluss": "2016-06-14"
      },
      "geometry": {
        "type": "LineString",
        "coordinates": [
          [
            6.939260820760009,
            50.9346587901263
          ],
          [
            6.939019649028533,
            50.93539784867844
          ]
        ]
      }
    },
    {
      "type": "Feature",
      "properties": {
        "ID": "3902",
        "Bezirk_Name": "Innenstadt",
        "Akt._Beschluss": "2016-06-14"
      },
      "geometry": {
        "type": "LineString",
        "coordinates": [
          [
            6.939019649028533,
            50.93539784867844
          ],
          [
            6.938895521728695,
            50.93629777224206
          ],
          [
            6.938917070468249,
            50.936405359613616
          ]
        ]
      }
    },
    {
      "type": "Feature",
      "properties": {
        "ID": "3907",
        "Bezirk_Name": "Innenstadt",
        "Akt._Beschluss": "2016-06-14"
      },
      "geometry": {
        "type": "LineString",
        "coordinates": [
          [
            6.939953935052181,
            50.93304046895314
          ],
          [
            6.939926590513055,
            50.93310727885168
          ],
          [
            6.939682174920008,
            50.93368455877201
          ],
          [
            6.939558143161167,
            50.93397134284827
          ],
          [
            6.939260820760009,
            50.9346587901263
          ]
        ]
      }
    },
    {
      "type": "Feature",
      "properties": {
        "ID": "3911",
        "Bezirk_Name": "Innenstadt",
        "Akt._Beschluss": "2016-06-14"
      },
      "geometry": {
        "type": "LineString",
        "coordinates": [
          [
            6.951005130341006,
            50.948516554462664
          ],
          [
            6.951024148585299,
            50.94852380445432
          ],
          [
            6.951783915380715,
            50.94879627649522
          ]
        ]
      }
    },
    {
      "type": "Feature",
      "properties": {
        "ID": "3912",
        "Bezirk_Name": "Innenstadt",
        "Akt._Beschluss": "2016-06-14"
      },
      "geometry": {
        "type": "LineString",
        "coordinates": [
          [
            6.939311102213884,
            50.93785855535129
          ],
          [
            6.939403791667178,
            50.938266923951005
          ]
        ]
      }
    }
  ]
}
