{
  "type": "FeatureCollection",
  "features": [
    {
      "type": "Feature",
      "properties": {
        "ID": "3772",
        "Bezirk_Name": "Innenstadt",
        "Akt._Beschluss": "2016-06-14"
      },
      "geometry": {
        "type": "LineString",
        "coordinates": [
          [
            6.959462323618633,
            50.950094961291576
          ],
          [
            6.959672565043199,
            50.95008649241887
          ],
          [
            6.963033337835392,
            50.94998812458435
          ],
          [
            6.965012973882438,
            50.94994412184233
          ],
          [
            6.966237013237985,
            50.9499360022994
          ]
        ]
      }
    },
    {
      "type": "Feature",
      "properties": {
        "ID": "3773",
        "Bezirk_Name": "Innenstadt",
        "Akt._Beschluss": "2016-06-14"
      },
      "geometry": {
        "type": "LineString",
        "coordinates": [
          [
            6.966625810293882,
            50.95042849599955
          ],
          [
            6.965590644793078,
            50.950673240267726
          ],
          [
            6.962246170495916,
            50.95091474220284
          ],
          [
            6.960785024182179,
            50.950989172634515
          ],
          [
            6.959030560816301,
            50.95094260083931
          ]
        ]
      }
    },
    {
      "type": "Feature",
      "properties": {
        "ID": "3905",
        "Bezirk_Name": "Innenstadt",
        "Akt._Beschluss": "2016-06-14"
      },
      "geometry": {
        "type": "LineString",
        "coordinates": [
          [
            6.958746232207154,
            50.95012380614053
          ],
          [
            6.959462323618633,
            50.950094961291576
          ]
        ]
      }
    }
  ]
}
