{"type":"FeatureCollection", "features": [
{"type":"Feature","geometry":{"type":"Polygon","coordinates":[[[24.95038,60.17638],[24.95124,60.16797],[24.95773,60.16814],[24.96618,60.17057],[24.97195,60.17057],[24.9786,60.16991],[24.97682,60.175],[24.95812,60.17732],[24.95114,60.1764],[24.95038,60.17638]]]},"properties":{"name":"KRUUNUNHAKA","area_km2":1.12}},
{"type":"Feature","geometry":{"type":"Polygon","coordinates":[[[24.93496,60.17208],[24.94121,60.16772],[24.95124,60.16797],[24.95038,60.17638],[24.94935,60.17636],[24.94352,60.17973],[24.93502,60.18005],[24.93208,60.17891],[24.93262,60.17801],[24.93289,60.17805],[24.93498,60.17447],[24.93396,60.17212],[24.93496,60.17208]]]},"properties":{"name":"KLUUVI","area_km2":1.03}},
{"type":"Feature","geometry":{"type":"Polygon","coordinates":[[[24.94121,60.16772],[24.9434,60.16625],[24.94346,60.16549],[24.94258,60.16518],[24.94577,60.16287],[24.95805,60.16468],[24.95773,60.16814],[24.94121,60.16772]]]},"properties":{"name":"KAARTINKAUPUNKI","area_km2":0.4}},
{"type":"Feature","geometry":{"type":"Polygon","coordinates":[[[24.92096,60.16698],[24.92092,60.16285],[24.92184,60.16285],[24.92502,60.16073],[24.92726,60.16047],[24.92755,60.16124],[24.93424,60.16227],[24.94346,60.16549],[24.9434,60.16625],[24.93567,60.17127],[24.93496,60.17208],[24.93435,60.17205],[24.92718,60.16932],[24.9216,60.16753],[24.92089,60.1675],[24.92096,60.16698]]]},"properties":{"name":"KAMPPI","area_km2":0.95}},
{"type":"Feature","geometry":{"type":"Polygon","coordinates":[[[24.92755,60.16124],[24.92719,60.16028],[24.93153,60.15728],[24.93375,60.15763],[24.94141,60.15797],[24.94128,60.15823],[24.94278,60.16257],[24.94511,60.16336],[24.94258,60.16518],[24.93424,60.16227],[24.92755,60.16124]]]},"properties":{"name":"PUNAVUORI","area_km2":0.47}},
{"type":"Feature","geometry":{"type":"Polygon","coordinates":[[[24.93334,60.15757],[24.93439,60.15632],[24.936,60.15537],[24.93664,60.15321],[24.94371,60.15321],[24.94141,60.15797],[24.93334,60.15757]]]},"properties":{"name":"EIRA","area_km2":0.21}},
{"type":"Feature","geometry":{"type":"Polygon","coordinates":[[[24.95057,60.15508],[24.95587,60.16203],[24.96039,60.16374],[24.95805,60.16468],[24.94577,60.16287],[24.94511,60.16336],[24.94278,60.16257],[24.94128,60.15823],[24.94371,60.15321],[24.93664,60.15321],[24.93858,60.14663],[24.95242,60.14662],[24.9534,60.15126],[24.95628,60.1533],[24.95057,60.15508]]]},"properties":{"name":"ULLANLINNA","area_km2":1.4}},
{"type":"Feature","geometry":{"type":"Polygon","coordinates":[[[24.95773,60.16814],[24.95805,60.16468],[24.96322,60.1626],[25.00446,60.16258],[25.00323,60.16856],[24.97907,60.16857],[24.9786,60.16991],[24.97195,60.17057],[24.96618,60.17057],[24.95773,60.16814]]]},"properties":{"name":"KATAJANOKKA","area_km2":1.87}},
{"type":"Feature","geometry":{"type":"Polygon","coordinates":[[[24.96039,60.16374],[24.95587,60.16203],[24.95057,60.15508],[24.96181,60.15157],[25.0052,60.15899],[25.00446,60.16258],[24.96322,60.1626],[24.96039,60.16374]]]},"properties":{"name":"KAIVOPUISTO","area_km2":2.46}},
{"type":"Feature","geometry":{"type":"Polygon","coordinates":[[[24.96137,60.18562],[24.95356,60.181],[24.95812,60.17732],[24.97682,60.175],[24.97853,60.17876],[24.98703,60.18585],[24.99797,60.19827],[24.97801,60.19253],[24.97437,60.18894],[24.96434,60.18921],[24.96348,60.18778],[24.96137,60.18562]]]},"properties":{"name":"SÖRNÄINEN","area_km2":2.52}},
{"type":"Feature","geometry":{"type":"Polygon","coordinates":[[[24.93502,60.18005],[24.94352,60.17973],[24.94935,60.17636],[24.95114,60.1764],[24.95812,60.17732],[24.95356,60.181],[24.96137,60.18562],[24.96193,60.18737],[24.94339,60.1862],[24.93345,60.18317],[24.93502,60.18005]]]},"properties":{"name":"KALLIO","area_km2":1.21}},
{"type":"Feature","geometry":{"type":"Polygon","coordinates":[[[24.93265,60.19278],[24.93625,60.18516],[24.94339,60.1862],[24.96193,60.18737],[24.96348,60.18778],[24.96421,60.18896],[24.96199,60.18925],[24.95421,60.18927],[24.93668,60.19576],[24.93443,60.19531],[24.93379,60.19288],[24.93265,60.19278]]]},"properties":{"name":"ALPPIHARJU","area_km2":0.91}},
{"type":"Feature","geometry":{"type":"Polygon","coordinates":[[[24.88223,60.17211],[24.89517,60.16674],[24.90395,60.17185],[24.90789,60.17329],[24.92061,60.16972],[24.92089,60.1675],[24.9216,60.16753],[24.92718,60.16932],[24.93435,60.17205],[24.93396,60.17212],[24.93498,60.17447],[24.93289,60.17805],[24.93262,60.17801],[24.93208,60.17891],[24.92918,60.17779],[24.91211,60.17603],[24.89899,60.18174],[24.88223,60.17211]]]},"properties":{"name":"ETU-TÖÖLÖ","area_km2":2.34}},
{"type":"Feature","geometry":{"type":"Polygon","coordinates":[[[24.89899,60.18174],[24.91211,60.17603],[24.92918,60.17779],[24.93502,60.18005],[24.93345,60.18317],[24.93625,60.18516],[24.93265,60.19278],[24.92842,60.19206],[24.925,60.1913],[24.92292,60.19064],[24.92103,60.18977],[24.91626,60.18957],[24.90819,60.18493],[24.90548,60.18546],[24.89899,60.18174]]]},"properties":{"name":"TAKA-TÖÖLÖ","area_km2":2.33}},
{"type":"Feature","geometry":{"type":"Polygon","coordinates":[[[24.90819,60.18493],[24.91626,60.18957],[24.91314,60.19096],[24.90133,60.1951],[24.90106,60.19745],[24.89919,60.1974],[24.89817,60.19721],[24.89788,60.19736],[24.89066,60.19715],[24.89062,60.19696],[24.88198,60.19151],[24.86882,60.17767],[24.88223,60.17211],[24.90548,60.18546],[24.90819,60.18493]]]},"properties":{"name":"MEILAHTI","area_km2":3.55}},
{"type":"Feature","geometry":{"type":"Polygon","coordinates":[[[24.89066,60.19715],[24.89788,60.19736],[24.89817,60.19721],[24.89919,60.1974],[24.90279,60.1975],[24.91788,60.19657],[24.91615,60.20326],[24.91684,60.20394],[24.90951,60.2083],[24.90511,60.20791],[24.8942,60.20702],[24.89254,60.20234],[24.89149,60.20168],[24.89066,60.19715]]]},"properties":{"name":"RUSKEASUO","area_km2":1.56}},
{"type":"Feature","geometry":{"type":"Polygon","coordinates":[[[24.90951,60.2083],[24.91684,60.20394],[24.91615,60.20326],[24.91788,60.19657],[24.92223,60.19339],[24.92441,60.19114],[24.92974,60.19231],[24.93263,60.19284],[24.93379,60.19288],[24.93443,60.19531],[24.9365,60.19577],[24.94424,60.19687],[24.94772,60.19839],[24.94531,60.2028],[24.94523,60.20885],[24.93448,60.20743],[24.93709,60.21348],[24.94269,60.21922],[24.93816,60.21849],[24.93354,60.21817],[24.92924,60.22067],[24.91369,60.21959],[24.91464,60.21844],[24.90754,60.20862],[24.90857,60.2082],[24.90951,60.2083]]]},"properties":{"name":"PASILA","area_km2":4.39}},
{"type":"Feature","geometry":{"type":"Polygon","coordinates":[[[24.90106,60.19745],[24.90133,60.1951],[24.91314,60.19096],[24.92103,60.18977],[24.92441,60.19114],[24.92223,60.19339],[24.91788,60.19657],[24.90279,60.1975],[24.90106,60.19745]]]},"properties":{"name":"LAAKSO","area_km2":0.69}},
{"type":"Feature","geometry":{"type":"Polygon","coordinates":[[[24.97853,60.17876],[24.97682,60.175],[24.97907,60.16857],[25.00323,60.16856],[25.00205,60.17427],[25.00371,60.18083],[24.98721,60.18606],[24.97853,60.17876]]]},"properties":{"name":"MUSTIKKAMAA-KORKEASAARI","area_km2":2.23}},
{"type":"Feature","geometry":{"type":"Polygon","coordinates":[[[24.936,60.15537],[24.93459,60.15613],[24.93334,60.15757],[24.93153,60.15728],[24.92719,60.16028],[24.92726,60.16047],[24.92502,60.16073],[24.92184,60.16285],[24.92092,60.16285],[24.92096,60.16698],[24.92061,60.16972],[24.90789,60.17329],[24.90395,60.17185],[24.89517,60.16674],[24.89722,60.1659],[24.89722,60.14264],[24.93858,60.14265],[24.93858,60.14663],[24.936,60.15537]]]},"properties":{"name":"LÄNSISATAMA","area_km2":5.91}},
{"type":"Feature","geometry":{"type":"Polygon","coordinates":[[[24.96355,60.20103],[24.96333,60.19517],[24.96481,60.19055],[24.96434,60.18921],[24.97437,60.18894],[24.97801,60.19253],[24.99797,60.19827],[24.97462,60.20123],[24.96355,60.20103]]]},"properties":{"name":"HERMANNI","area_km2":1.5}},
{"type":"Feature","geometry":{"type":"Polygon","coordinates":[[[24.95421,60.18927],[24.96199,60.18925],[24.96421,60.18896],[24.96426,60.18905],[24.96481,60.19055],[24.96333,60.19517],[24.96355,60.20103],[24.95629,60.20138],[24.94961,60.19991],[24.9469,60.20071],[24.94772,60.19839],[24.94424,60.19687],[24.9365,60.19577],[24.9513,60.18974],[24.95421,60.18927]]]},"properties":{"name":"VALLILA","area_km2":1.38}},
{"type":"Feature","geometry":{"type":"Polygon","coordinates":[[[24.96355,60.20103],[24.97462,60.20123],[24.99797,60.19827],[24.98521,60.2058],[24.98782,60.21017],[24.97638,60.21182],[24.97261,60.21138],[24.97085,60.21266],[24.96922,60.21079],[24.96842,60.20765],[24.96355,60.20103]]]},"properties":{"name":"TOUKOLA","area_km2":1.49}},
{"type":"Feature","geometry":{"type":"Polygon","coordinates":[[[24.94531,60.2028],[24.9469,60.20071],[24.94961,60.19991],[24.95629,60.20138],[24.96355,60.20103],[24.96842,60.20765],[24.96923,60.21081],[24.97281,60.21473],[24.97648,60.21702],[24.96792,60.21613],[24.96354,60.21374],[24.94549,60.20683],[24.94531,60.2028]]]},"properties":{"name":"KUMPULA","area_km2":1.51}},
{"type":"Feature","geometry":{"type":"Polygon","coordinates":[[[24.93709,60.21348],[24.93448,60.20743],[24.94523,60.20885],[24.94549,60.20683],[24.96354,60.21374],[24.96263,60.21472],[24.96053,60.22354],[24.94951,60.22225],[24.94269,60.21922],[24.93709,60.21348]]]},"properties":{"name":"KÄPYLÄ","area_km2":1.77}},
{"type":"Feature","geometry":{"type":"Polygon","coordinates":[[[24.97648,60.21702],[24.97902,60.21708],[24.97985,60.221],[24.96441,60.224],[24.96053,60.22354],[24.96263,60.21472],[24.96792,60.21613],[24.97648,60.21702]]]},"properties":{"name":"KOSKELA","area_km2":0.78}},
{"type":"Feature","geometry":{"type":"Polygon","coordinates":[[[24.97902,60.21708],[24.97688,60.21731],[24.97291,60.21481],[24.97085,60.21266],[24.97261,60.21138],[24.97638,60.21182],[24.98782,60.21017],[24.98456,60.21359],[24.98238,60.21704],[24.97989,60.21755],[24.97902,60.21708]]]},"properties":{"name":"VANHAKAUPUNKI","area_km2":0.43}},
{"type":"Feature","geometry":{"type":"Polygon","coordinates":[[[24.92924,60.22067],[24.93354,60.21817],[24.93816,60.21849],[24.94269,60.21922],[24.94951,60.22225],[24.96441,60.224],[24.97985,60.221],[24.98301,60.22385],[24.98332,60.22642],[24.98608,60.22782],[24.98989,60.23245],[24.98827,60.23567],[24.97393,60.24059],[24.97256,60.24138],[24.96907,60.23917],[24.96297,60.24092],[24.96112,60.23992],[24.94037,60.23659],[24.91581,60.23451],[24.9143,60.23862],[24.89944,60.235],[24.90178,60.23246],[24.90801,60.22645],[24.91369,60.21959],[24.92924,60.22067]]]},"properties":{"name":"OULUNKYLÄ","area_km2":8.2}},
{"type":"Feature","geometry":{"type":"Polygon","coordinates":[[[24.87921,60.21313],[24.87876,60.21257],[24.89139,60.20139],[24.89171,60.20188],[24.89254,60.20234],[24.8942,60.20702],[24.90511,60.20791],[24.90857,60.2082],[24.90754,60.20862],[24.91464,60.21844],[24.90801,60.22645],[24.90178,60.23246],[24.89895,60.23554],[24.8903,60.23471],[24.86666,60.23505],[24.8667,60.23425],[24.86951,60.23137],[24.87261,60.23045],[24.87294,60.22877],[24.87731,60.22424],[24.88258,60.21611],[24.88356,60.21482],[24.88153,60.21399],[24.87921,60.21313]]]},"properties":{"name":"HAAGA","area_km2":5.53}},
{"type":"Feature","geometry":{"type":"Polygon","coordinates":[[[24.87828,60.21305],[24.87191,60.21267],[24.86429,60.21456],[24.86166,60.20987],[24.84666,60.20594],[24.8428,60.19576],[24.84412,60.17357],[24.85737,60.17325],[24.8578,60.17585],[24.86882,60.17767],[24.88198,60.19151],[24.89062,60.19696],[24.89139,60.20139],[24.87876,60.21257],[24.87828,60.21305]]]},"properties":{"name":"MUNKKINIEMI","area_km2":8.24}},
{"type":"Feature","geometry":{"type":"Polygon","coordinates":[[[24.83803,60.14284],[24.89722,60.13973],[24.89722,60.1659],[24.86882,60.17767],[24.8578,60.17585],[24.85737,60.17325],[24.84412,60.17357],[24.84441,60.16558],[24.84094,60.15703],[24.83803,60.14284]]]},"properties":{"name":"LAUTTASAARI","area_km2":11.01}},
{"type":"Feature","geometry":{"type":"Polygon","coordinates":[[[24.83368,60.25467],[24.8314,60.25406],[24.83694,60.23676],[24.83796,60.22958],[24.84811,60.2305],[24.86347,60.23576],[24.86541,60.23532],[24.86606,60.23601],[24.86564,60.23657],[24.86326,60.23686],[24.86008,60.23883],[24.8581,60.23935],[24.8491,60.24512],[24.84651,60.2462],[24.83368,60.25467]]]},"properties":{"name":"KONALA","area_km2":2.36}},
{"type":"Feature","geometry":{"type":"Polygon","coordinates":[[[24.83368,60.25467],[24.84651,60.2462],[24.8491,60.24512],[24.8581,60.23935],[24.86008,60.23883],[24.86326,60.23686],[24.86564,60.23657],[24.86606,60.23601],[24.86541,60.23532],[24.86687,60.235],[24.8903,60.23471],[24.89895,60.23554],[24.89944,60.235],[24.9143,60.23862],[24.9142,60.23892],[24.913,60.24248],[24.91171,60.24633],[24.9006,60.26485],[24.89928,60.26894],[24.87725,60.26031],[24.87242,60.25414],[24.85781,60.25361],[24.83864,60.2591],[24.83368,60.25467]]]},"properties":{"name":"KAARELA","area_km2":9.33}},
{"type":"Feature","geometry":{"type":"Polygon","coordinates":[[[24.91222,60.24484],[24.913,60.24248],[24.9142,60.23892],[24.91581,60.23451],[24.94037,60.23659],[24.96112,60.23992],[24.96297,60.24092],[24.96907,60.23917],[24.97256,60.24138],[24.97185,60.24199],[24.97264,60.24353],[24.97293,60.24592],[24.975,60.24989],[24.97596,60.25049],[24.9702,60.25096],[24.94751,60.25087],[24.94718,60.24889],[24.91222,60.24484]]]},"properties":{"name":"PAKILA","area_km2":4.13}},
{"type":"Feature","geometry":{"type":"Polygon","coordinates":[[[24.89928,60.26894],[24.9006,60.26485],[24.91171,60.24633],[24.91222,60.24484],[24.94718,60.24889],[24.94751,60.25087],[24.9702,60.25096],[24.97596,60.25049],[24.9778,60.25182],[24.97834,60.25276],[24.9732,60.26444],[24.96368,60.26699],[24.9559,60.27279],[24.95289,60.27801],[24.94554,60.27839],[24.93196,60.27506],[24.92458,60.27481],[24.89928,60.26894]]]},"properties":{"name":"TUOMARINKYLÄ","area_km2":10.67}},
{"type":"Feature","geometry":{"type":"Polygon","coordinates":[[[25.05057,60.23157],[25.03958,60.23621],[25.03518,60.23628],[25.02172,60.2315],[25.01297,60.22938],[25.01093,60.22911],[25.00655,60.22988],[25.00131,60.22847],[24.99444,60.23124],[24.98984,60.23126],[24.98608,60.22782],[24.98332,60.22642],[24.98301,60.22385],[24.97989,60.21755],[24.98238,60.21704],[24.98456,60.21359],[24.98782,60.21017],[24.98521,60.2058],[24.99797,60.19827],[25.01881,60.21391],[25.02883,60.21103],[25.04301,60.21937],[25.05057,60.23157]]]},"properties":{"name":"VIIKKI","area_km2":8.88}},
{"type":"Feature","geometry":{"type":"Polygon","coordinates":[[[24.97185,60.24199],[24.97393,60.24059],[24.98827,60.23567],[24.98945,60.2335],[24.99002,60.23658],[24.99584,60.2406],[24.9932,60.24168],[25.00268,60.24673],[24.99516,60.25132],[24.98223,60.25163],[24.97764,60.25164],[24.975,60.24989],[24.97293,60.24592],[24.97264,60.24353],[24.97185,60.24199]]]},"properties":{"name":"PUKINMÄKI","area_km2":2.01}},
{"type":"Feature","geometry":{"type":"Polygon","coordinates":[[[24.99444,60.23124],[25.00131,60.22847],[25.00655,60.22988],[25.01093,60.22911],[25.01297,60.22938],[25.02172,60.2315],[25.03612,60.23666],[25.03679,60.23716],[25.03703,60.23775],[25.03671,60.23855],[25.03614,60.23911],[25.0435,60.2401],[25.05525,60.24461],[25.05953,60.24718],[25.06109,60.24875],[25.06194,60.25083],[25.05943,60.25097],[25.04571,60.2553],[25.04451,60.26407],[25.03511,60.26463],[25.02973,60.25635],[25.02633,60.25755],[25.02287,60.25903],[25.01588,60.25446],[25.01226,60.2589],[25.00121,60.25847],[24.99444,60.25427],[24.99516,60.25132],[25.00268,60.24673],[24.9932,60.24168],[24.99584,60.2406],[24.99002,60.23658],[24.98945,60.2335],[24.98989,60.23245],[24.98984,60.23126],[24.99444,60.23124]]]},"properties":{"name":"MALMI","area_km2":9}},
{"type":"Feature","geometry":{"type":"Polygon","coordinates":[[[24.9732,60.26444],[24.97834,60.25276],[24.97764,60.25164],[24.98223,60.25163],[24.99278,60.25194],[24.99444,60.25427],[25.00121,60.25847],[25.01226,60.2589],[25.01588,60.25446],[25.02287,60.25903],[25.02633,60.25755],[25.02973,60.25635],[25.03511,60.26463],[25.0319,60.26671],[25.03307,60.26915],[25.02983,60.26936],[25.02896,60.2728],[25.01746,60.27156],[25.01028,60.26906],[25.00341,60.26859],[24.99967,60.27009],[25.00261,60.27294],[25.00113,60.27527],[24.99742,60.27441],[24.99197,60.27097],[24.99188,60.26447],[24.9758,60.26516],[24.9732,60.26444]]]},"properties":{"name":"TAPANINKYLÄ","area_km2":4.85}},
{"type":"Feature","geometry":{"type":"Polygon","coordinates":[[[25.01028,60.26906],[25.01746,60.27156],[25.02896,60.2728],[25.02983,60.26936],[25.03307,60.26915],[25.04047,60.28519],[25.03331,60.28496],[25.0209,60.28932],[25.00148,60.28663],[24.99564,60.2814],[24.9839,60.27972],[24.9775,60.27396],[24.9758,60.26516],[24.99188,60.26447],[24.99197,60.27097],[24.99742,60.27441],[25.00113,60.27527],[25.00261,60.27294],[24.99967,60.27009],[25.00341,60.26859],[25.01028,60.26906]]]},"properties":{"name":"SUUTARILA","area_km2":5.63}},
{"type":"Feature","geometry":{"type":"Polygon","coordinates":[[[25.0319,60.26671],[25.04451,60.26407],[25.04571,60.2553],[25.05943,60.25097],[25.0824,60.24967],[25.08752,60.2593],[25.08911,60.2678],[25.08799,60.27125],[25.07664,60.27555],[25.06849,60.27503],[25.05339,60.27602],[25.04373,60.27988],[25.04047,60.28519],[25.0319,60.26671]]]},"properties":{"name":"SUURMETSÄ","area_km2":7.24}},
{"type":"Feature","geometry":{"type":"Polygon","coordinates":[[[24.98721,60.18606],[25.00371,60.18083],[25.00205,60.17427],[25.02141,60.17905],[25.02282,60.18854],[25.01433,60.19113],[24.99608,60.19612],[24.98721,60.18606]]]},"properties":{"name":"KULOSAARI","area_km2":2.65}},
{"type":"Feature","geometry":{"type":"Polygon","coordinates":[[[25.02883,60.21103],[25.01881,60.21391],[24.99797,60.19827],[24.99608,60.19612],[25.01433,60.19113],[25.02282,60.18854],[25.02201,60.18308],[25.0406,60.18503],[25.04874,60.18902],[25.04875,60.19176],[25.06087,60.19315],[25.06663,60.19681],[25.07515,60.19399],[25.07612,60.19349],[25.07295,60.19758],[25.06982,60.20275],[25.06438,60.20241],[25.06434,60.20774],[25.05456,60.20755],[25.05363,60.20776],[25.04603,60.20968],[25.04511,60.21088],[25.04487,60.21482],[25.04297,60.21934],[25.02883,60.21103]]]},"properties":{"name":"HERTTONIEMI","area_km2":8.81}},
{"type":"Feature","geometry":{"type":"Polygon","coordinates":[[[25.07515,60.19399],[25.06663,60.19681],[25.06087,60.19315],[25.04875,60.19176],[25.04874,60.18902],[25.05599,60.1887],[25.06071,60.18681],[25.06579,60.18658],[25.06845,60.1869],[25.07515,60.19399]]]},"properties":{"name":"TAMMISALO","area_km2":0.93}},
{"type":"Feature","geometry":{"type":"Polygon","coordinates":[[[25.07744,60.22708],[25.07701,60.22844],[25.0759,60.22857],[25.07493,60.22819],[25.07389,60.22809],[25.06983,60.22839],[25.05819,60.23008],[25.05331,60.23106],[25.05118,60.2319],[25.05048,60.23152],[25.04297,60.21934],[25.04487,60.21482],[25.04511,60.21088],[25.04603,60.20968],[25.05363,60.20776],[25.05456,60.20755],[25.06434,60.20774],[25.06438,60.20241],[25.06982,60.20275],[25.07295,60.19758],[25.07612,60.19349],[25.0831,60.19447],[25.08907,60.19157],[25.09462,60.19435],[25.10478,60.20232],[25.114,60.20799],[25.11683,60.21136],[25.12256,60.21702],[25.12276,60.21964],[25.12471,60.22161],[25.12208,60.22331],[25.11989,60.22625],[25.10985,60.22851],[25.10793,60.22832],[25.10491,60.22793],[25.10326,60.22746],[25.10042,60.22684],[25.09999,60.22724],[25.09661,60.2275],[25.0921,60.22598],[25.08876,60.2232],[25.07756,60.22691],[25.07744,60.22708]]]},"properties":{"name":"VARTIOKYLÄ","area_km2":12.16}},
{"type":"Feature","geometry":{"type":"Polygon","coordinates":[[[24.88258,60.21611],[24.87731,60.22424],[24.87294,60.22877],[24.87261,60.23045],[24.86951,60.23137],[24.8667,60.23425],[24.86666,60.23505],[24.86347,60.23576],[24.84811,60.2305],[24.83796,60.22958],[24.84191,60.2212],[24.84787,60.2216],[24.84609,60.21537],[24.84666,60.20594],[24.86166,60.20987],[24.86429,60.21456],[24.87191,60.21267],[24.87828,60.21305],[24.87921,60.21313],[24.88153,60.21399],[24.88356,60.21482],[24.88258,60.21611]]]},"properties":{"name":"PITÄJÄNMÄKI","area_km2":4.4}},
{"type":"Feature","geometry":{"type":"Polygon","coordinates":[[[25.05057,60.23157],[25.05118,60.2319],[25.05225,60.23137],[25.05357,60.23099],[25.05819,60.23008],[25.06983,60.22839],[25.07447,60.22812],[25.07744,60.22708],[25.07756,60.22691],[25.08019,60.22499],[25.08441,60.22367],[25.08626,60.22225],[25.08876,60.2232],[25.0921,60.22598],[25.09661,60.2275],[25.09999,60.22724],[25.10042,60.22684],[25.10326,60.22746],[25.10491,60.22793],[25.10793,60.22832],[25.10985,60.22851],[25.11989,60.22625],[25.12208,60.22331],[25.12471,60.22161],[25.12631,60.22295],[25.12858,60.22343],[25.13421,60.22694],[25.13744,60.23228],[25.13624,60.23705],[25.09138,60.24518],[25.08244,60.2497],[25.06194,60.25083],[25.06109,60.24875],[25.06018,60.24767],[25.05525,60.24461],[25.0435,60.2401],[25.03614,60.23911],[25.03686,60.23831],[25.03692,60.23735],[25.03639,60.23681],[25.03518,60.23628],[25.03958,60.23621],[25.05057,60.23157]]]},"properties":{"name":"MELLUNKYLÄ","area_km2":9.81}},
{"type":"Feature","geometry":{"type":"Polygon","coordinates":[[[25.06213,60.18672],[25.06612,60.18063],[25.07735,60.17492],[25.08608,60.17248],[25.09523,60.17246],[25.10619,60.16763],[25.11135,60.17185],[25.11256,60.17603],[25.08718,60.18665],[25.08907,60.19157],[25.0831,60.19447],[25.07612,60.19349],[25.07515,60.19399],[25.06845,60.1869],[25.06579,60.18658],[25.06213,60.18672]]]},"properties":{"name":"VARTIOSAARI","area_km2":3.8}},
{"type":"Feature","geometry":{"type":"Polygon","coordinates":[[[25.02141,60.17905],[25.00205,60.17427],[25.0052,60.15899],[25.02704,60.15792],[25.06019,60.15804],[25.07926,60.15279],[25.09179,60.15278],[25.09181,60.15697],[25.09613,60.15888],[25.10619,60.16763],[25.09523,60.17246],[25.08608,60.17248],[25.07735,60.17492],[25.06612,60.18063],[25.06213,60.18672],[25.06071,60.18681],[25.05599,60.1887],[25.0406,60.18503],[25.02201,60.18308],[25.02141,60.17905]]]},"properties":{"name":"LAAJASALO","area_km2":13.85}},
{"type":"Feature","geometry":{"type":"Polygon","coordinates":[[[25.09179,60.15278],[25.09819,60.15273],[25.11441,60.15061],[25.14819,60.1522],[25.16086,60.15421],[25.15755,60.16558],[25.12336,60.16509],[25.10619,60.16763],[25.09613,60.15888],[25.09181,60.15697],[25.09179,60.15278]]]},"properties":{"name":"VILLINKI","area_km2":5.38}},
{"type":"Feature","geometry":{"type":"Polygon","coordinates":[[[25.02223,60.15818],[25.02217,60.14102],[25.028,60.13761],[25.02945,60.11881],[25.12383,60.12946],[25.12396,60.15104],[25.11441,60.15061],[25.09819,60.15273],[25.07926,60.15279],[25.06019,60.15804],[25.02704,60.15792],[25.02223,60.15818]]]},"properties":{"name":"SANTAHAMINA","area_km2":18.72}},
{"type":"Feature","geometry":{"type":"Polygon","coordinates":[[[24.95628,60.1533],[24.9534,60.15126],[24.95242,60.14662],[25.01036,60.11756],[25.02945,60.11881],[25.028,60.13761],[25.02217,60.14102],[25.02223,60.15818],[25.0052,60.15899],[24.96181,60.15157],[24.95628,60.1533]]]},"properties":{"name":"SUOMENLINNA","area_km2":12.04}},
{"type":"Feature","geometry":{"type":"Polygon","coordinates":[[[24.83803,60.14284],[24.83567,60.13041],[24.78281,60.09996],[24.85114,60.02418],[24.892,60.03563],[25.13281,60.09079],[25.17612,60.08759],[25.17679,60.0935],[25.19422,60.14666],[25.21953,60.19798],[25.20126,60.2006],[25.16053,60.1646],[25.16086,60.15421],[25.14819,60.1522],[25.12396,60.15104],[25.12383,60.12946],[25.02945,60.11881],[25.01036,60.11756],[24.95242,60.14662],[24.93858,60.14663],[24.93858,60.14265],[24.89722,60.14264],[24.89722,60.13973],[24.83803,60.14284]]]},"properties":{"name":"ULKOSAARET","area_km2":185.4}},
{"type":"Feature","geometry":{"type":"Polygon","coordinates":[[[25.08907,60.19157],[25.08718,60.18665],[25.11256,60.17603],[25.11135,60.17185],[25.10619,60.16763],[25.12336,60.16509],[25.15755,60.16558],[25.16053,60.1646],[25.20126,60.2006],[25.21953,60.19798],[25.2204,60.19974],[25.20142,60.2182],[25.20455,60.23073],[25.19018,60.22693],[25.16036,60.23327],[25.15522,60.23256],[25.14543,60.24079],[25.13899,60.24091],[25.13624,60.23705],[25.13744,60.23228],[25.13421,60.22694],[25.12858,60.22343],[25.12631,60.22295],[25.12276,60.21964],[25.12256,60.21702],[25.11683,60.21136],[25.114,60.20799],[25.10478,60.20232],[25.09462,60.19435],[25.08907,60.19157]]]},"properties":{"name":"VUOSAARI","area_km2":34.55}},
{"type":"Feature","geometry":{"type":"Polygon","coordinates":[[[25.16008,60.24857],[25.17004,60.24934],[25.1712,60.24907],[25.17236,60.24858],[25.18019,60.24382],[25.1875,60.24711],[25.20902,60.24701],[25.20196,60.25018],[25.20255,60.25257],[25.20501,60.25341],[25.20644,60.25346],[25.21021,60.255],[25.22181,60.25632],[25.22681,60.25695],[25.22736,60.26112],[25.23256,60.26255],[25.23174,60.2672],[25.23484,60.27196],[25.2509,60.27352],[25.25211,60.27547],[25.24309,60.27462],[25.21967,60.2707],[25.20294,60.26538],[25.18979,60.26521],[25.1725,60.26222],[25.15548,60.26293],[25.14414,60.26131],[25.1447,60.25919],[25.15398,60.25664],[25.16008,60.24857]]]},"properties":{"name":"ÖSTERSUNDOM","area_km2":7.83}},
{"type":"Feature","geometry":{"type":"Polygon","coordinates":[[[25.13899,60.24091],[25.14543,60.24079],[25.15522,60.23256],[25.16036,60.23327],[25.19018,60.22693],[25.19868,60.22919],[25.18019,60.24382],[25.17236,60.24858],[25.1712,60.24907],[25.17004,60.24934],[25.16008,60.24857],[25.15074,60.24552],[25.14317,60.24472],[25.13899,60.24091]]]},"properties":{"name":"SALMENKALLIO","area_km2":4.13}},
{"type":"Feature","geometry":{"type":"Polygon","coordinates":[[[25.18019,60.24382],[25.19868,60.22919],[25.20455,60.23073],[25.22663,60.23936],[25.22164,60.24428],[25.20902,60.24701],[25.1875,60.24711],[25.18019,60.24382]]]},"properties":{"name":"TALOSAARI","area_km2":3.13}},
{"type":"Feature","geometry":{"type":"Polygon","coordinates":[[[25.21021,60.255],[25.20644,60.25346],[25.20501,60.25341],[25.20255,60.25257],[25.20196,60.25018],[25.20902,60.24701],[25.22164,60.24428],[25.24091,60.24632],[25.23745,60.25627],[25.22681,60.25695],[25.22181,60.25632],[25.21021,60.255]]]},"properties":{"name":"KARHUSAARI","area_km2":2.25}},
{"type":"Feature","geometry":{"type":"Polygon","coordinates":[[[25.25211,60.27547],[25.24669,60.27772],[25.24733,60.28298],[25.24387,60.28488],[25.25389,60.28963],[25.24556,60.29351],[25.2545,60.29523],[25.25289,60.29746],[25.23818,60.29533],[25.22907,60.29605],[25.22065,60.29143],[25.20154,60.288],[25.19673,60.28315],[25.19025,60.28568],[25.18766,60.27988],[25.14254,60.26978],[25.14177,60.26479],[25.14414,60.26131],[25.15548,60.26293],[25.1725,60.26222],[25.18979,60.26521],[25.20294,60.26538],[25.21967,60.2707],[25.24309,60.27462],[25.25211,60.27547]]]},"properties":{"name":"ULTUNA","area_km2":11.4}}
]}