{
"type": "FeatureCollection",
"name": "koeln_utm",
"crs": { "type": "name", "properties": { "name": "urn:ogc:def:crs:OGC:1.3:CRS84" } },
"features": [
{ "type": "Feature", "properties": { "objectid": 1, "nummer": "1", "name": "Innenstadt", "flaeche": 16405415.414789399, "st_area(shape)": 16400571.760191267, "st_perimeter(shape)": 18428.834070766472 }, "geometry": { "type": "Polygon", "coordinates": [ [ [ 6.994178347007087, 50.937059814692397 ], [ 6.984739556657482, 50.926968399348397 ], [ 6.983698213324026, 50.921311645367325 ], [ 6.982368537584365, 50.919787879251423 ], [ 6.973344747682797, 50.917218011788208 ], [ 6.96324142967126, 50.915477026451342 ], [ 6.952285032160113, 50.916798875594864 ], [ 6.943042579849429, 50.920611307027571 ], [ 6.941069586099328, 50.922529768780848 ], [ 6.940283165722589, 50.922165119184356 ], [ 6.940342866853287, 50.923007038041149 ], [ 6.939094324273777, 50.922764363629348 ], [ 6.936399793892837, 50.924115671843097 ], [ 6.933851318283963, 50.927296978889714 ], [ 6.934141008202711, 50.928151558084778 ], [ 6.932118295851597, 50.927994881251379 ], [ 6.930053607342799, 50.931062023771204 ], [ 6.926634094710095, 50.931049302990218 ], [ 6.924317274095166, 50.935063713469816 ], [ 6.928387265502291, 50.944610532463109 ], [ 6.939333959727768, 50.953435652220556 ], [ 6.946363139884355, 50.954290224806947 ], [ 6.957956681826901, 50.957464150721869 ], [ 6.960718128617301, 50.959000601271171 ], [ 6.963726763103685, 50.959158824927435 ], [ 6.968094956992566, 50.958564535605788 ], [ 6.973816154934866, 50.95625909428545 ], [ 6.972870919352667, 50.954883554362731 ], [ 6.974349493431472, 50.953914358116904 ], [ 6.975554571672341, 50.954652545873714 ], [ 6.98264032272186, 50.949723900380143 ], [ 6.978161426252942, 50.946926500329916 ], [ 6.983256367033277, 50.945028756571055 ], [ 6.985904909432789, 50.947668971793966 ], [ 6.988093057130174, 50.946465423798045 ], [ 6.989515155495548, 50.946526716016649 ], [ 6.994264251744506, 50.949695789427295 ], [ 6.996863836191232, 50.94895537333759 ], [ 6.99237590932781, 50.941155943861652 ], [ 6.987958538264953, 50.939684156094835 ], [ 6.994178347007087, 50.937059814692397 ] ] ] } },
{ "type": "Feature", "properties": { "objectid": 2, "nummer": "2", "name": "Rodenkirchen", "flaeche": 54591514.274238802, "st_area(shape)": 54575176.579883553, "st_perimeter(shape)": 34558.249786974317 }, "geometry": { "type": "Polygon", "coordinates": [ [ [ 6.941520731901436, 50.922228959560542 ], [ 6.943042579849429, 50.920611307027571 ], [ 6.953647060530009, 50.91653805562725 ], [ 6.96395494770241, 50.915483638522709 ], [ 6.973211919499478, 50.917456648653392 ], [ 6.983006428330325, 50.904481049675553 ], [ 6.989030339242191, 50.900066193482417 ], [ 6.99544500264476, 50.897131067751737 ], [ 7.008724843471644, 50.894602814410916 ], [ 7.03310318207134, 50.89438964151563 ], [ 7.040292767707721, 50.893483095305356 ], [ 7.047998240647686, 50.889933124981034 ], [ 7.051460835582303, 50.884346399661233 ], [ 7.050613172970964, 50.879893615783409 ], [ 7.046860243199088, 50.875977029180177 ], [ 7.025506600472701, 50.868101158118868 ], [ 7.004784692804842, 50.852962971167806 ], [ 6.98536364790389, 50.844733782600322 ], [ 6.980602985493082, 50.840959566604297 ], [ 6.977873660129165, 50.841592134079839 ], [ 6.976668973141722, 50.841188384901976 ], [ 6.973676030576582, 50.84413232244443 ], [ 6.967194348111556, 50.838847664169656 ], [ 6.954654837370849, 50.834727578650423 ], [ 6.944922410559196, 50.845427904398925 ], [ 6.938155274900708, 50.84428811573796 ], [ 6.941551064276853, 50.840261134147639 ], [ 6.940387621267162, 50.839932358291662 ], [ 6.940925073402291, 50.839096283045961 ], [ 6.93990688703028, 50.838344032965693 ], [ 6.930431935564124, 50.8374952575547 ], [ 6.92977309835974, 50.841278997404473 ], [ 6.927902094676234, 50.841118585138638 ], [ 6.92851428185724, 50.843955998457425 ], [ 6.924928691080455, 50.843651917815436 ], [ 6.923433602263414, 50.849087219345279 ], [ 6.919896265532711, 50.849109164761728 ], [ 6.920091416657077, 50.850416809187983 ], [ 6.918539497384566, 50.850058062976842 ], [ 6.920582022051883, 50.852883118820465 ], [ 6.918892814068654, 50.856279907618067 ], [ 6.917126234876173, 50.856075553711094 ], [ 6.916357417804279, 50.858573198437512 ], [ 6.920714963534808, 50.864028997629056 ], [ 6.923248208492202, 50.865428887518974 ], [ 6.921534831611052, 50.869044299095002 ], [ 6.914004457408478, 50.876997931723501 ], [ 6.914058090092219, 50.881986769289014 ], [ 6.912856922216625, 50.882613947916234 ], [ 6.930549826623555, 50.909139780284903 ], [ 6.940283165722589, 50.922165119184356 ], [ 6.941520731901436, 50.922228959560542 ] ] ] } },
{ "type": "Feature", "properties": { "objectid": 3, "nummer": "3", "name": "Lindenthal", "flaeche": 41688016.820412003, "st_area(shape)": 41677557.101348035, "st_perimeter(shape)": 37395.077683306336 }, "geometry": { "type": "Polygon", "coordinates": [ [ [ 6.832417418247467, 50.977577599328676 ], [ 6.834855432606515, 50.975442513526097 ], [ 6.837038886713961, 50.976726400390682 ], [ 6.840562192002182, 50.973976320819425 ], [ 6.845667962744306, 50.976986470727198 ], [ 6.853669874766072, 50.975526634473724 ], [ 6.851521062753648, 50.972641489873432 ], [ 6.85207222917025, 50.969638808135699 ], [ 6.853781825843666, 50.969823366256541 ], [ 6.857659483706369, 50.964886177279773 ], [ 6.859049001532341, 50.965075838253611 ], [ 6.859962543703586, 50.963729892628294 ], [ 6.863253302798666, 50.962288650794875 ], [ 6.865445699943363, 50.959552821911139 ], [ 6.869183097027272, 50.958584184935695 ], [ 6.87157382134574, 50.952470408576765 ], [ 6.875432259106543, 50.947297835761788 ], [ 6.888375260804938, 50.948872739873266 ], [ 6.892208631705524, 50.947106760624628 ], [ 6.894165007095438, 50.943113831290233 ], [ 6.897289220179174, 50.943163183550986 ], [ 6.899063865589635, 50.942192293805114 ], [ 6.899457161670196, 50.944245254289278 ], [ 6.90370074672833, 50.944524857731238 ], [ 6.904819444452089, 50.943003543860243 ], [ 6.907917922187366, 50.942642989253244 ], [ 6.908939694174405, 50.941767663170261 ], [ 6.90798349142738, 50.941020130341393 ], [ 6.908913592129292, 50.939676191582812 ], [ 6.910304625101733, 50.940090956165051 ], [ 6.910799308222615, 50.939421748422696 ], [ 6.914839909495019, 50.943959447090101 ], [ 6.918146216893942, 50.942708554546989 ], [ 6.917336915750868, 50.941792723498992 ], [ 6.918722583564854, 50.941389177366354 ], [ 6.919444403321562, 50.942180585133123 ], [ 6.922415941057348, 50.940994314200644 ], [ 6.923656897803876, 50.939395619631085 ], [ 6.925835179933823, 50.939659908417461 ], [ 6.924326336332251, 50.934817714910977 ], [ 6.926634094710095, 50.931049302990218 ], [ 6.930053607342799, 50.931062023771204 ], [ 6.932118295851597, 50.927994881251379 ], [ 6.934141008202711, 50.928151558084778 ], [ 6.933851318283963, 50.927296978889714 ], [ 6.936399793892837, 50.924115671843097 ], [ 6.939094324273777, 50.922764363629348 ], [ 6.940462517795371, 50.922925389986275 ], [ 6.919983782746141, 50.893244789877372 ], [ 6.913266190758959, 50.896263183292291 ], [ 6.907928048439586, 50.896888880020747 ], [ 6.909407504366763, 50.898291996264128 ], [ 6.879989899516129, 50.911585005159068 ], [ 6.870591198136514, 50.906784644832378 ], [ 6.860452780140481, 50.903823052441595 ], [ 6.846955382651702, 50.909747941963282 ], [ 6.846676690106135, 50.911932265772606 ], [ 6.843021368955317, 50.917637297636787 ], [ 6.841068667323976, 50.917225705408981 ], [ 6.843015522947385, 50.924092184449883 ], [ 6.841667718409489, 50.92621213939259 ], [ 6.832129845584451, 50.928281506226519 ], [ 6.820880642862456, 50.92938420151291 ], [ 6.821881957783915, 50.93063390069932 ], [ 6.820697031624153, 50.932884470646528 ], [ 6.817723048913585, 50.932904312219137 ], [ 6.817821662694073, 50.938684544642548 ], [ 6.805152628633093, 50.938678197578632 ], [ 6.805284804245562, 50.939679964400995 ], [ 6.814423305990288, 50.940601744659972 ], [ 6.811332790709874, 50.945286908269985 ], [ 6.81250113845481, 50.945480483984504 ], [ 6.809499661638037, 50.948534878162803 ], [ 6.811717938362548, 50.948216832313157 ], [ 6.816433030174832, 50.951959874267068 ], [ 6.815318332160713, 50.952675989861213 ], [ 6.824248588979413, 50.957046212189795 ], [ 6.818650204741986, 50.965122992210553 ], [ 6.830718184962678, 50.971948896855544 ], [ 6.827858896803108, 50.974756852283996 ], [ 6.832417418247467, 50.977577599328676 ] ] ] } },
{ "type": "Feature", "properties": { "objectid": 4, "nummer": "4", "name": "Ehrenfeld", "flaeche": 24099256.441721801, "st_area(shape)": 24092968.692397077, "st_perimeter(shape)": 28916.941400418913 }, "geometry": { "type": "Polygon", "coordinates": [ [ [ 6.893921088756975, 50.995859758099989 ], [ 6.895499225163489, 50.993895710236778 ], [ 6.896881127527701, 50.994683707895121 ], [ 6.898506762084603, 50.991745237506208 ], [ 6.911813018793551, 50.980310698544571 ], [ 6.918043171503421, 50.972960710993597 ], [ 6.919777365516454, 50.972510390090129 ], [ 6.919113462779368, 50.970710401534561 ], [ 6.920958569344243, 50.970357580871976 ], [ 6.920988804131353, 50.967570194782716 ], [ 6.928280815138511, 50.960402948527395 ], [ 6.93258560394292, 50.962624942165327 ], [ 6.937135652796459, 50.95946944864918 ], [ 6.935013502831917, 50.958100514006048 ], [ 6.93699109616679, 50.958351083168637 ], [ 6.936872066987238, 50.95754894849243 ], [ 6.940281665025505, 50.957290563800434 ], [ 6.939083453634907, 50.956378271865745 ], [ 6.940485842036802, 50.955961847670267 ], [ 6.941290301464687, 50.953699008070615 ], [ 6.939284408004204, 50.953403803059629 ], [ 6.928994466942934, 50.945227370626391 ], [ 6.9248978183886, 50.939248394596902 ], [ 6.919444403321562, 50.942180585133123 ], [ 6.918722583564854, 50.941389177366354 ], [ 6.917336915750868, 50.941792723498992 ], [ 6.918146216893942, 50.942708554546989 ], [ 6.914839909495019, 50.943959447090101 ], [ 6.910799308222615, 50.939421748422696 ], [ 6.910304625101733, 50.940090956165051 ], [ 6.908913592129292, 50.939676191582812 ], [ 6.90798349142738, 50.941020130341393 ], [ 6.908939694174405, 50.941767663170261 ], [ 6.907917922187366, 50.942642989253244 ], [ 6.904819444452089, 50.943003543860243 ], [ 6.90370074672833, 50.944524857731238 ], [ 6.899457161670196, 50.944245254289278 ], [ 6.899063865589635, 50.942192293805114 ], [ 6.897289220179174, 50.943163183550986 ], [ 6.894165007095438, 50.943113831290233 ], [ 6.892208631705524, 50.947106760624628 ], [ 6.888375260804938, 50.948872739873266 ], [ 6.875432259106543, 50.947297835761788 ], [ 6.87157382134574, 50.952470408576765 ], [ 6.869183097027272, 50.958584184935695 ], [ 6.865445699943363, 50.959552821911139 ], [ 6.863253302798666, 50.962288650794875 ], [ 6.859962543703586, 50.963729892628294 ], [ 6.859049001532341, 50.965075838253611 ], [ 6.857659483706369, 50.964886177279773 ], [ 6.853781825843666, 50.969823366256541 ], [ 6.85207222917025, 50.969638808135699 ], [ 6.851521062753648, 50.972641489873432 ], [ 6.853669874766072, 50.975526634473724 ], [ 6.845667962744306, 50.976986470727198 ], [ 6.840562192002182, 50.973976320819425 ], [ 6.837038886713961, 50.976726400390682 ], [ 6.834855432606515, 50.975442513526097 ], [ 6.832549696841173, 50.977554341387027 ], [ 6.839437158996157, 50.982487321598917 ], [ 6.838438613881157, 50.983014390257722 ], [ 6.844623478015237, 50.988820350013469 ], [ 6.850789913641788, 50.9858026142632 ], [ 6.86359568093502, 50.993630509852409 ], [ 6.869143927183216, 50.988631989301332 ], [ 6.880766813929307, 50.991991125855336 ], [ 6.885022081828147, 50.989797043271004 ], [ 6.891773193139064, 50.992021503029761 ], [ 6.889092154122903, 50.9948526619578 ], [ 6.886290159694328, 50.993885541779193 ], [ 6.885319317412836, 50.995084122254504 ], [ 6.888453336520191, 50.995619596134567 ], [ 6.892198807488102, 50.995087202572797 ], [ 6.893921088756975, 50.995859758099989 ] ] ] } },
{ "type": "Feature", "properties": { "objectid": 5, "nummer": "5", "name": "Nippes", "flaeche": 31571858.897062901, "st_area(shape)": 31562713.885757212, "st_perimeter(shape)": 26587.555446937204 }, "geometry": { "type": "Polygon", "coordinates": [ [ [ 6.940007964973894, 51.022096170970947 ], [ 6.94551472146719, 51.022347541296327 ], [ 6.947528750529757, 51.019377290666547 ], [ 6.947528192437955, 51.017307639271898 ], [ 6.955541441534655, 51.017891154178038 ], [ 6.970625660583319, 51.012647622168977 ], [ 6.962837479289001, 51.001876970654408 ], [ 6.962562006736322, 50.997311461756468 ], [ 6.964540759477892, 50.992873874775846 ], [ 6.967608342952831, 50.989774447146068 ], [ 6.971917312806287, 50.987247215765329 ], [ 6.992950355307577, 50.980092565576406 ], [ 6.996339437803306, 50.977615774614421 ], [ 6.998372094605497, 50.974721288504988 ], [ 6.998539188252831, 50.969222649556322 ], [ 6.993835482197276, 50.962955925915118 ], [ 6.989134778534829, 50.95996848842713 ], [ 6.974349493431472, 50.953914358116904 ], [ 6.972422699839378, 50.955328020762813 ], [ 6.973816154934866, 50.95625909428545 ], [ 6.968094956992566, 50.958564535605788 ], [ 6.963726763103685, 50.959158824927435 ], [ 6.960718128617301, 50.959000601271171 ], [ 6.957956681826901, 50.957464150721869 ], [ 6.946363139884355, 50.954290224806947 ], [ 6.941143564905888, 50.953933203838773 ], [ 6.940485842036802, 50.955961847670267 ], [ 6.939083453634907, 50.956378271865745 ], [ 6.940281665025505, 50.957290563800434 ], [ 6.936872066987238, 50.95754894849243 ], [ 6.93699109616679, 50.958351083168637 ], [ 6.935013502831917, 50.958100514006048 ], [ 6.937135652796459, 50.95946944864918 ], [ 6.932721216877763, 50.962577059268817 ], [ 6.928280815138511, 50.960402948527395 ], [ 6.920988804131353, 50.967570194782716 ], [ 6.920958569344243, 50.970357580871976 ], [ 6.919113462779368, 50.970710401534561 ], [ 6.919777365516454, 50.972510390090129 ], [ 6.918043171503421, 50.972960710993597 ], [ 6.911813018793551, 50.980310698544571 ], [ 6.898506762084603, 50.991745237506208 ], [ 6.896881127527701, 50.994683707895121 ], [ 6.895499225163489, 50.993895710236778 ], [ 6.894033962921963, 50.9955304444399 ], [ 6.894624405910172, 50.997825029599539 ], [ 6.903685480547498, 51.002421019821682 ], [ 6.922398309698839, 51.014888419101446 ], [ 6.940007964973894, 51.022096170970947 ] ] ] } },
{ "type": "Feature", "properties": { "objectid": 7, "nummer": "8", "name": "Kalk", "flaeche": 37777110.947783299, "st_area(shape)": 37764036.61357592, "st_perimeter(shape)": 38036.219308180087 }, "geometry": { "type": "Polygon", "coordinates": [ [ [ 7.059731302847426, 50.959130167935093 ], [ 7.060784638263325, 50.955195355237187 ], [ 7.064091204179026, 50.958071203517598 ], [ 7.069190810378284, 50.95356838770725 ], [ 7.076492038121121, 50.955226306051181 ], [ 7.07608290745215, 50.955975685007871 ], [ 7.080614553605159, 50.957767013472171 ], [ 7.08383544571992, 50.956916347790205 ], [ 7.087175764755164, 50.954134573847945 ], [ 7.09009038471422, 50.956159494261563 ], [ 7.095952413218948, 50.954592781026513 ], [ 7.095352235655045, 50.953324725273632 ], [ 7.098926579970595, 50.952159302208358 ], [ 7.099254351966191, 50.951252490646119 ], [ 7.096013907000827, 50.951849271902887 ], [ 7.097902351664897, 50.949112777395158 ], [ 7.101400005997393, 50.948346065602124 ], [ 7.111149687880068, 50.943354819942577 ], [ 7.111143708209387, 50.94266474386675 ], [ 7.113389320015646, 50.943503255244572 ], [ 7.114783744968862, 50.940838451157205 ], [ 7.117379944024109, 50.941802314428536 ], [ 7.117062514240126, 50.944718734221723 ], [ 7.122595416105456, 50.944936131358354 ], [ 7.124436104441458, 50.944129061927171 ], [ 7.129867048736781, 50.943738939440571 ], [ 7.130358381985981, 50.944195012328358 ], [ 7.131525288584844, 50.943620729564209 ], [ 7.137909931980541, 50.945903908374305 ], [ 7.139389910541818, 50.945700712962037 ], [ 7.1406908098513, 50.946749517907179 ], [ 7.14312278823157, 50.945995494798964 ], [ 7.144668282327935, 50.946409206911817 ], [ 7.145353598010476, 50.9447880985526 ], [ 7.143966880476185, 50.941006853679589 ], [ 7.136673804686819, 50.927605945529741 ], [ 7.13981563950437, 50.922861716570722 ], [ 7.139792155447291, 50.919900058582513 ], [ 7.116883716606196, 50.919700439433598 ], [ 7.109707084045111, 50.920980772953833 ], [ 7.105419369946442, 50.920135045903429 ], [ 7.098445015988962, 50.920082110958845 ], [ 7.098919437055215, 50.913918915339352 ], [ 7.088808205718982, 50.915116420757919 ], [ 7.084808181304913, 50.914253253702604 ], [ 7.084290647596851, 50.907088025149569 ], [ 7.080665572499128, 50.906888724672221 ], [ 7.080816916213524, 50.910448246253637 ], [ 7.074814903357832, 50.910040288384643 ], [ 7.069024544166854, 50.915286655877111 ], [ 7.059952864638365, 50.91729116648655 ], [ 7.062356879410734, 50.918036823787745 ], [ 7.063219408082553, 50.919502619229526 ], [ 7.061969178531418, 50.919521159399572 ], [ 7.061073685138283, 50.921993040857643 ], [ 7.030885563350965, 50.917077851943745 ], [ 7.028125929362937, 50.914932444475895 ], [ 7.024851099134911, 50.915837080903991 ], [ 7.01720123958701, 50.914710746570485 ], [ 7.012726482064847, 50.918699290488711 ], [ 7.012393285354817, 50.923967026921773 ], [ 7.008003582833092, 50.924926574546902 ], [ 6.999422554129247, 50.923677079362342 ], [ 6.986953399260136, 50.929088463360905 ], [ 6.994178347007087, 50.937059814692397 ], [ 6.987958538264953, 50.939684156094835 ], [ 6.99237590932781, 50.941155943861652 ], [ 6.996863836191232, 50.94895537333759 ], [ 7.001361821821877, 50.948082745370932 ], [ 7.001522485640842, 50.947112646661054 ], [ 7.020006928213448, 50.948256603692478 ], [ 7.027672202128653, 50.950742325238295 ], [ 7.039878576467316, 50.952694544617948 ], [ 7.040843422310467, 50.953805239758296 ], [ 7.038795115854295, 50.955534398219505 ], [ 7.048404476524865, 50.957904938239459 ], [ 7.051007368819431, 50.957449596067356 ], [ 7.052094585058009, 50.960334556415596 ], [ 7.056407721476239, 50.961807531725093 ], [ 7.059731302847426, 50.959130167935093 ] ] ] } },
{ "type": "Feature", "properties": { "objectid": 8, "nummer": "9", "name": "Mülheim", "flaeche": 52777123.327519499, "st_area(shape)": 52759685.38166339, "st_perimeter(shape)": 42306.986500536535 }, "geometry": { "type": "Polygon", "coordinates": [ [ [ 7.013728723780714, 51.022274865745231 ], [ 7.011782341824953, 51.021915735642544 ], [ 7.012003391703288, 51.020455979457836 ], [ 7.014207150213501, 51.019567565019138 ], [ 7.015480521364738, 51.017414204157035 ], [ 7.019757716255589, 51.017853435041971 ], [ 7.021683904901598, 51.016004758862394 ], [ 7.025484238260773, 51.017722280166431 ], [ 7.036428580536948, 51.018281682881394 ], [ 7.041411905526298, 51.021115748081577 ], [ 7.043061224308214, 51.019295303896627 ], [ 7.057713187047032, 51.018966698941867 ], [ 7.058651972013297, 51.017729585017214 ], [ 7.06282392026529, 51.019060703293945 ], [ 7.068383956863249, 51.018349993490752 ], [ 7.06888208300763, 51.017099910893883 ], [ 7.061785576935662, 51.013331562313873 ], [ 7.07605819496793, 51.001991772728786 ], [ 7.066768663872709, 50.99359419723816 ], [ 7.069821923363135, 50.991334682356708 ], [ 7.069035980892608, 50.989483638080671 ], [ 7.081397711282578, 50.988645587435713 ], [ 7.084130575708197, 50.987777228060146 ], [ 7.088022222388458, 50.987926831322191 ], [ 7.087933469866224, 50.985654010760548 ], [ 7.089567687783664, 50.986431807708193 ], [ 7.096241037840631, 50.985531905500139 ], [ 7.096947699238257, 50.984299426392802 ], [ 7.095792041308123, 50.982770022509271 ], [ 7.093744108009487, 50.982444302929402 ], [ 7.100062526367178, 50.980981627369367 ], [ 7.096745397575272, 50.978847367196586 ], [ 7.0958243362804, 50.976202311316406 ], [ 7.096179346431089, 50.974839594235213 ], [ 7.097027791968799, 50.975038025551264 ], [ 7.099148261822458, 50.972646701323455 ], [ 7.099699588188799, 50.97295002493555 ], [ 7.101133701380569, 50.967958767592755 ], [ 7.09763825046897, 50.963820526061646 ], [ 7.094834811236922, 50.963251679494128 ], [ 7.092051879820041, 50.961633036214771 ], [ 7.091891394056789, 50.960520578090417 ], [ 7.087333420010401, 50.959317729823525 ], [ 7.087635626004488, 50.95875253098432 ], [ 7.085985308871487, 50.957926318407445 ], [ 7.09009038471422, 50.956159494261563 ], [ 7.087175764755164, 50.954134573847945 ], [ 7.08383544571992, 50.956916347790205 ], [ 7.080614553605159, 50.957767013472171 ], [ 7.07608290745215, 50.955975685007871 ], [ 7.076492038121121, 50.955226306051181 ], [ 7.070143919795325, 50.953585494729509 ], [ 7.065639612800879, 50.956054388281736 ], [ 7.064091204179026, 50.958071203517598 ], [ 7.060784638263325, 50.955195355237187 ], [ 7.059778452184394, 50.959062500962666 ], [ 7.056407721476239, 50.961807531725093 ], [ 7.052094585058009, 50.960334556415596 ], [ 7.051007368819431, 50.957449596067356 ], [ 7.048404476524865, 50.957904938239459 ], [ 7.038795115854295, 50.955534398219505 ], [ 7.040843422310467, 50.953805239758296 ], [ 7.039878576467316, 50.952694544617948 ], [ 7.027672202128653, 50.950742325238295 ], [ 7.020006928213448, 50.948256603692478 ], [ 7.001522485640842, 50.947112646661054 ], [ 7.001361821821877, 50.948082745370932 ], [ 6.994264251744506, 50.949695789427295 ], [ 6.989515155495548, 50.946526716016649 ], [ 6.988093057130174, 50.946465423798045 ], [ 6.985904909432789, 50.947668971793966 ], [ 6.983588697289281, 50.944928175952185 ], [ 6.978161426252942, 50.946926500329916 ], [ 6.98264032272186, 50.949723900380143 ], [ 6.975554571672341, 50.954652545873714 ], [ 6.988813014892035, 50.959821286525589 ], [ 6.993429298162825, 50.962615477966381 ], [ 6.998208030973611, 50.968465622741043 ], [ 6.998781621854647, 50.973553608282451 ], [ 6.996705313504658, 50.977232041496222 ], [ 6.992813023917384, 50.980166021766152 ], [ 6.972957514309583, 50.986810600362425 ], [ 6.967027058096827, 50.990239474856722 ], [ 6.962790682971224, 50.996347451895112 ], [ 6.963386346091976, 51.00328469961206 ], [ 6.971867861034876, 51.014165741445332 ], [ 6.975553158967644, 51.013012707430406 ], [ 6.97551451137352, 51.011124594820046 ], [ 6.981821040699218, 51.012347173898561 ], [ 6.985070571970166, 51.011471859092516 ], [ 6.988205834256946, 51.012400542779659 ], [ 6.996362099889645, 51.011804756233886 ], [ 6.995711931255922, 51.013986462458874 ], [ 6.997058690272182, 51.01409262030888 ], [ 6.996606514162131, 51.015945024786035 ], [ 6.995355274534965, 51.0164182874678 ], [ 7.002701844472008, 51.019474256323157 ], [ 7.008521121715866, 51.020632789813071 ], [ 7.009259920057412, 51.022612606176651 ], [ 7.013728723780714, 51.022274865745231 ] ] ] } },
{ "type": "Feature", "properties": { "objectid": 9, "nummer": "6", "name": "Chorweiler", "flaeche": 67368706.490678802, "st_area(shape)": 67351552.934691772, "st_perimeter(shape)": 51797.838070331971 }, "geometry": { "type": "Polygon", "coordinates": [ [ [ 6.848660576720854, 51.084453893170902 ], [ 6.853257308197641, 51.084176583356658 ], [ 6.854081692195796, 51.078542161638239 ], [ 6.859704060944303, 51.07401919558761 ], [ 6.864454804985773, 51.072539899482422 ], [ 6.883672044305244, 51.069418287283817 ], [ 6.894530244881309, 51.066170669697442 ], [ 6.962482694826561, 51.032985877858117 ], [ 6.969594774557956, 51.027722370420349 ], [ 6.973331462862137, 51.022830257313593 ], [ 6.973658982105929, 51.017647230647952 ], [ 6.970625660583319, 51.012647622168977 ], [ 6.955541441534655, 51.017891154178038 ], [ 6.947528192437955, 51.017307639271898 ], [ 6.947528750529757, 51.019377290666547 ], [ 6.945469483975645, 51.022386029975458 ], [ 6.940539963255209, 51.022226031127445 ], [ 6.922398309698839, 51.014888419101446 ], [ 6.903685480547498, 51.002421019821682 ], [ 6.894624405910172, 50.997825029599539 ], [ 6.893921088756975, 50.995859758099989 ], [ 6.892198807488102, 50.995087202572797 ], [ 6.888453336520191, 50.995619596134567 ], [ 6.885319317412836, 50.995084122254504 ], [ 6.886290159694328, 50.993885541779193 ], [ 6.889092154122903, 50.9948526619578 ], [ 6.891773193139064, 50.992021503029761 ], [ 6.888889715537338, 50.990954518206628 ], [ 6.884549256847168, 50.989836379792628 ], [ 6.883277729586043, 50.991235696931199 ], [ 6.880766813929307, 50.991991125855336 ], [ 6.869143927183216, 50.988631989301332 ], [ 6.86359568093502, 50.993630509852409 ], [ 6.850789913641788, 50.9858026142632 ], [ 6.839695401974629, 50.990783631208934 ], [ 6.839169474594341, 50.993490093098337 ], [ 6.835330770548014, 50.999764869875591 ], [ 6.842012130869668, 51.004346173919828 ], [ 6.844783652975762, 51.004067009865409 ], [ 6.837321797337941, 51.011151330158363 ], [ 6.84150997888702, 51.012143181142022 ], [ 6.835633805740651, 51.017612297756251 ], [ 6.833870015337218, 51.017869317868382 ], [ 6.841531091963184, 51.024711244302942 ], [ 6.835599523616546, 51.027144731156795 ], [ 6.83996190342597, 51.028848348608875 ], [ 6.829896685011798, 51.03340246374426 ], [ 6.827803416069761, 51.033689555237551 ], [ 6.824176078483977, 51.037389287664496 ], [ 6.822603890130489, 51.03642933331458 ], [ 6.820543510499458, 51.03853162347734 ], [ 6.81398192414488, 51.035351970259377 ], [ 6.812797619111867, 51.036776150223687 ], [ 6.808443147307948, 51.035234166661333 ], [ 6.805381694009643, 51.03949251774219 ], [ 6.798198454494792, 51.036731904994447 ], [ 6.791190918033893, 51.044733417098577 ], [ 6.788238146841654, 51.049916633840148 ], [ 6.779063018799397, 51.055771636760475 ], [ 6.77668051390611, 51.056348469362725 ], [ 6.772924647347151, 51.059935813513341 ], [ 6.772530289962422, 51.06161538506278 ], [ 6.773834433493854, 51.064092029877116 ], [ 6.786814994729042, 51.068742556950767 ], [ 6.79128733207242, 51.067405796242547 ], [ 6.792099107610124, 51.064495492573229 ], [ 6.795294731907334, 51.063136210757392 ], [ 6.798823814098927, 51.059484230043999 ], [ 6.80071660998373, 51.059581977292609 ], [ 6.800808216614147, 51.056006310978269 ], [ 6.806269240405871, 51.046939442059006 ], [ 6.813803589672022, 51.045891196078173 ], [ 6.81317779547371, 51.049108732565635 ], [ 6.814862271582424, 51.051864299208411 ], [ 6.81627317047804, 51.051812811608031 ], [ 6.816461150956561, 51.053831301455375 ], [ 6.826175872070077, 51.056408861740024 ], [ 6.833726554940091, 51.059790059637088 ], [ 6.831411065421382, 51.065924023809721 ], [ 6.824534514321924, 51.074401368293621 ], [ 6.837899993521416, 51.077737190456837 ], [ 6.836609912932689, 51.080073743173209 ], [ 6.844183641371218, 51.081731312286919 ], [ 6.843060575760252, 51.083767593770162 ], [ 6.848571639508788, 51.08497432222056 ], [ 6.848660576720854, 51.084453893170902 ] ] ] } },
{ "type": "Feature", "properties": { "objectid": 10, "nummer": "7", "name": "Porz", "flaeche": 78736250.656240508, "st_area(shape)": 78708861.118635729, "st_perimeter(shape)": 57018.881371979398 }, "geometry": { "type": "Polygon", "coordinates": [ [ [ 6.987122881662787, 50.929016567051924 ], [ 6.999422554129247, 50.923677079362342 ], [ 7.008003582833092, 50.924926574546902 ], [ 7.012393285354817, 50.923967026921773 ], [ 7.012726482064847, 50.918699290488711 ], [ 7.01720123958701, 50.914710746570485 ], [ 7.024851099134911, 50.915837080903991 ], [ 7.028125929362937, 50.914932444475895 ], [ 7.030885563350965, 50.917077851943745 ], [ 7.061073685138283, 50.921993040857643 ], [ 7.061969178531418, 50.919521159399572 ], [ 7.063219408082553, 50.919502619229526 ], [ 7.062356879410734, 50.918036823787745 ], [ 7.059952864638365, 50.91729116648655 ], [ 7.069024544166854, 50.915286655877111 ], [ 7.074814903357832, 50.910040288384643 ], [ 7.080816916213524, 50.910448246253637 ], [ 7.080665572499128, 50.906888724672221 ], [ 7.081932558071512, 50.906812772049385 ], [ 7.084290647596851, 50.907088025149569 ], [ 7.084808181304913, 50.914253253702604 ], [ 7.088808205718982, 50.915116420757919 ], [ 7.098919437055215, 50.913918915339352 ], [ 7.098445015988962, 50.920082110958845 ], [ 7.105419369946442, 50.920135045903429 ], [ 7.109707084045111, 50.920980772953833 ], [ 7.116883716606196, 50.919700439433598 ], [ 7.139792155447291, 50.919900058582513 ], [ 7.13819228750108, 50.918172540757858 ], [ 7.138834146345862, 50.914042420350746 ], [ 7.13673116153871, 50.905898962148783 ], [ 7.134870658983264, 50.905906254822575 ], [ 7.133527084022186, 50.903484766057574 ], [ 7.137022070557552, 50.902547142778097 ], [ 7.139804571247591, 50.896895467892108 ], [ 7.139337170560902, 50.89331158407078 ], [ 7.14101233957094, 50.887606187868798 ], [ 7.137372326148768, 50.88318368502128 ], [ 7.137586980649501, 50.881260266942981 ], [ 7.142031560941126, 50.878288008020348 ], [ 7.152103853897901, 50.873683219707821 ], [ 7.158812223297825, 50.873853097646681 ], [ 7.16192076056726, 50.870407374971862 ], [ 7.161683008301615, 50.869107178383437 ], [ 7.159602319601968, 50.867031383419082 ], [ 7.137816559506238, 50.858160087343137 ], [ 7.113491198972785, 50.845660321638604 ], [ 7.112708350414919, 50.842796297985217 ], [ 7.111362478208815, 50.842108891296199 ], [ 7.105452934666405, 50.840861404553202 ], [ 7.097964621237855, 50.837692750197427 ], [ 7.095131161274645, 50.83496444432506 ], [ 7.086108521614175, 50.831708335136135 ], [ 7.079310871707924, 50.830768055277446 ], [ 7.066484418387078, 50.8310739907581 ], [ 7.062523262853868, 50.830440162951355 ], [ 7.061379476678256, 50.844091657528516 ], [ 7.057903837705301, 50.849282457100621 ], [ 7.051195163939484, 50.849343949440318 ], [ 7.051123573046684, 50.850094849727903 ], [ 7.043861303740573, 50.849163344431609 ], [ 7.034492264189357, 50.849054898648696 ], [ 7.034354519242461, 50.846550069654505 ], [ 7.027236822759495, 50.846947311426192 ], [ 7.027127826485374, 50.843798630905425 ], [ 7.023265180667055, 50.839215338927488 ], [ 7.017024435911802, 50.839611123535121 ], [ 7.015548427107185, 50.837761884597278 ], [ 7.013672908688344, 50.837879216536543 ], [ 7.011836890172835, 50.839939681485859 ], [ 7.00628443205513, 50.837237375677994 ], [ 7.002737215606159, 50.837593965177142 ], [ 7.002421192752884, 50.836540302182847 ], [ 7.002559217735475, 50.837289326523461 ], [ 6.998933209103519, 50.837693063067086 ], [ 6.995212439660488, 50.836247413508879 ], [ 6.987196499754075, 50.839164078137294 ], [ 6.984995861754127, 50.841384095740018 ], [ 6.986226800671365, 50.842506380764753 ], [ 6.983946351651396, 50.843944720095912 ], [ 7.006801793727459, 50.854064064410053 ], [ 7.026184114579423, 50.868457497089004 ], [ 7.046214986663574, 50.875569773197874 ], [ 7.050345383772338, 50.879433851576422 ], [ 7.051501190859586, 50.884004511076569 ], [ 7.048487045515792, 50.889511219871508 ], [ 7.041273070794748, 50.893238527776994 ], [ 7.03375341524635, 50.894362762103057 ], [ 7.0141207589347, 50.894312723505791 ], [ 7.003376545068675, 50.895191326569211 ], [ 6.994316071561989, 50.897542356229486 ], [ 6.986551267023004, 50.901659392077093 ], [ 6.980534689898255, 50.907009890042396 ], [ 6.973344747682797, 50.917218011788208 ], [ 6.98284685583517, 50.920141183183496 ], [ 6.984029006251105, 50.925760194377844 ], [ 6.987122881662787, 50.929016567051924 ] ] ] } }
]
}
