{
"type": "FeatureCollection",
"features": [{
        "type": "Feature",
        "properties": {
            "code": "75101",
            "nom": "Paris 1er Arrondissement",
            "departement": "75",
            "region": "11",
            "commune": "75056"
        },
        "geometry": {
            "type": "Polygon",
            "coordinates": [
                [
                    [
                        2.32589,
                        48.86958
                    ],
                    [
                        2.328,
                        48.86992
                    ],
                    [
                        2.33043,
                        48.86826
                    ],
                    [
                        2.35096,
                        48.8634
                    ],
                    [
                        2.35016,
                        48.86199
                    ],
                    [
                        2.34757,
                        48.85736
                    ],
                    [
                        2.34463,
                        48.85409
                    ],
                    [
                        2.34293,
                        48.85483
                    ],
                    [
                        2.34057,
                        48.85668
                    ],
                    [
                        2.33767,
                        48.85831
                    ],
                    [
                        2.33292,
                        48.85934
                    ],
                    [
                        2.32093,
                        48.86302
                    ],
                    [
                        2.32589,
                        48.86958
                    ]
                ]
            ]
        }
    },
    {
        "type": "Feature",
        "properties": {
            "code": "75102",
            "nom": "Paris 2e Arrondissement",
            "departement": "75",
            "region": "11",
            "commune": "75056"
        },
        "geometry": {
            "type": "Polygon",
            "coordinates": [
                [
                    [
                        2.34792,
                        48.87069
                    ],
                    [
                        2.35425,
                        48.86932
                    ],
                    [
                        2.35096,
                        48.8634
                    ],
                    [
                        2.33043,
                        48.86826
                    ],
                    [
                        2.328,
                        48.86992
                    ],
                    [
                        2.34004,
                        48.87197
                    ],
                    [
                        2.34792,
                        48.87069
                    ]
                ]
            ]
        }
    },
    {
        "type": "Feature",
        "properties": {
            "code": "75103",
            "nom": "Paris 3e Arrondissement",
            "departement": "75",
            "region": "11",
            "commune": "75056"
        },
        "geometry": {
            "type": "Polygon",
            "coordinates": [
                [
                    [
                        2.35016,
                        48.86199
                    ],
                    [
                        2.35096,
                        48.8634
                    ],
                    [
                        2.35425,
                        48.86932
                    ],
                    [
                        2.3565,
                        48.86883
                    ],
                    [
                        2.36329,
                        48.86782
                    ],
                    [
                        2.36387,
                        48.86752
                    ],
                    [
                        2.36431,
                        48.86731
                    ],
                    [
                        2.36675,
                        48.86308
                    ],
                    [
                        2.36849,
                        48.85581
                    ],
                    [
                        2.36494,
                        48.85631
                    ],
                    [
                        2.36177,
                        48.85724
                    ],
                    [
                        2.35937,
                        48.85833
                    ],
                    [
                        2.35674,
                        48.86015
                    ],
                    [
                        2.3535,
                        48.86121
                    ],
                    [
                        2.35016,
                        48.86199
                    ]
                ]
            ]
        }
    },
    {
        "type": "Feature",
        "properties": {
            "code": "75104",
            "nom": "Paris 4e Arrondissement",
            "departement": "75",
            "region": "11",
            "commune": "75056"
        },
        "geometry": {
            "type": "Polygon",
            "coordinates": [
                [
                    [
                        2.36912,
                        48.85317
                    ],
                    [
                        2.36644,
                        48.84731
                    ],
                    [
                        2.36446,
                        48.84619
                    ],
                    [
                        2.36106,
                        48.84856
                    ],
                    [
                        2.35861,
                        48.8497
                    ],
                    [
                        2.3546,
                        48.85099
                    ],
                    [
                        2.34902,
                        48.85236
                    ],
                    [
                        2.34463,
                        48.85409
                    ],
                    [
                        2.34757,
                        48.85736
                    ],
                    [
                        2.35016,
                        48.86199
                    ],
                    [
                        2.3535,
                        48.86121
                    ],
                    [
                        2.35674,
                        48.86015
                    ],
                    [
                        2.35937,
                        48.85833
                    ],
                    [
                        2.36177,
                        48.85724
                    ],
                    [
                        2.36494,
                        48.85631
                    ],
                    [
                        2.36849,
                        48.85581
                    ],
                    [
                        2.36912,
                        48.85317
                    ]
                ]
            ]
        }
    },
    {
        "type": "Feature",
        "properties": {
            "code": "75105",
            "nom": "Paris 5e Arrondissement",
            "departement": "75",
            "region": "11",
            "commune": "75056"
        },
        "geometry": {
            "type": "Polygon",
            "coordinates": [
                [
                    [
                        2.34209,
                        48.83834
                    ],
                    [
                        2.33666,
                        48.83967
                    ],
                    [
                        2.34048,
                        48.84671
                    ],
                    [
                        2.34463,
                        48.85409
                    ],
                    [
                        2.34902,
                        48.85236
                    ],
                    [
                        2.3546,
                        48.85099
                    ],
                    [
                        2.35861,
                        48.8497
                    ],
                    [
                        2.36106,
                        48.84856
                    ],
                    [
                        2.36446,
                        48.84619
                    ],
                    [
                        2.36609,
                        48.84497
                    ],
                    [
                        2.36513,
                        48.84441
                    ],
                    [
                        2.36175,
                        48.83994
                    ],
                    [
                        2.35187,
                        48.8368
                    ],
                    [
                        2.34701,
                        48.83732
                    ],
                    [
                        2.34209,
                        48.83834
                    ]
                ]
            ]
        }
    },
    {
        "type": "Feature",
        "properties": {
            "code": "75106",
            "nom": "Paris 6e Arrondissement",
            "departement": "75",
            "region": "11",
            "commune": "75056"
        },
        "geometry": {
            "type": "Polygon",
            "coordinates": [
                [
                    [
                        2.33292,
                        48.85934
                    ],
                    [
                        2.33767,
                        48.85831
                    ],
                    [
                        2.34057,
                        48.85668
                    ],
                    [
                        2.34293,
                        48.85483
                    ],
                    [
                        2.34463,
                        48.85409
                    ],
                    [
                        2.34048,
                        48.84671
                    ],
                    [
                        2.33666,
                        48.83967
                    ],
                    [
                        2.32464,
                        48.84362
                    ],
                    [
                        2.31989,
                        48.84517
                    ],
                    [
                        2.31671,
                        48.84686
                    ],
                    [
                        2.31942,
                        48.84786
                    ],
                    [
                        2.32416,
                        48.85024
                    ],
                    [
                        2.32866,
                        48.85187
                    ],
                    [
                        2.33073,
                        48.85506
                    ],
                    [
                        2.33327,
                        48.85829
                    ],
                    [
                        2.33292,
                        48.85934
                    ]
                ]
            ]
        }
    },
    {
        "type": "Feature",
        "properties": {
            "code": "75107",
            "nom": "Paris 7e Arrondissement",
            "departement": "75",
            "region": "11",
            "commune": "75056"
        },
        "geometry": {
            "type": "Polygon",
            "coordinates": [
                [
                    [
                        2.30174,
                        48.8635
                    ],
                    [
                        2.31868,
                        48.86372
                    ],
                    [
                        2.32093,
                        48.86302
                    ],
                    [
                        2.33292,
                        48.85934
                    ],
                    [
                        2.33327,
                        48.85829
                    ],
                    [
                        2.33073,
                        48.85506
                    ],
                    [
                        2.32866,
                        48.85187
                    ],
                    [
                        2.32416,
                        48.85024
                    ],
                    [
                        2.31942,
                        48.84786
                    ],
                    [
                        2.31671,
                        48.84686
                    ],
                    [
                        2.31372,
                        48.84594
                    ],
                    [
                        2.31049,
                        48.84798
                    ],
                    [
                        2.30735,
                        48.84713
                    ],
                    [
                        2.30055,
                        48.85138
                    ],
                    [
                        2.29094,
                        48.85754
                    ],
                    [
                        2.2897,
                        48.85818
                    ],
                    [
                        2.2922,
                        48.86025
                    ],
                    [
                        2.29486,
                        48.86188
                    ],
                    [
                        2.29922,
                        48.86328
                    ],
                    [
                        2.30174,
                        48.8635
                    ]
                ]
            ]
        }
    },
    {
        "type": "Feature",
        "properties": {
            "code": "75108",
            "nom": "Paris 8e Arrondissement",
            "departement": "75",
            "region": "11",
            "commune": "75056"
        },
        "geometry": {
            "type": "Polygon",
            "coordinates": [
                [
                    [
                        2.30174,
                        48.8635
                    ],
                    [
                        2.30164,
                        48.86449
                    ],
                    [
                        2.29984,
                        48.86554
                    ],
                    [
                        2.29887,
                        48.86864
                    ],
                    [
                        2.2975,
                        48.87094
                    ],
                    [
                        2.29503,
                        48.87377
                    ],
                    [
                        2.29815,
                        48.87808
                    ],
                    [
                        2.30861,
                        48.88034
                    ],
                    [
                        2.31557,
                        48.8812
                    ],
                    [
                        2.32716,
                        48.88346
                    ],
                    [
                        2.32685,
                        48.87587
                    ],
                    [
                        2.32703,
                        48.87378
                    ],
                    [
                        2.32589,
                        48.86958
                    ],
                    [
                        2.32093,
                        48.86302
                    ],
                    [
                        2.31868,
                        48.86372
                    ],
                    [
                        2.30174,
                        48.8635
                    ]
                ]
            ]
        }
    },
    {
        "type": "Feature",
        "properties": {
            "code": "75109",
            "nom": "Paris 9e Arrondissement",
            "departement": "75",
            "region": "11",
            "commune": "75056"
        },
        "geometry": {
            "type": "Polygon",
            "coordinates": [
                [
                    [
                        2.32716,
                        48.88346
                    ],
                    [
                        2.32742,
                        48.88351
                    ],
                    [
                        2.32954,
                        48.88459
                    ],
                    [
                        2.3374,
                        48.88239
                    ],
                    [
                        2.3398,
                        48.88202
                    ],
                    [
                        2.34691,
                        48.88341
                    ],
                    [
                        2.34946,
                        48.88372
                    ],
                    [
                        2.34985,
                        48.88064
                    ],
                    [
                        2.34913,
                        48.87753
                    ],
                    [
                        2.34835,
                        48.87608
                    ],
                    [
                        2.3479,
                        48.87402
                    ],
                    [
                        2.34792,
                        48.87069
                    ],
                    [
                        2.34004,
                        48.87197
                    ],
                    [
                        2.328,
                        48.86992
                    ],
                    [
                        2.32589,
                        48.86958
                    ],
                    [
                        2.32703,
                        48.87378
                    ],
                    [
                        2.32685,
                        48.87587
                    ],
                    [
                        2.32716,
                        48.88346
                    ]
                ]
            ]
        }
    },
    {
        "type": "Feature",
        "properties": {
            "code": "75110",
            "nom": "Paris 10e Arrondissement",
            "departement": "75",
            "region": "11",
            "commune": "75056"
        },
        "geometry": {
            "type": "Polygon",
            "coordinates": [
                [
                    [
                        2.36387,
                        48.86752
                    ],
                    [
                        2.36329,
                        48.86782
                    ],
                    [
                        2.3565,
                        48.86883
                    ],
                    [
                        2.35425,
                        48.86932
                    ],
                    [
                        2.34792,
                        48.87069
                    ],
                    [
                        2.3479,
                        48.87402
                    ],
                    [
                        2.34835,
                        48.87608
                    ],
                    [
                        2.34913,
                        48.87753
                    ],
                    [
                        2.34985,
                        48.88064
                    ],
                    [
                        2.34946,
                        48.88372
                    ],
                    [
                        2.35901,
                        48.88441
                    ],
                    [
                        2.36471,
                        48.88437
                    ],
                    [
                        2.36798,
                        48.88416
                    ],
                    [
                        2.37017,
                        48.88268
                    ],
                    [
                        2.37029,
                        48.87799
                    ],
                    [
                        2.3769,
                        48.87205
                    ],
                    [
                        2.3729,
                        48.87057
                    ],
                    [
                        2.36562,
                        48.86824
                    ],
                    [
                        2.36387,
                        48.86752
                    ]
                ]
            ]
        }
    },
    {
        "type": "Feature",
        "properties": {
            "code": "75111",
            "nom": "Paris 11e Arrondissement",
            "departement": "75",
            "region": "11",
            "commune": "75056"
        },
        "geometry": {
            "type": "Polygon",
            "coordinates": [
                [
                    [
                        2.36912,
                        48.85317
                    ],
                    [
                        2.36849,
                        48.85581
                    ],
                    [
                        2.36675,
                        48.86308
                    ],
                    [
                        2.36431,
                        48.86731
                    ],
                    [
                        2.36387,
                        48.86752
                    ],
                    [
                        2.36562,
                        48.86824
                    ],
                    [
                        2.3729,
                        48.87057
                    ],
                    [
                        2.3769,
                        48.87205
                    ],
                    [
                        2.37829,
                        48.87077
                    ],
                    [
                        2.38297,
                        48.86718
                    ],
                    [
                        2.38358,
                        48.86627
                    ],
                    [
                        2.38744,
                        48.86281
                    ],
                    [
                        2.38954,
                        48.85849
                    ],
                    [
                        2.39217,
                        48.85767
                    ],
                    [
                        2.39435,
                        48.85652
                    ],
                    [
                        2.39838,
                        48.85132
                    ],
                    [
                        2.39921,
                        48.84895
                    ],
                    [
                        2.39912,
                        48.8481
                    ],
                    [
                        2.39596,
                        48.84838
                    ],
                    [
                        2.38446,
                        48.85013
                    ],
                    [
                        2.3788,
                        48.85064
                    ],
                    [
                        2.37232,
                        48.85229
                    ],
                    [
                        2.37023,
                        48.85328
                    ],
                    [
                        2.36912,
                        48.85317
                    ]
                ]
            ]
        }
    },
    {
        "type": "Feature",
        "properties": {
            "code": "75112",
            "nom": "Paris 12e Arrondissement",
            "departement": "75",
            "region": "11",
            "commune": "75056"
        },
        "geometry": {
            "type": "Polygon",
            "coordinates": [
                [
                    [
                        2.46732,
                        48.8391
                    ],
                    [
                        2.46985,
                        48.8364
                    ],
                    [
                        2.46948,
                        48.83455
                    ],
                    [
                        2.46849,
                        48.83351
                    ],
                    [
                        2.46582,
                        48.83187
                    ],
                    [
                        2.4647,
                        48.82928
                    ],
                    [
                        2.46466,
                        48.82762
                    ],
                    [
                        2.46618,
                        48.82733
                    ],
                    [
                        2.46573,
                        48.82623
                    ],
                    [
                        2.46504,
                        48.82408
                    ],
                    [
                        2.46287,
                        48.82018
                    ],
                    [
                        2.4627,
                        48.81906
                    ],
                    [
                        2.46121,
                        48.81836
                    ],
                    [
                        2.45912,
                        48.817
                    ],
                    [
                        2.45345,
                        48.81715
                    ],
                    [
                        2.45056,
                        48.81777
                    ],
                    [
                        2.44779,
                        48.81797
                    ],
                    [
                        2.44186,
                        48.81794
                    ],
                    [
                        2.44014,
                        48.81826
                    ],
                    [
                        2.43733,
                        48.81818
                    ],
                    [
                        2.43744,
                        48.81911
                    ],
                    [
                        2.4349,
                        48.81967
                    ],
                    [
                        2.43037,
                        48.82288
                    ],
                    [
                        2.42796,
                        48.8239
                    ],
                    [
                        2.42548,
                        48.82418
                    ],
                    [
                        2.41996,
                        48.82408
                    ],
                    [
                        2.41651,
                        48.82474
                    ],
                    [
                        2.41262,
                        48.82474
                    ],
                    [
                        2.40918,
                        48.8255
                    ],
                    [
                        2.40499,
                        48.8284
                    ],
                    [
                        2.40224,
                        48.82959
                    ],
                    [
                        2.39921,
                        48.82863
                    ],
                    [
                        2.39434,
                        48.82754
                    ],
                    [
                        2.39007,
                        48.82569
                    ],
                    [
                        2.38851,
                        48.82674
                    ],
                    [
                        2.3843,
                        48.83031
                    ],
                    [
                        2.37836,
                        48.83502
                    ],
                    [
                        2.37355,
                        48.83933
                    ],
                    [
                        2.36609,
                        48.84497
                    ],
                    [
                        2.36446,
                        48.84619
                    ],
                    [
                        2.36644,
                        48.84731
                    ],
                    [
                        2.36912,
                        48.85317
                    ],
                    [
                        2.37023,
                        48.85328
                    ],
                    [
                        2.37232,
                        48.85229
                    ],
                    [
                        2.3788,
                        48.85064
                    ],
                    [
                        2.38446,
                        48.85013
                    ],
                    [
                        2.39596,
                        48.84838
                    ],
                    [
                        2.39912,
                        48.8481
                    ],
                    [
                        2.41597,
                        48.84662
                    ],
                    [
                        2.41566,
                        48.845
                    ],
                    [
                        2.41358,
                        48.83828
                    ],
                    [
                        2.41225,
                        48.83454
                    ],
                    [
                        2.41392,
                        48.83371
                    ],
                    [
                        2.41734,
                        48.83419
                    ],
                    [
                        2.42214,
                        48.8358
                    ],
                    [
                        2.42093,
                        48.83933
                    ],
                    [
                        2.41954,
                        48.84145
                    ],
                    [
                        2.41986,
                        48.84346
                    ],
                    [
                        2.42185,
                        48.84444
                    ],
                    [
                        2.42395,
                        48.8422
                    ],
                    [
                        2.42758,
                        48.84157
                    ],
                    [
                        2.43354,
                        48.84105
                    ],
                    [
                        2.43718,
                        48.84089
                    ],
                    [
                        2.43796,
                        48.84466
                    ],
                    [
                        2.44052,
                        48.84444
                    ],
                    [
                        2.44076,
                        48.84596
                    ],
                    [
                        2.44665,
                        48.8458
                    ],
                    [
                        2.44785,
                        48.84486
                    ],
                    [
                        2.45861,
                        48.84343
                    ],
                    [
                        2.46285,
                        48.84239
                    ],
                    [
                        2.4649,
                        48.84141
                    ],
                    [
                        2.46732,
                        48.8391
                    ]
                ]
            ]
        }
    },
    {
        "type": "Feature",
        "properties": {
            "code": "75113",
            "nom": "Paris 13e Arrondissement",
            "departement": "75",
            "region": "11",
            "commune": "75056"
        },
        "geometry": {
            "type": "Polygon",
            "coordinates": [
                [
                    [
                        2.36609,
                        48.84497
                    ],
                    [
                        2.37355,
                        48.83933
                    ],
                    [
                        2.37836,
                        48.83502
                    ],
                    [
                        2.3843,
                        48.83031
                    ],
                    [
                        2.38851,
                        48.82674
                    ],
                    [
                        2.39007,
                        48.82569
                    ],
                    [
                        2.38523,
                        48.82373
                    ],
                    [
                        2.38152,
                        48.82241
                    ],
                    [
                        2.38077,
                        48.8217
                    ],
                    [
                        2.3642,
                        48.8164
                    ],
                    [
                        2.36333,
                        48.81615
                    ],
                    [
                        2.35623,
                        48.81594
                    ],
                    [
                        2.35585,
                        48.81592
                    ],
                    [
                        2.35239,
                        48.81855
                    ],
                    [
                        2.34718,
                        48.8161
                    ],
                    [
                        2.3439,
                        48.81577
                    ],
                    [
                        2.34459,
                        48.81956
                    ],
                    [
                        2.34249,
                        48.82147
                    ],
                    [
                        2.34146,
                        48.82385
                    ],
                    [
                        2.34171,
                        48.82619
                    ],
                    [
                        2.34107,
                        48.83197
                    ],
                    [
                        2.34209,
                        48.83834
                    ],
                    [
                        2.34701,
                        48.83732
                    ],
                    [
                        2.35187,
                        48.8368
                    ],
                    [
                        2.36175,
                        48.83994
                    ],
                    [
                        2.36513,
                        48.84441
                    ],
                    [
                        2.36609,
                        48.84497
                    ]
                ]
            ]
        }
    },
    {
        "type": "Feature",
        "properties": {
            "code": "75114",
            "nom": "Paris 14e Arrondissement",
            "departement": "75",
            "region": "11",
            "commune": "75056"
        },
        "geometry": {
            "type": "Polygon",
            "coordinates": [
                [
                    [
                        2.33666,
                        48.83967
                    ],
                    [
                        2.34209,
                        48.83834
                    ],
                    [
                        2.34107,
                        48.83197
                    ],
                    [
                        2.34171,
                        48.82619
                    ],
                    [
                        2.34146,
                        48.82385
                    ],
                    [
                        2.34249,
                        48.82147
                    ],
                    [
                        2.34459,
                        48.81956
                    ],
                    [
                        2.3439,
                        48.81577
                    ],
                    [
                        2.34168,
                        48.81633
                    ],
                    [
                        2.33371,
                        48.81677
                    ],
                    [
                        2.3319,
                        48.81701
                    ],
                    [
                        2.33246,
                        48.81825
                    ],
                    [
                        2.31415,
                        48.82229
                    ],
                    [
                        2.30132,
                        48.82513
                    ],
                    [
                        2.30693,
                        48.82982
                    ],
                    [
                        2.30714,
                        48.83018
                    ],
                    [
                        2.31483,
                        48.8363
                    ],
                    [
                        2.31988,
                        48.84054
                    ],
                    [
                        2.32153,
                        48.84108
                    ],
                    [
                        2.32464,
                        48.84362
                    ],
                    [
                        2.33666,
                        48.83967
                    ]
                ]
            ]
        }
    },
    {
        "type": "Feature",
        "properties": {
            "code": "75115",
            "nom": "Paris 15e Arrondissement",
            "departement": "75",
            "region": "11",
            "commune": "75056"
        },
        "geometry": {
            "type": "Polygon",
            "coordinates": [
                [
                    [
                        2.28941,
                        48.82833
                    ],
                    [
                        2.28359,
                        48.8308
                    ],
                    [
                        2.27905,
                        48.83249
                    ],
                    [
                        2.27528,
                        48.82945
                    ],
                    [
                        2.27279,
                        48.82792
                    ],
                    [
                        2.26763,
                        48.82797
                    ],
                    [
                        2.26734,
                        48.83153
                    ],
                    [
                        2.26993,
                        48.83301
                    ],
                    [
                        2.26748,
                        48.83459
                    ],
                    [
                        2.26279,
                        48.83392
                    ],
                    [
                        2.26603,
                        48.83684
                    ],
                    [
                        2.27546,
                        48.8467
                    ],
                    [
                        2.27802,
                        48.84889
                    ],
                    [
                        2.28731,
                        48.85539
                    ],
                    [
                        2.2897,
                        48.85818
                    ],
                    [
                        2.29094,
                        48.85754
                    ],
                    [
                        2.30055,
                        48.85138
                    ],
                    [
                        2.30735,
                        48.84713
                    ],
                    [
                        2.31049,
                        48.84798
                    ],
                    [
                        2.31372,
                        48.84594
                    ],
                    [
                        2.31671,
                        48.84686
                    ],
                    [
                        2.31989,
                        48.84517
                    ],
                    [
                        2.32464,
                        48.84362
                    ],
                    [
                        2.32153,
                        48.84108
                    ],
                    [
                        2.31988,
                        48.84054
                    ],
                    [
                        2.31483,
                        48.8363
                    ],
                    [
                        2.30714,
                        48.83018
                    ],
                    [
                        2.30693,
                        48.82982
                    ],
                    [
                        2.30132,
                        48.82513
                    ],
                    [
                        2.29219,
                        48.82714
                    ],
                    [
                        2.28941,
                        48.82833
                    ]
                ]
            ]
        }
    },
    {
        "type": "Feature",
        "properties": {
            "code": "75116",
            "nom": "Paris 16e Arrondissement",
            "departement": "75",
            "region": "11",
            "commune": "75056"
        },
        "geometry": {
            "type": "Polygon",
            "coordinates": [
                [
                    [
                        2.2457,
                        48.87646
                    ],
                    [
                        2.24653,
                        48.87614
                    ],
                    [
                        2.25482,
                        48.87408
                    ],
                    [
                        2.25541,
                        48.87426
                    ],
                    [
                        2.25847,
                        48.88039
                    ],
                    [
                        2.27749,
                        48.87797
                    ],
                    [
                        2.27995,
                        48.87857
                    ],
                    [
                        2.29503,
                        48.87377
                    ],
                    [
                        2.2975,
                        48.87094
                    ],
                    [
                        2.29887,
                        48.86864
                    ],
                    [
                        2.29984,
                        48.86554
                    ],
                    [
                        2.30164,
                        48.86449
                    ],
                    [
                        2.30174,
                        48.8635
                    ],
                    [
                        2.29922,
                        48.86328
                    ],
                    [
                        2.29486,
                        48.86188
                    ],
                    [
                        2.2922,
                        48.86025
                    ],
                    [
                        2.2897,
                        48.85818
                    ],
                    [
                        2.28731,
                        48.85539
                    ],
                    [
                        2.27802,
                        48.84889
                    ],
                    [
                        2.27546,
                        48.8467
                    ],
                    [
                        2.26603,
                        48.83684
                    ],
                    [
                        2.26279,
                        48.83392
                    ],
                    [
                        2.25514,
                        48.83481
                    ],
                    [
                        2.25171,
                        48.83882
                    ],
                    [
                        2.25122,
                        48.84289
                    ],
                    [
                        2.25248,
                        48.84549
                    ],
                    [
                        2.25077,
                        48.84553
                    ],
                    [
                        2.24236,
                        48.84766
                    ],
                    [
                        2.23918,
                        48.85004
                    ],
                    [
                        2.22659,
                        48.85281
                    ],
                    [
                        2.22422,
                        48.85352
                    ],
                    [
                        2.22452,
                        48.85654
                    ],
                    [
                        2.22567,
                        48.8594
                    ],
                    [
                        2.22718,
                        48.86238
                    ],
                    [
                        2.22838,
                        48.86538
                    ],
                    [
                        2.23174,
                        48.86907
                    ],
                    [
                        2.23558,
                        48.87052
                    ],
                    [
                        2.24035,
                        48.87203
                    ],
                    [
                        2.24327,
                        48.87402
                    ],
                    [
                        2.2457,
                        48.87646
                    ]
                ]
            ]
        }
    },
    {
        "type": "Feature",
        "properties": {
            "code": "75117",
            "nom": "Paris 17e Arrondissement",
            "departement": "75",
            "region": "11",
            "commune": "75056"
        },
        "geometry": {
            "type": "Polygon",
            "coordinates": [
                [
                    [
                        2.30377,
                        48.89415
                    ],
                    [
                        2.30769,
                        48.89601
                    ],
                    [
                        2.31245,
                        48.89778
                    ],
                    [
                        2.31852,
                        48.89964
                    ],
                    [
                        2.31989,
                        48.90046
                    ],
                    [
                        2.32043,
                        48.90078
                    ],
                    [
                        2.33015,
                        48.90104
                    ],
                    [
                        2.3256,
                        48.88751
                    ],
                    [
                        2.32742,
                        48.88351
                    ],
                    [
                        2.32716,
                        48.88346
                    ],
                    [
                        2.31557,
                        48.8812
                    ],
                    [
                        2.30861,
                        48.88034
                    ],
                    [
                        2.29815,
                        48.87808
                    ],
                    [
                        2.29503,
                        48.87377
                    ],
                    [
                        2.27995,
                        48.87857
                    ],
                    [
                        2.2809,
                        48.88279
                    ],
                    [
                        2.28446,
                        48.88564
                    ],
                    [
                        2.28564,
                        48.88655
                    ],
                    [
                        2.29163,
                        48.88946
                    ],
                    [
                        2.29501,
                        48.88987
                    ],
                    [
                        2.30377,
                        48.89415
                    ]
                ]
            ]
        }
    },
    {
        "type": "Feature",
        "properties": {
            "code": "75118",
            "nom": "Paris 18e Arrondissement",
            "departement": "75",
            "region": "11",
            "commune": "75056"
        },
        "geometry": {
            "type": "Polygon",
            "coordinates": [
                [
                    [
                        2.35198,
                        48.90148
                    ],
                    [
                        2.36562,
                        48.90176
                    ],
                    [
                        2.3703,
                        48.90185
                    ],
                    [
                        2.37046,
                        48.89658
                    ],
                    [
                        2.37179,
                        48.89539
                    ],
                    [
                        2.37001,
                        48.89396
                    ],
                    [
                        2.36676,
                        48.88664
                    ],
                    [
                        2.36471,
                        48.88437
                    ],
                    [
                        2.35901,
                        48.88441
                    ],
                    [
                        2.34946,
                        48.88372
                    ],
                    [
                        2.34691,
                        48.88341
                    ],
                    [
                        2.3398,
                        48.88202
                    ],
                    [
                        2.3374,
                        48.88239
                    ],
                    [
                        2.32954,
                        48.88459
                    ],
                    [
                        2.32742,
                        48.88351
                    ],
                    [
                        2.3256,
                        48.88751
                    ],
                    [
                        2.33015,
                        48.90104
                    ],
                    [
                        2.35198,
                        48.90148
                    ]
                ]
            ]
        }
    },
    {
        "type": "Feature",
        "properties": {
            "code": "75119",
            "nom": "Paris 19e Arrondissement",
            "departement": "75",
            "region": "11",
            "commune": "75056"
        },
        "geometry": {
            "type": "Polygon",
            "coordinates": [
                [
                    [
                        2.41082,
                        48.87844
                    ],
                    [
                        2.40255,
                        48.876
                    ],
                    [
                        2.39884,
                        48.87548
                    ],
                    [
                        2.39537,
                        48.87525
                    ],
                    [
                        2.39226,
                        48.87546
                    ],
                    [
                        2.38965,
                        48.8753
                    ],
                    [
                        2.38703,
                        48.87464
                    ],
                    [
                        2.38484,
                        48.87373
                    ],
                    [
                        2.37983,
                        48.87286
                    ],
                    [
                        2.3769,
                        48.87205
                    ],
                    [
                        2.37029,
                        48.87799
                    ],
                    [
                        2.37017,
                        48.88268
                    ],
                    [
                        2.36798,
                        48.88416
                    ],
                    [
                        2.36471,
                        48.88437
                    ],
                    [
                        2.36676,
                        48.88664
                    ],
                    [
                        2.37001,
                        48.89396
                    ],
                    [
                        2.37179,
                        48.89539
                    ],
                    [
                        2.37046,
                        48.89658
                    ],
                    [
                        2.3703,
                        48.90185
                    ],
                    [
                        2.38453,
                        48.90215
                    ],
                    [
                        2.38933,
                        48.90116
                    ],
                    [
                        2.39084,
                        48.90091
                    ],
                    [
                        2.39552,
                        48.89826
                    ],
                    [
                        2.39767,
                        48.89461
                    ],
                    [
                        2.39894,
                        48.88953
                    ],
                    [
                        2.39925,
                        48.88536
                    ],
                    [
                        2.40011,
                        48.88382
                    ],
                    [
                        2.40151,
                        48.88263
                    ],
                    [
                        2.40458,
                        48.88127
                    ],
                    [
                        2.40936,
                        48.88026
                    ],
                    [
                        2.41082,
                        48.87844
                    ]
                ]
            ]
        }
    },
    {
        "type": "Feature",
        "properties": {
            "code": "75120",
            "nom": "Paris 20e Arrondissement",
            "departement": "75",
            "region": "11",
            "commune": "75056"
        },
        "geometry": {
            "type": "Polygon",
            "coordinates": [
                [
                    [
                        2.41529,
                        48.85518
                    ],
                    [
                        2.41634,
                        48.84923
                    ],
                    [
                        2.41597,
                        48.84662
                    ],
                    [
                        2.39912,
                        48.8481
                    ],
                    [
                        2.39921,
                        48.84895
                    ],
                    [
                        2.39838,
                        48.85132
                    ],
                    [
                        2.39435,
                        48.85652
                    ],
                    [
                        2.39217,
                        48.85767
                    ],
                    [
                        2.38954,
                        48.85849
                    ],
                    [
                        2.38744,
                        48.86281
                    ],
                    [
                        2.38358,
                        48.86627
                    ],
                    [
                        2.38297,
                        48.86718
                    ],
                    [
                        2.37829,
                        48.87077
                    ],
                    [
                        2.3769,
                        48.87205
                    ],
                    [
                        2.37983,
                        48.87286
                    ],
                    [
                        2.38484,
                        48.87373
                    ],
                    [
                        2.38703,
                        48.87464
                    ],
                    [
                        2.38965,
                        48.8753
                    ],
                    [
                        2.39226,
                        48.87546
                    ],
                    [
                        2.39537,
                        48.87525
                    ],
                    [
                        2.39884,
                        48.87548
                    ],
                    [
                        2.40255,
                        48.876
                    ],
                    [
                        2.41082,
                        48.87844
                    ],
                    [
                        2.41245,
                        48.87644
                    ],
                    [
                        2.41343,
                        48.87314
                    ],
                    [
                        2.41396,
                        48.86922
                    ],
                    [
                        2.41395,
                        48.86471
                    ],
                    [
                        2.41442,
                        48.86024
                    ],
                    [
                        2.41529,
                        48.85518
                    ]
                ]
            ]
        }
    }
]
}